id,type,name,phone,address,latitude,longitude,nptype,nptypename,purpose,mission
290088499,法人教會,財團法人金湖鎮召會,082-326610,金門縣金湖鎮林森路13號,24.441289608835,118.41683799685,NP200,法人教會,,
290088565,法人教會,財團法人福建省金門縣沙美基督長老教會,082-352705,金門縣金沙鎮沙美122號,24.491554117323,118.41174026265,NP200,法人教會,,
290088913,法人教會,財團法人金門基督教會,082-325326,金門縣金城鎮珠浦北路30號,24.433794353748,118.31755313624,NP200,法人教會,,
290088913,法人教會,財團法人金門基督教會,082-325326,金門縣金城鎮珠浦北路30號,24.433794353748,118.31755313624,NP200,法人教會,,
290088765,法人教會,財團法人竹北市召會,03-5777414,新竹縣竹北市文昌街52號,24.835850464213,121.00110934903,NP200,法人教會,,
290088601,法人教會,財團法人台灣基督長老教會客家宣教中會,03-5992442,新竹縣湖口鄉民族街200號,24.905169250601,121.04690280891,NP200,法人教會,,
290088561,法人教會,財團法人台灣基督長老教會新竹中會,03-5612321,新竹縣竹北市中正東路366號,24.836415461195,121.00995880893,NP200,法人教會,,
290088614,法人教會,財團法人基督教新竹靈糧堂,03-5719126,新竹縣竹北市嘉勤南路86號5樓,24.821622086903,121.01515712875,NP200,法人教會,,
290088445,法人教會,財團法人竹東鎮召會,03-5963006,新竹縣竹東鎮東昇路41號,24.71990065796,121.09923354831,NP200,法人教會,,
290088512,法人教會,財團法人台灣基督長老教會客家宣教中會,03-5624843,新竹縣竹北市六家五路一段189號,24.808517024699,121.02737914898,NP200,法人教會,,
290088514,法人教會,財團法人台灣省新竹縣基督教改革宗長老會竹東教會,03-5941686,新竹縣竹東鎮幸福路132號,24.723085880645,121.09073330369,NP200,法人教會,,
290088356,法人教會,財團法人新豐教會聚會所,03-5593605,新竹縣新豐鄉坑子口上坑村1鄰105之21號2樓,,,,,,
290088387,法人教會,財團法人天主教聖衣會,03-5922104,新竹縣芎林鄉五股林新鳳村5鄰19號,,,,,,
290088411,法人教會,財團法人新竹縣基督教客家福音協會,03-5945546,新竹縣竹東鎮自強路58號1樓,24.747499337532,121.08157603637,NP200,法人教會,,
290088801,法人教會,財團法人新竹縣天主教耶蘇聖心烏蘇拉傳教修女會,03-5595131,新竹縣湖口鄉民族街愛勢村142號,24.903795127018,121.04607696524,NP200,法人教會,,
290088802,法人教會,財團法人新竹縣湖口鄉召會,03-5694915,新竹縣湖口鄉信全街27巷21號,24.899471776756,121.04122814816,NP200,法人教會,,
290088827,法人教會,耶穌基督後期聖徒教會竹南支會,037-474043,苗栗縣竹南鎮中美里7鄰21之1號,24.685526497932,120.86006329182,NP200,法人教會,,
290088989,法人教會,財團法人台灣基督教神召會竹南神召會,037-472543,苗栗縣竹南鎮和平街正南里14鄰58號,,,,,,
290089167,法人教會,北苗天主堂,037-261175,苗栗縣苗栗市長安街15號,24.569666980238,120.82561862905,NP200,法人教會,,
290089235,法人教會,基督復臨安息日會台灣區會苗栗教會,037-369160,苗栗縣苗栗市新東街286號,24.549353837781,120.82390248108,NP200,法人教會,,
290089290,法人教會,苗栗市召會,037-335770,苗栗縣苗栗市勵志街15號,24.560815370634,120.82439497391,NP200,法人教會,,
290088355,法人教會,基督教造橋教會,037-633567,苗栗縣造橋鄉朝陽村10鄰93號,24.652894086467,120.86808946259,NP200,法人教會,,
290088441,法人教會,東河基督長老教會,037-825079,苗栗縣南庄鄉東河村6鄰6號,24.596830600084,121.04402781617,NP200,法人教會,,
290088376,法人教會,臺灣基督長老教會蓬萊基督長老教會,037-822873,苗栗縣南庄鄉大湳蓮萊村14鄰20號,,,,,,
290088377,法人教會,財團法人中華基督教行道會西湖平安堂,037-920466,苗栗縣西湖鄉埔頂東村7-35號,,,,,,
290088386,法人教會,努呼路瑪基督長老教會,037-962300,苗栗縣泰安鄉大安象鼻村5鄰29-1號,,,,,,
290088385,法人教會,大興神召會,037-990072,苗栗縣泰安鄉南灣大興村7鄰11號,,,,,,
290089346,法人教會,天主教新竹教區苑裡耶穌聖心堂,037-861049,苗栗縣苑裡鎮世界路苑南里12號,24.440441221241,120.65704302176,NP200,法人教會,,
290088421,法人教會,財團法人台灣基督長老教會客家區會銅鑼教會,037-982110,苗栗縣銅鑼鄉平陽路朝陽村28號,24.491423264263,120.78864118058,NP200,法人教會,,
290088433,法人教會,司馬限基督長老教會,037-995698,苗栗縣泰安鄉司馬限中興村5鄰16-2號,,,,,,
290088432,法人教會,士林真耶蘇教會,037-962070,苗栗縣泰安鄉馬那邦士林村4鄰13-2號,,,,,,
290088449,法人教會,大安神召會,037-962420,苗栗縣泰安鄉大安象鼻村6鄰16號,,,,,,
290088448,法人教會,士林基督長老教會,037-358141,苗栗縣泰安鄉士林村4鄰10號,24.346055286819,120.92837435306,NP200,法人教會,,
290088468,法人教會,頭份天主堂,037-663141,苗栗縣頭份市中華路834號,24.682439391573,120.90487130575,NP200,法人教會,,
290088463,法人教會,基督教大興新使徒教會,037-996823,苗栗縣泰安鄉高熊卡大興村2鄰12號,,,,,,
290088462,法人教會,馬巴督安基督長老教會,037-334471,苗栗縣泰安鄉清安村7鄰168號,24.433924813217,120.93235587941,NP200,法人教會,,
290088469,法人教會,財團法人台灣省苗栗縣頭份教會聚會所,037-660103,苗栗縣頭份市東興路165巷24號,24.683022700551,120.90190566178,NP200,法人教會,,
290088472,法人教會,財團法人天主教新竹區耶蘇瑪利亞聖心修女會,037-250741,苗栗縣頭屋鄉中山街頭屋村4鄰22號,,,,,,
290088488,法人教會,台灣基督長老教會頭份教會,037-665381,苗栗縣頭份市中央路67號,24.688443053047,120.90551501465,NP200,法人教會,,
290088481,法人教會,東江真耶穌教會,037-822340,苗栗縣南庄鄉南江村25鄰50號,24.574257079139,120.98537701104,NP200,法人教會,,
290088474,法人教會,基層福音差傳會大西教會,037-544675,苗栗縣造橋鄉迼橋鄉大西村14鄰6-11號,,,,,,
290088506,法人教會,財團法人台灣省苗栗縣中華基督徒祈禱院,037-635135,苗栗縣造橋鄉談文村3鄰3號,24.640589979891,120.84826498387,NP200,法人教會,,
290088516,法人教會,三灣天主堂,037-832430,苗栗縣三灣鄉三灣村民治街28號,24.657310031472,120.95813903817,NP200,法人教會,,
290088526,法人教會,台灣基督教長老教會公館教會,037-230367,苗栗縣公館鄉成功路19號,24.502736211176,120.82681313071,NP200,法人教會,,
290088525,法人教會,臺灣基層福音差傳會頭屋教會,037-250191,苗栗縣頭屋鄉中山街頭屋村5鄰33號,,,,,,
290088553,法人教會,麥路豐基督長老教會,037-962331,苗栗縣泰安鄉梅園村2鄰25號,24.384810552485,120.96569620193,NP200,法人教會,,
290088611,法人教會,東江基督長老教會,037-822204,苗栗縣南庄鄉南江村東江新村1號,24.595063579691,121.00542657449,NP200,法人教會,,
290088921,法人教會,財團法人中華基督教浸信宣道會員林教會,04-8353960,彰化縣員林市三民東街中正里25號,23.959223708889,120.57580067685,NP200,法人教會,,
290088588,法人教會,財團法人台灣基督長老教會彰化中會,04-7243639,彰化縣二林鎮二溪路七段600巷21號,23.954089986554,120.43430137347,NP200,法人教會,,
290088415,法人教會,財團法人彰化縣員林教會聚會所,04-8326527,彰化縣員林市育英路153號,23.963479502288,120.57408314251,NP200,法人教會,,
290089002,法人教會,財團法人彰化縣基督教中華福音道路德會甘露堂,04-7517595,彰化縣彰化市崙平南路122號,24.063980379723,120.52541867499,NP200,法人教會,,
290089020,法人教會,財團法人基督教中華協力會,04-7121035,彰化縣彰化市介壽新村103號,,,,,,
290089067,法人教會,財團法人台灣基督長老教會彰化教會,04-7224011,彰化縣彰化市中華路195號,24.077962441938,120.5392499514,NP200,法人教會,,
290089137,法人教會,財團法人彰化市教會聚會所,04-7225841,彰化縣彰化市光華街152號,24.073333946403,120.54380280525,NP200,法人教會,,
290089138,法人教會,財團法人基督教會彰化主恩靈糧堂,04-7262603,彰化縣彰化市三民路407號5樓,24.086653968977,120.54733116285,NP200,法人教會,,
290089184,法人教會,財團法人天主教耶穌聖心修女會,"04-8744032 . 8741464",彰化縣田中鎮中潭里員集路三段125巷54號,23.868057326848,120.58597485664,NP200,法人教會,,
290089347,法人教會,財團法人和美教會聚會所,04-7563147,彰化縣和美鎮和光路山梨里181巷46號,24.109720769023,120.49265551903,NP200,法人教會,,
290088850,法人教會,臺灣基督長老教會,04-8650479,彰化縣埔鹽鄉大新路新水村16號,23.986169730951,120.44529395988,NP200,法人教會,,
290088911,法人教會,財團法人彰化縣天理教真明彰化教會,04-7220588,彰化縣彰化市成功里中山路二段67巷7號,24.068691819015,120.53988863899,NP200,法人教會,,
290088910,法人教會,財團法人中華基督教彰化浸信會,04-7232784,彰化縣彰化市公園路一段10號,24.076923157261,120.54488556898,NP200,法人教會,,
290088795,法人教會,財團法人中華基督教鹿港浸信會,04-7775354,彰化縣鹿港鎮民權路埔崙里111號,24.057274769413,120.43648875322,NP200,法人教會,,
290088946,法人教會,財團法人鹿港教會聚會所,04-7778307,彰化縣鹿港鎮永安一路埔崙里89號,24.059223064087,120.44118416211,NP200,法人教會,,
290088959,法人教會,財團法人新約教會彰化教會,04-7115153,彰化縣彰化市大埔路700號5樓,24.069013074548,120.54271738366,NP200,法人教會,,
290088415,法人教會,財團法人彰化縣員林教會聚會所,04-8326527,彰化縣員林市育英路153號,23.963479502288,120.57408314251,NP200,法人教會,,
290088588,法人教會,財團法人台灣基督長老教會彰化中會,04-7243639,彰化縣二林鎮二溪路七段600巷21號,23.954089986554,120.43430137347,NP200,法人教會,,
290088795,法人教會,財團法人中華基督教鹿港浸信會,04-7775354,彰化縣鹿港鎮民權路埔崙里111號,24.057274769413,120.43648875322,NP200,法人教會,,
290088850,法人教會,臺灣基督長老教會,04-8650479,彰化縣埔鹽鄉大新路新水村16號,23.986169730951,120.44529395988,NP200,法人教會,,
290088910,法人教會,財團法人中華基督教彰化浸信會,04-7232784,彰化縣彰化市公園路一段10號,24.076923157261,120.54488556898,NP200,法人教會,,
290088911,法人教會,財團法人彰化縣天理教真明彰化教會,04-7220588,彰化縣彰化市成功里中山路二段67巷7號,24.068691819015,120.53988863899,NP200,法人教會,,
290088921,法人教會,財團法人中華基督教浸信宣道會員林教會,04-8353960,彰化縣員林市三民東街中正里25號,23.959223708889,120.57580067685,NP200,法人教會,,
290088946,法人教會,財團法人鹿港教會聚會所,04-7778307,彰化縣鹿港鎮永安一路埔崙里89號,24.059223064087,120.44118416211,NP200,法人教會,,
290089002,法人教會,財團法人彰化縣基督教中華福音道路德會甘露堂,04-7517595,彰化縣彰化市崙平南路122號,24.063980379723,120.52541867499,NP200,法人教會,,
290089067,法人教會,財團法人台灣基督長老教會彰化教會,04-7224011,彰化縣彰化市中華路195號,24.077962441938,120.5392499514,NP200,法人教會,,
290089137,法人教會,財團法人彰化市教會聚會所,04-7225841,彰化縣彰化市光華街152號,24.073333946403,120.54380280525,NP200,法人教會,,
290089138,法人教會,財團法人基督教會彰化主恩靈糧堂,04-7262603,彰化縣彰化市三民路407號5樓,24.086653968977,120.54733116285,NP200,法人教會,,
290089184,法人教會,財團法人天主教耶穌聖心修女會,"04-8744032 . 8741464",彰化縣田中鎮中潭里員集路三段125巷54號,23.868057326848,120.58597485664,NP200,法人教會,,
290089347,法人教會,財團法人和美教會聚會所,04-7563147,彰化縣和美鎮和光路山梨里181巷46號,24.109720769023,120.49265551903,NP200,法人教會,,
290088447,法人教會,財團法人彰化縣社頭教會聚會所,04-8732454,彰化縣社頭鄉民權路仁雅村188號,23.89620383369,120.58552049303,NP200,法人教會,,
290088959,法人教會,財團法人新約教會彰化教會,04-7115153,彰化縣彰化市大埔路700號5樓,24.069013074548,120.54271738366,NP200,法人教會,,
290089020,法人教會,財團法人基督教中華協力會,04-7121035,彰化縣彰化市介壽新村103號,,,,,,
290088405,法人教會,財團法人台灣浸信宣道會神學院,05-5868164,雲林縣西螺鎮文昌路107號,23.798265424027,120.4634602391,NP200,法人教會,,
290088423,法人教會,財團法人斗六基督教浸信會,05-5323354,雲林縣斗六市文化路42號,23.710753739589,120.54650619,NP200,法人教會,,
290088691,法人教會,財團法人基督長老教會,05-6322265,雲林縣虎尾鎮公安路197號,23.710025849597,120.43230567352,NP200,法人教會,,
290089032,法人教會,財團法人虎尾教會聚會所,05-6325091,雲林縣虎尾鎮德興路德興里80號,23.711243797508,120.43052087272,NP200,法人教會,,
290088964,法人教會,財團法人天主教中華道明修女會,05-5974880,雲林縣斗南鎮永安街58號,23.678836638512,120.4827039134,NP200,法人教會,,
290088873,法人教會,財團法人中國天主教雲林遣使會,05-7872024,雲林縣四湖鄉四湖村東湖160之2號,23.63974711651,120.23253807691,NP200,法人教會,,
290088641,法人教會,財團法人虎尾基督教浸信宣道會,05-6312916,雲林縣虎尾鎮中山里林森路一段517號,23.708497914781,120.43237043756,NP200,法人教會,,
290088964,法人教會,財團法人天主教中華道明修女會,05-5974880,雲林縣斗南鎮永安街58號,23.678836638512,120.4827039134,NP200,法人教會,,
290088405,法人教會,財團法人台灣浸信宣道會神學院,05-5868164,雲林縣西螺鎮文昌路107號,23.798265424027,120.4634602391,NP200,法人教會,,
290088573,法人教會,財團法人虎尾基督徒聚會處,05-6327882,雲林縣虎尾鎮文化路西安里70號,23.705446904994,120.4284226746,NP200,法人教會,,
290088641,法人教會,財團法人虎尾基督教浸信宣道會,05-6312916,雲林縣虎尾鎮中山里林森路一段517號,23.708497914781,120.43237043756,NP200,法人教會,,
290088806,法人教會,財團法人新約教會,05-2649048,雲林縣虎尾鎮林森路１段虎尾教會虎尾396巷34號,23.711517627447,120.43447435734,NP200,法人教會,,
290088873,法人教會,財團法人中國天主教雲林遣使會,05-7872024,雲林縣四湖鄉四湖村東湖160之2號,23.63974711651,120.23253807691,NP200,法人教會,,
290088914,法人教會,財團法人西螺基督四方教會,05-5866872,雲林縣西螺鎮修文路137號,23.801770588522,120.45839068453,NP200,法人教會,,
290088952,法人教會,財團法人斗南基督教浸信會,-,雲林縣斗南鎮中山路163號,23.678432461864,120.47747719373,NP200,法人教會,,
290088964,法人教會,財團法人天主教中華道明修女會,05-5974880,雲林縣斗南鎮永安街58號,23.678836638512,120.4827039134,NP200,法人教會,,
290089032,法人教會,財團法人虎尾教會聚會所,05-6325091,雲林縣虎尾鎮德興路德興里80號,23.711243797508,120.43052087272,NP200,法人教會,,
290089133,法人教會,財團法人基督教虎尾浸信會,05-6331556,雲林縣虎尾鎮水源路2號,23.711447789113,120.43258901571,NP200,法人教會,,
290088573,法人教會,財團法人虎尾基督徒聚會處,05-6327882,雲林縣虎尾鎮文化路西安里70號,23.705446904994,120.4284226746,NP200,法人教會,,
290088641,法人教會,財團法人虎尾基督教浸信宣道會,05-6312916,雲林縣虎尾鎮中山里林森路一段517號,23.708497914781,120.43237043756,NP200,法人教會,,
290088691,法人教會,財團法人基督長老教會,05-6322265,雲林縣虎尾鎮公安路197號,23.710025849597,120.43230567352,NP200,法人教會,,
290088733,法人教會,財團法人天理教斗六教會,05-5962771,雲林縣斗南鎮雲林路３段619巷1弄19號及21號,23.687269172534,120.50042831555,NP200,法人教會,,
290089025,法人教會,財團法人台灣省嘉義縣朴子教會聚會所,05-3700464,嘉義縣朴子市山通路1之34號,23.466163314367,120.25094040912,NP200,法人教會,,
290088483,法人教會,財團法人民雄教會聚會所,05-2267548,嘉義縣民雄鄉建國路二段185之4號,23.539580238301,120.43391661027,NP200,法人教會,,
290088853,法人教會,財團法人中華基督教民生浸信會,05-2837167,嘉義縣水上鄉成功街民生村13鄰7巷22號,,,,,,
290088897,法人教會,財團法人十誡石國台灣農村復舊會,07-7480878,屏東縣高樹鄉南華村大同巷49號,22.773547545583,120.59436826647,NP200,法人教會,,
290088944,法人教會,基督教拿撒勒人會南和教會,08-8791692,屏東縣來義鄉南和村123號,22.4370520337,120.64100117865,NP200,法人教會,,
290088942,法人教會,基督長老教會文樂教會,08-7981549,屏東縣來義鄉文樂村38號,22.492162407262,120.62447511754,NP200,法人教會,,
290089024,法人教會,基督長老教會望嘉教會,08-7981558,屏東縣來義鄉望嘉村14鄰171號,22.463629794753,120.61915095499,NP200,法人教會,,
290089022,法人教會,財團法人台灣省屏東縣屏東基督教會,08-7233793,屏東縣屏東市民生東路田中一橫巷12號,22.660303799122,120.51150944041,NP200,法人教會,,
290088370,法人教會,財團法人台灣省屏東縣高樹鄉基督教會,08-7894247,屏東縣高樹鄉自強鹽樹村路88-1號,,,,,,
290089057,法人教會,古樓浸信會,08-7850198,屏東縣來義鄉中正路古樓村108巷8號,22.526067886338,120.63194379974,NP200,法人教會,,
290089117,法人教會,基督教傳道會義林教會,08-7850815,屏東縣來義鄉義林村44號,22.526350191037,120.66346835763,NP200,法人教會,,
290088412,法人教會,財團法人台灣省屏東縣基督教新生會潮州教會,08-7884081,屏東縣潮州鎮信義路35號,22.54782356557,120.53625644808,NP200,法人教會,,
290089116,法人教會,財團法人中華基督教協同會屏東市感恩禮拜堂,08-7531703,屏東縣屏東市建國路180號,22.665458934569,120.47918176195,NP200,法人教會,,
290089094,法人教會,財團法人石門浸信會,08-8831028,屏東縣牡丹鄉石門村111號,22.127245205062,120.77415539567,NP200,法人教會,,
290089099,法人教會,基督教中國佈道會義林聖道堂,08-7850395,屏東縣來義鄉義林村53之1號,22.526606584829,120.66303621072,NP200,法人教會,,
290089187,法人教會,財團法人基督教民富教會,08-7381180,屏東縣屏東市大連路1巷24號8樓-3,22.682867115916,120.5103079089,NP200,法人教會,,
290089153,法人教會,基督長老教會古樓教會,08-78504314,屏東縣來義鄉古樓村83之1號,22.525194646104,120.6326866678,NP200,法人教會,,
290089190,法人教會,義林天主堂,-0932978782,屏東縣來義鄉義林村44號,22.526350191037,120.66346835763,NP200,法人教會,,
290089302,法人教會,財團法人中華基督教屏東浸信會,08-7220075,屏東縣屏東市林森路14-5號,22.670496517661,120.50172073215,NP200,法人教會,,
290089254,法人教會,下丹林天主堂,08-7851043,屏東縣來義鄉古義路丹林村23號,22.527420502638,120.65109541913,NP200,法人教會,,
290089255,法人教會,基督復臨安息日會文樂教會,08-7981608,屏東縣來義鄉文樂村8之1號,22.49270565199,120.62452234308,NP200,法人教會,,
290088552,法人教會,財團法人台灣省屏東縣潮州教會聚會所,08-7892578,屏東縣潮州鎮三和里潮昇路206巷12號,22.558415830845,120.53963277876,NP200,法人教會,,
290089304,法人教會,基督教拿撒勒人會丹林教會,08-7851093,屏東縣來義鄉丹林村64之1號,22.515568044785,120.63433989566,NP200,法人教會,,
290089303,法人教會,來義基督教會,08-7850597,屏東縣來義鄉中正路古樓村43之1號,22.525613069425,120.63427798312,NP200,法人教會,,
290089301,法人教會,財團法人新約教會屏東教會,08-7521531,屏東縣屏東市林內巷45號,,,,,,
290089312,法人教會,財團法人天主教玫瑰道明傳教修女會,08-7332703,屏東縣屏東市信義路159號,22.679007018198,120.48905236222,NP200,法人教會,,
290089330,法人教會,財團法人基督教中央教會總部,03-4995531,"屏東縣來義鄉文樂村新樂16之3號 (通訊處：244新北市林口區湖北里2鄰湖子路9之5號)",22.492869054677,120.62484495691,NP200,法人教會,,
290089329,法人教會,財團法人台灣省屏東縣基督教浸信宣道會,08-7362382,屏東縣屏東市自由路339號,22.678588815019,120.49718831049,NP200,法人教會,,
290089331,法人教會,大後天主堂,-0933383621,屏東縣來義鄉義林村大後路5之1號,22.560376325765,120.66185205915,NP200,法人教會,,
290088648,法人教會,財團法人台灣基督長老教會楓林教會,-,屏東縣獅子鄉楓林村2巷6號,22.197607475212,120.70748915318,NP200,法人教會,,
290089349,法人教會,來義天主堂,-0937384002,屏東縣來義鄉來義村2鄰17號,22.526232582,120.67618244178,NP200,法人教會,,
290089350,法人教會,基督教拿撒勒人會來義教會,08-7850569,屏東縣來義鄉來義村15之1號,22.526351883412,120.67685642839,NP200,法人教會,,
290088874,法人教會,財團法人台灣基督長老教會屏東中會,08-8782425,屏東縣屏東市香揚巷1-6號,,,,,,
290089373,法人教會,古樓天主堂,0/8-7851005,屏東縣來義鄉中正路古樓村139之1號,22.526195588746,120.62985710005,NP200,法人教會,,
290089381,法人教會,財團法人旭海基督長老教會,08-8830257,屏東縣牡丹鄉東海路旭海村21號,22.197519878052,120.89064078274,NP200,法人教會,,
290089448,法人教會,財團法人中間路循理會,08-8830277,屏東縣牡丹鄉中間路石門村1號,22.133940285044,120.79946281485,NP200,法人教會,,
290089442,法人教會,財團法人馬拉地基督長老教會,08-8830081,屏東縣牡丹鄉牡丹路牡丹村31號,22.179921915731,120.84310485374,NP200,法人教會,,
290089444,法人教會,財團法人東源基督長老教會,08-8830580,屏東縣牡丹鄉東源路東源村1號,22.207380557563,120.85447226994,NP200,法人教會,,
290088761,法人教會,財團法人基督教恆春錫安堂,08-8892566,屏東縣恆春鎮中正路67號,22.002859924085,120.74469278085,NP200,法人教會,,
290089024,法人教會,基督長老教會望嘉教會,08-7981558,屏東縣來義鄉望嘉村14鄰171號,22.463629794753,120.61915095499,NP200,法人教會,,
290089070,法人教會,基督長老教會南和教會,-,屏東縣來義鄉南和村225之1號,22.434872588854,120.63993553152,NP200,法人教會,,
290089071,法人教會,基督教拿撒勒人會古樓教會,08-7850165,屏東縣來義鄉新隆路萬巒鄉新置村9號,22.524958136784,120.63048381082,NP200,法人教會,,
290089094,法人教會,財團法人石門浸信會,08-8831028,屏東縣牡丹鄉石門村111號,22.127245205062,120.77415539567,NP200,法人教會,,
290089151,法人教會,中丹林天主堂,-0933382745,屏東縣來義鄉古義路丹林村56號,22.525422317807,120.6584030635,NP200,法人教會,,
290088412,法人教會,財團法人台灣省屏東縣基督教新生會潮州教會,08-7884081,屏東縣潮州鎮信義路35號,22.54782356557,120.53625644808,NP200,法人教會,,
290089304,法人教會,基督教拿撒勒人會丹林教會,08-7851093,屏東縣來義鄉丹林村64之1號,22.515568044785,120.63433989566,NP200,法人教會,,
290089303,法人教會,來義基督教會,08-7850597,屏東縣來義鄉中正路古樓村43之1號,22.525613069425,120.63427798312,NP200,法人教會,,
290089329,法人教會,財團法人台灣省屏東縣基督教浸信宣道會,08-7362382,屏東縣屏東市自由路339號,22.678588815019,120.49718831049,NP200,法人教會,,
290089312,法人教會,財團法人天主教玫瑰道明傳教修女會,08-7332703,屏東縣屏東市信義路159號,22.679007018198,120.48905236222,NP200,法人教會,,
290089301,法人教會,財團法人新約教會屏東教會,08-7521531,屏東縣屏東市林內巷45號,,,,,,
290089325,法人教會,財團法人石門基督長老教會,08-8831296,屏東縣牡丹鄉石門村115號,22.126662843735,120.77317852654,NP200,法人教會,,
290089330,法人教會,財團法人基督教中央教會總部,03-4995531,"屏東縣來義鄉文樂村新樂16之3號 (通訊處：244新北市林口區湖北里2鄰湖子路9之5號)",22.492869054677,120.62484495691,NP200,法人教會,,
290088858,法人教會,望嘉天主堂,-0932793862,屏東縣來義鄉望嘉村133號,22.463090367169,120.62207231914,NP200,法人教會,,
290089331,法人教會,大後天主堂,-0933383621,屏東縣來義鄉義林村大後路5之1號,22.560376325765,120.66185205915,NP200,法人教會,,
290089350,法人教會,基督教拿撒勒人會來義教會,08-7850569,屏東縣來義鄉來義村15之1號,22.526351883412,120.67685642839,NP200,法人教會,,
290088856,法人教會,財團法人屏東市教會聚會所,08-7326244,屏東縣屏東市北平路36號,22.676139761301,120.48759429346,NP200,法人教會,,
290089373,法人教會,古樓天主堂,0/8-7851005,屏東縣來義鄉中正路古樓村139之1號,22.526195588746,120.62985710005,NP200,法人教會,,
290089381,法人教會,財團法人旭海基督長老教會,08-8830257,屏東縣牡丹鄉東海路旭海村21號,22.197519878052,120.89064078274,NP200,法人教會,,
290089349,法人教會,來義天主堂,-0937384002,屏東縣來義鄉來義村2鄰17號,22.526232582,120.67618244178,NP200,法人教會,,
290088874,法人教會,財團法人台灣基督長老教會屏東中會,08-8782425,屏東縣屏東市香揚巷1-6號,,,,,,
290088878,法人教會,來義鄉天主公教會,08-7850201,屏東縣來義鄉古義路丹林村52號,22.524734199963,120.65745208684,NP200,法人教會,,
290088897,法人教會,財團法人十誡石國台灣農村復舊會,07-7480878,屏東縣高樹鄉南華村大同巷49號,22.773547545583,120.59436826647,NP200,法人教會,,
290089254,法人教會,下丹林天主堂,08-7851043,屏東縣來義鄉古義路丹林村23號,22.527420502638,120.65109541913,NP200,法人教會,,
290088896,法人教會,財團法人台灣省屏東縣基督教協同會勝利禮拜堂,08-7664143,屏東縣屏東市勝利路180號,22.679284366067,120.48088498172,NP200,法人教會,,
290088943,法人教會,南和浸信會,08-8792163,屏東縣來義鄉南和村23號,22.436756399047,120.64334615764,NP200,法人教會,,
290089255,法人教會,基督復臨安息日會文樂教會,08-7981608,屏東縣來義鄉文樂村8之1號,22.49270565199,120.62452234308,NP200,法人教會,,
290089428,法人教會,財團法人石門安息日會,08-8831067,屏東縣牡丹鄉石門村129號,22.127007450185,120.77386448004,NP200,法人教會,,
290088944,法人教會,基督教拿撒勒人會南和教會,08-8791692,屏東縣來義鄉南和村123號,22.4370520337,120.64100117865,NP200,法人教會,,
290088942,法人教會,基督長老教會文樂教會,08-7981549,屏東縣來義鄉文樂村38號,22.492162407262,120.62447511754,NP200,法人教會,,
290089448,法人教會,財團法人中間路循理會,08-8830277,屏東縣牡丹鄉中間路石門村1號,22.133940285044,120.79946281485,NP200,法人教會,,
290089442,法人教會,財團法人馬拉地基督長老教會,08-8830081,屏東縣牡丹鄉牡丹路牡丹村31號,22.179921915731,120.84310485374,NP200,法人教會,,
290089443,法人教會,財團法人牡丹中央教會,08-8830475,屏東縣牡丹鄉牡丹路牡丹村81號,22.176085937637,120.83924192779,NP200,法人教會,,
290089222,法人教會,財團法人牡丹循理會,08-8830277,屏東縣牡丹鄉牡丹路牡丹村147號,22.174160953812,120.8347461051,NP200,法人教會,,
290089444,法人教會,財團法人東源基督長老教會,08-8830580,屏東縣牡丹鄉東源路東源村1號,22.207380557563,120.85447226994,NP200,法人教會,,
290089116,法人教會,財團法人中華基督教協同會屏東市感恩禮拜堂,08-7531703,屏東縣屏東市建國路180號,22.665458934569,120.47918176195,NP200,法人教會,,
290089070,法人教會,基督長老教會南和教會,-,屏東縣來義鄉南和村225之1號,22.434872588854,120.63993553152,NP200,法人教會,,
290088859,法人教會,基督教傳道會古樓教會,08-7850858,"屏東縣來義鄉古樓村    路    號",,,,,,
290089024,法人教會,基督長老教會望嘉教會,08-7981558,屏東縣來義鄉望嘉村14鄰171號,22.463629794753,120.61915095499,NP200,法人教會,,
290088877,法人教會,丹林天主堂,-0910880183,屏東縣來義鄉丹林村117號,22.516661211722,120.63630999494,NP200,法人教會,,
290088552,法人教會,財團法人台灣省屏東縣潮州教會聚會所,08-7892578,屏東縣潮州鎮三和里潮昇路206巷12號,22.558415830845,120.53963277876,NP200,法人教會,,
290089071,法人教會,基督教拿撒勒人會古樓教會,08-7850165,屏東縣來義鄉新隆路萬巒鄉新置村9號,22.524958136784,120.63048381082,NP200,法人教會,,
290089022,法人教會,財團法人台灣省屏東縣屏東基督教會,08-7233793,屏東縣屏東市民生東路田中一橫巷12號,22.660303799122,120.51150944041,NP200,法人教會,,
290089060,法人教會,財團法人大梅基督長老教會,08-8822255,屏東縣牡丹鄉大梅路石門村51號,22.101054788964,120.74587393859,NP200,法人教會,,
290089057,法人教會,古樓浸信會,08-7850198,屏東縣來義鄉中正路古樓村108巷8號,22.526067886338,120.63194379974,NP200,法人教會,,
290089094,法人教會,財團法人石門浸信會,08-8831028,屏東縣牡丹鄉石門村111號,22.127245205062,120.77415539567,NP200,法人教會,,
290089099,法人教會,基督教中國佈道會義林聖道堂,08-7850395,屏東縣來義鄉義林村53之1號,22.526606584829,120.66303621072,NP200,法人教會,,
290088761,法人教會,財團法人基督教恆春錫安堂,08-8892566,屏東縣恆春鎮中正路67號,22.002859924085,120.74469278085,NP200,法人教會,,
290088648,法人教會,財團法人台灣基督長老教會楓林教會,-,屏東縣獅子鄉楓林村2巷6號,22.197607475212,120.70748915318,NP200,法人教會,,
290089428,法人教會,財團法人石門安息日會,08-8831067,屏東縣牡丹鄉石門村129號,22.127007450185,120.77386448004,NP200,法人教會,,
290089448,法人教會,財團法人中間路循理會,08-8830277,屏東縣牡丹鄉中間路石門村1號,22.133940285044,120.79946281485,NP200,法人教會,,
290089443,法人教會,財團法人牡丹中央教會,08-8830475,屏東縣牡丹鄉牡丹路牡丹村81號,22.176085937637,120.83924192779,NP200,法人教會,,
290089442,法人教會,財團法人馬拉地基督長老教會,08-8830081,屏東縣牡丹鄉牡丹路牡丹村31號,22.179921915731,120.84310485374,NP200,法人教會,,
290089444,法人教會,財團法人東源基督長老教會,08-8830580,屏東縣牡丹鄉東源路東源村1號,22.207380557563,120.85447226994,NP200,法人教會,,
290088943,法人教會,南和浸信會,08-8792163,屏東縣來義鄉南和村23號,22.436756399047,120.64334615764,NP200,法人教會,,
290089022,法人教會,財團法人台灣省屏東縣屏東基督教會,08-7233793,屏東縣屏東市民生東路田中一橫巷12號,22.660303799122,120.51150944041,NP200,法人教會,,
290089057,法人教會,古樓浸信會,08-7850198,屏東縣來義鄉中正路古樓村108巷8號,22.526067886338,120.63194379974,NP200,法人教會,,
290089099,法人教會,基督教中國佈道會義林聖道堂,08-7850395,屏東縣來義鄉義林村53之1號,22.526606584829,120.66303621072,NP200,法人教會,,
290089117,法人教會,基督教傳道會義林教會,08-7850815,屏東縣來義鄉義林村44號,22.526350191037,120.66346835763,NP200,法人教會,,
290089151,法人教會,中丹林天主堂,-0933382745,屏東縣來義鄉古義路丹林村56號,22.525422317807,120.6584030635,NP200,法人教會,,
290089152,法人教會,文樂天主堂,-0913635229,屏東縣來義鄉文樂村4鄰50號,22.491730497271,120.62465209556,NP200,法人教會,,
290089186,法人教會,財團法人台灣省屏東縣屏東中華路基督教會,08-7373273,屏東縣屏東市中華路端正里95號,22.673927794039,120.49038346447,NP200,法人教會,,
290089191,法人教會,南和天主堂,-8791486,屏東縣來義鄉南和村52號,22.436573010199,120.64254543504,NP200,法人教會,,
290089222,法人教會,財團法人牡丹循理會,08-8830277,屏東縣牡丹鄉牡丹路牡丹村147號,22.174160953812,120.8347461051,NP200,法人教會,,
290089232,法人教會,財團法人基督教浸禮聖經會屏東會幕堂,08-7330081,屏東縣屏東市忠孝路150號,22.683307084083,120.48957120592,NP200,法人教會,,
290089239,法人教會,財團法人牡丹天主堂,08-8831169,屏東縣牡丹鄉,,,,,,
290089254,法人教會,下丹林天主堂,08-7851043,屏東縣來義鄉古義路丹林村23號,22.527420502638,120.65109541913,NP200,法人教會,,
290089255,法人教會,基督復臨安息日會文樂教會,08-7981608,屏東縣來義鄉文樂村8之1號,22.49270565199,120.62452234308,NP200,法人教會,,
290089325,法人教會,財團法人石門基督長老教會,08-8831296,屏東縣牡丹鄉石門村115號,22.126662843735,120.77317852654,NP200,法人教會,,
290089373,法人教會,古樓天主堂,0/8-7851005,屏東縣來義鄉中正路古樓村139之1號,22.526195588746,120.62985710005,NP200,法人教會,,
290088856,法人教會,財團法人屏東市教會聚會所,08-7326244,屏東縣屏東市北平路36號,22.676139761301,120.48759429346,NP200,法人教會,,
290088859,法人教會,基督教傳道會古樓教會,08-7850858,"屏東縣來義鄉古樓村    路    號",,,,,,
290088858,法人教會,望嘉天主堂,-0932793862,屏東縣來義鄉望嘉村133號,22.463090367169,120.62207231914,NP200,法人教會,,
290088878,法人教會,來義鄉天主公教會,08-7850201,屏東縣來義鄉古義路丹林村52號,22.524734199963,120.65745208684,NP200,法人教會,,
290088874,法人教會,財團法人台灣基督長老教會屏東中會,08-8782425,屏東縣屏東市香揚巷1-6號,,,,,,
290088877,法人教會,丹林天主堂,-0910880183,屏東縣來義鄉丹林村117號,22.516661211722,120.63630999494,NP200,法人教會,,
290088897,法人教會,財團法人十誡石國台灣農村復舊會,07-7480878,屏東縣高樹鄉南華村大同巷49號,22.773547545583,120.59436826647,NP200,法人教會,,
290088799,法人教會,財團法人北部台灣基督長老教會東部中會,089-831002,臺東縣臺東市鐵花路51號,22.747640530662,121.15216331149,NP200,法人教會,,
290089061,法人教會,財團法人新約教會花蓮教會,03-8572821,花蓮縣花蓮市國富12街17號,,,,,,
290088424,法人教會,財團法人中華基督教伯特利會總會,03-8566773,花蓮縣吉安鄉吉安路１段55之15號,23.990937627358,121.57476574245,NP200,法人教會,,
290088393,法人教會,財團法人中華基督教玉里懷恩堂,03-8882643,花蓮縣玉里鎮大同路247號,23.334875058209,121.31273384851,NP200,法人教會,,
290088399,法人教會,財團法人台灣省花蓮縣中華基督長老會山宣總會,03-8611341,花蓮縣秀林鄉秀林村路10之1號,24.130423140885,121.65358629272,NP200,法人教會,,
290089126,法人教會,財團法人基督之家花蓮福音中心,03-8228973,花蓮縣花蓮市中興路276號,23.997407212133,121.62171832516,NP200,法人教會,,
290089159,法人教會,財團法人花蓮市教會聚會所,03-8325377,花蓮縣花蓮市明禮路3號,23.978070218843,121.61146434229,NP200,法人教會,,
290089207,法人教會,財團法人台灣省花蓮縣基督教女教士差會,03-8225732,花蓮縣花蓮市民權八街1號,23.987516338678,121.62727245034,NP200,法人教會,,
290089214,法人教會,財團法人基督教頌恩教會,03-8360263,花蓮縣新城鄉仁愛路新城村2巷4號,24.124686077227,121.65196112149,NP200,法人教會,,
290089260,法人教會,財團法人中華基督教協同會花蓮新生禮拜堂,03-8323445,花蓮縣花蓮市林森路335號,23.980906987667,121.60432417763,NP200,法人教會,,
290088456,法人教會,財團法人台灣聖教會總會原住民教會,038-522023,花蓮縣吉安鄉南昌127號,23.969040169569,121.57804476723,NP200,法人教會,,
290089249,法人教會,財團法人基督教長老教會花蓮非拉鐵非教會,03-8269865,花蓮縣新城鄉康樂村鄉根一巷6號,24.051180139205,121.60932714995,NP200,法人教會,,
290088495,法人教會,財團法人台灣基督長老教會花蓮清水教會,03-8535911,花蓮縣吉安鄉福興村福興1街46號,23.967349438624,121.56098447596,NP200,法人教會,,
290089355,法人教會,財團法人天主教會花蓮教區,03-8237707,花蓮縣花蓮市中美路168號,23.990329117293,121.62523063517,NP200,法人教會,,
290088537,法人教會,財團法人台灣基督教主愛之家輔導中心,03-8260360,花蓮縣秀林鄉佳民村1號,24.064063086785,121.6040604584,NP200,法人教會,,
290089292,法人教會,財團法人基督教花蓮東華浸信會,03-8315886,花蓮縣花蓮市國風里9鄰國風街16號,23.977289892929,121.59800692106,NP200,法人教會,,
290089284,法人教會,財團法人花蓮縣台灣基督長老教會美港教會,03-8225440,花蓮縣花蓮市中美2街61號,,,,,,
290089283,法人教會,財團法人台灣省花蓮縣台灣基督長老教會美崙教會,03-8224059,花蓮縣花蓮市民權路119號,23.989172070959,121.62610839224,NP200,法人教會,,
290089276,法人教會,財團法人中華基督教花蓮美崙浸信會,03-830741,花蓮縣花蓮市民族路民運里52號,23.995927647932,121.63093680447,NP200,法人教會,,
290089319,法人教會,財團法人榮光小組教會,-0955203080,花蓮縣花蓮市中正路168巷3號,23.970497908864,121.59860889365,NP200,法人教會,,
290089326,法人教會,財團法人台灣基督教迦南會,"02-23932671 . 23637343",花蓮縣花蓮市國富17街10號6樓之3（臺北聯絡處：10645臺北市師大路59巷2號）,,,,,,
290089354,法人教會,財團法人基督教花蓮錫安堂,03-8228543,花蓮縣花蓮市中美9街117巷1弄10之1號,,,,,,
290088575,法人教會,財團法人亞洲宣教教會,03-8538809,花蓮縣吉安鄉慶豐村慶豐9街90巷6號,23.977622171064,121.56769033611,NP200,法人教會,,
290088654,法人教會,財團法人台灣基督教長老教會玉山神學院,03-8641101,花蓮縣壽豐鄉池南路１段壽豐村28號,23.932601141099,121.50623246264,NP200,法人教會,,
290089399,法人教會,財團法人台灣基督長老教會阿美中會,03-8353601,花蓮縣花蓮市明智128號,23.974266343217,121.5970787949,NP200,法人教會,,
290089404,法人教會,財團法人台灣省花蓮縣天主教聖吳甦樂女修會,03-8580307,花蓮縣花蓮市建興街10巷17號,23.996095619873,121.57493477075,NP200,法人教會,,
290089413,法人教會,財團法人台灣基督教花蓮國語禮拜堂,03-8222987,花蓮縣花蓮市民德一街197號,23.990953324646,121.62620915139,NP200,法人教會,,
290089414,法人教會,財團法人花蓮港台灣基督長老教會,03-8322802,花蓮縣花蓮市節約街30號,23.978618197527,121.60759766537,NP200,法人教會,,
290089415,法人教會,財團法人花蓮縣基督教福丁原住民發展中心,03-8311733,花蓮縣花蓮市中原路722號,23.976329927492,121.59310294205,NP200,法人教會,,
290089429,法人教會,財團法人台灣省花蓮縣基督教宣教士差會,03-8223908,花蓮縣花蓮市民權8街1號（轉34戴小姐）,,,,,,
290089072,法人教會,財團法人耶穌基督恩典教會,03-8262809,花蓮縣新城鄉嘉里三120巷8之1號,,,,,,
290089073,法人教會,財團法人台灣基督長老教會布農中會,03-8832001,花蓮縣卓溪鄉太平村5鄰53號,23.407581320185,121.31740939,NP200,法人教會,,
290088997,法人教會,財團法人台灣基督長老教會太巴塱教會,03-8702880,花蓮縣光復鄉中正路２段南富村90號,23.657866148559,121.45043369311,NP200,法人教會,,
290089282,法人教會,財團法人中華基督教浸信會花蓮博愛堂,03-8336576,花蓮縣花蓮市博愛街225號,23.979062093746,121.60488066418,NP200,法人教會,,
290089320,法人教會,財團法人花蓮基督的教會,03-8362990,花蓮縣花蓮市建國路262號,23.984376439882,121.59946277713,NP200,法人教會,,
290088834,法人教會,財團法人台灣省基督教倫理堂玉里教會,03-8883277,花蓮縣玉里鎮五權街7號,23.336719736423,121.31573416898,NP200,法人教會,,
290089199,法人教會,財團法人中華基督教澎湖浸信會,06-9270414,澎湖縣馬公市光復路257號,23.574890032787,119.5737419785,NP200,法人教會,,
290089225,法人教會,財團法人天主教澎湖教區,06-9273104,澎湖縣馬公市光復路48號,23.569932263966,119.56912782146,NP200,法人教會,,
290089262,法人教會,財團法人台灣省澎湖縣基督教會馬公國語禮拜堂,06-9274430,澎湖縣馬公市新生路4號3樓,23.567573164503,119.56821829298,NP200,法人教會,,
290089406,法人教會,財團法人臺灣省澎湖縣馬公教會,06-9274753,澎湖縣馬公市樹德路26號,23.56897607502,119.56754212786,NP200,法人教會,,
290088945,法人教會,財團法人天主教台灣省基隆市益世堂,02-24511758,基隆市七堵區百三街75號,25.082218631045,121.69672066415,NP200,法人教會,,
290088971,法人教會,財團法人台灣省基隆市基督徒聚會處,02-24633142,基隆市中正區中正路216號5樓,25.140462514622,121.75777115545,NP200,法人教會,,
290088774,法人教會,財團法人基督教基隆恩光堂,02-24245070,基隆市中正區中正路34號6樓之2,25.133337840116,121.74501645689,NP200,法人教會,,
290088966,法人教會,財團法人基隆中山基督教會,02-24282414,基隆市中山區仙洞街45號,25.147322740173,121.74690694466,NP200,法人教會,,
290089034,法人教會,財團法人台灣省基隆市基督教韓國教會,093-101534,基隆市中正區中正路500號,25.148812771199,121.7632889746,NP200,法人教會,,
290089056,法人教會,財團法人台灣省基隆市基督教浸信會榮光堂,02-24224384,基隆市仁愛區仁一路基隆297號,25.12886885789,121.74657760627,NP200,法人教會,,
290088354,法人教會,財團法人基督教基隆靈糧堂,02-24221617,基隆市安樂區武嶺街303號2樓之2,25.137846472249,121.70863093845,NP200,法人教會,,
290089098,法人教會,財團法人台灣省基隆市中華基督教浸信會復興堂,02-24224731,基隆市仁愛區復興街16巷19號,25.126020347162,121.75254486389,NP200,法人教會,,
290089100,法人教會,財團法人台灣省基隆市中華基督教浸信會七星堂,02-24562846,基隆市七堵區南興路86號,25.096663644472,121.71254576335,NP200,法人教會,,
290088661,法人教會,財團法人中華基督教碇內浸信會,02-24240097,基隆市暖暖區源遠路249巷16號,25.09933037306,121.75480830328,NP200,法人教會,,
290088966,法人教會,財團法人基隆中山基督教會,02-24282414,基隆市中山區仙洞街45號,25.147322740173,121.74690694466,NP200,法人教會,,
290088971,法人教會,財團法人台灣省基隆市基督徒聚會處,02-24633142,基隆市中正區中正路216號5樓,25.140462514622,121.75777115545,NP200,法人教會,,
290089034,法人教會,財團法人台灣省基隆市基督教韓國教會,093-101534,基隆市中正區中正路500號,25.148812771199,121.7632889746,NP200,法人教會,,
290089100,法人教會,財團法人台灣省基隆市中華基督教浸信會七星堂,02-24562846,基隆市七堵區南興路86號,25.096663644472,121.71254576335,NP200,法人教會,,
290089098,法人教會,財團法人台灣省基隆市中華基督教浸信會復興堂,02-24224731,基隆市仁愛區復興街16巷19號,25.126020347162,121.75254486389,NP200,法人教會,,
290089189,法人教會,財團法人台灣省基隆市基隆教會,02-24224484,基隆市仁愛區延平街11號,25.126836302005,121.74863352501,NP200,法人教會,,
290089056,法人教會,財團法人台灣省基隆市基督教浸信會榮光堂,02-24224384,基隆市仁愛區仁一路基隆297號,25.12886885789,121.74657760627,NP200,法人教會,,
290089369,法人教會,財團法人台灣基督長老教會基隆中正教會,02-24260258,基隆市中正區正義路9號,25.133167200193,121.74722133154,NP200,法人教會,,
290088354,法人教會,財團法人基督教基隆靈糧堂,02-24221617,基隆市安樂區武嶺街303號2樓之2,25.137846472249,121.70863093845,NP200,法人教會,,
290088945,法人教會,財團法人天主教台灣省基隆市益世堂,02-24511758,基隆市七堵區百三街75號,25.082218631045,121.69672066415,NP200,法人教會,,
290088494,法人教會,財團法人台灣省基隆市基督錫安教會,02-24650328,基隆市信義區培德路75號,25.128854194504,121.77055773474,NP200,法人教會,,
290088505,法人教會,財團法人台灣省基隆市通化基督教會,02-24224771,基隆市中山區健民街12號,25.142581276062,121.73773145929,NP200,法人教會,,
290088559,法人教會,財團法人台灣省基隆市中華基督教浸信會聖光堂,02-24573539,基隆市暖暖區過港路92號,25.106101689393,121.73717840775,NP200,法人教會,,
290088695,法人教會,財團法人基督門徒訓練中心,02-24590700,基隆市暖暖區源遠路297巷100號,25.100772660322,121.75569931139,NP200,法人教會,,
290088774,法人教會,財團法人基督教基隆恩光堂,02-24245070,基隆市中正區中正路34號6樓之2,25.133337840116,121.74501645689,NP200,法人教會,,
290088780,法人教會,財團法人中華基督教台灣省基隆市浸信會,02-24561641,基隆市信義區信二路272號,25.130841016283,121.74729298819,NP200,法人教會,,
290088354,法人教會,財團法人基督教基隆靈糧堂,02-24221617,基隆市安樂區武嶺街303號2樓之2,25.137846472249,121.70863093845,NP200,法人教會,,
290089369,法人教會,財團法人台灣基督長老教會基隆中正教會,02-24260258,基隆市中正區正義路9號,25.133167200193,121.74722133154,NP200,法人教會,,
290088505,法人教會,財團法人台灣省基隆市通化基督教會,02-24224771,基隆市中山區健民街12號,25.142581276062,121.73773145929,NP200,法人教會,,
290088494,法人教會,財團法人台灣省基隆市基督錫安教會,02-24650328,基隆市信義區培德路75號,25.128854194504,121.77055773474,NP200,法人教會,,
290088661,法人教會,財團法人中華基督教碇內浸信會,02-24240097,基隆市暖暖區源遠路249巷16號,25.09933037306,121.75480830328,NP200,法人教會,,
290088695,法人教會,財團法人基督門徒訓練中心,02-24590700,基隆市暖暖區源遠路297巷100號,25.100772660322,121.75569931139,NP200,法人教會,,
290088774,法人教會,財團法人基督教基隆恩光堂,02-24245070,基隆市中正區中正路34號6樓之2,25.133337840116,121.74501645689,NP200,法人教會,,
290088780,法人教會,財團法人中華基督教台灣省基隆市浸信會,02-24561641,基隆市信義區信二路272號,25.130841016283,121.74729298819,NP200,法人教會,,
290088805,法人教會,財團法人台灣省新竹市基督教改革宗長老會民族路教會,03-5320567,新竹市三民里民族路158號,24.80867914014,120.97864905125,NP200,法人教會,,
290088520,法人教會,財團法人新竹市中華基督教東山街浸信會,03-5720554,新竹市東山街六十二號,24.796998922543,120.97942895397,NP200,法人教會,,
290088820,法人教會,財團法人基督教新竹浸信會,03-5236737,新竹市北門里北大路202號,24.808701748351,120.96573228023,NP200,法人教會,,
290088819,法人教會,財團法人新約教會新竹教會,03-5451235,新竹市金竹里金竹路111巷11號6樓,24.823222696095,120.97260514461,NP200,法人教會,,
290089046,法人教會,財團法人台灣省新竹市宏宗聖堂道學院,03-5204537,新竹市長安街99之2號,24.807177796146,120.96489973655,NP200,法人教會,,
290089045,法人教會,財團法人新竹市基徒聚會,03-5311462,新竹市金竹里金竹路82號2樓,24.823033857234,120.97383327245,NP200,法人教會,,
290088585,法人教會,財團法人基督教中華協力會,03-5249338,新竹市西門街295號(新竹蒙恩堂),24.799033868356,120.95978757131,NP200,法人教會,,
290088566,法人教會,財團法人基督教會新竹錫安堂,03-5611267,新竹市公園里光復路二段481號4樓,24.802401938548,120.98238570383,NP200,法人教會,,
290088586,法人教會,財團法人基督教中華傳道會臺灣新恩堂,03-5318378,新竹市士林里東大路二段655號,24.82377149704,120.95768290615,NP200,法人教會,,
290088923,法人教會,財團法人台灣省新竹縣基督教北門聖教會,03-5735900,新竹市大學路51巷11號,24.787580436932,121.0040463701,NP200,法人教會,,
290088555,法人教會,財團法人基督教中華聖潔會,03-5872773,新竹市西雅里延平路一段123號,24.804098817782,120.95744161289,NP200,法人教會,,
290088863,法人教會,財團法人北部台灣基督長老教會新竹中會,03-5612321,新竹市東區光復路二段523號4樓,24.802680898842,120.98143937931,NP200,法人教會,,
290088437,法人教會,財團法人台灣省新竹市基督教改革宗長老會新竹教會,03-5420674,新竹市光華里光華南街76號7樓,24.816652374036,120.97195993333,NP200,法人教會,,
290088451,法人教會,財團法人台灣省新竹市教會聚會所,03-5326383,新竹市親仁里仁愛街68巷3號,24.808372414673,120.97099855347,NP200,法人教會,,
290088466,法人教會,財團法人基督教浸信會新人堂,03-5318055,新竹市福林里武陵路27號,24.817216318269,120.96365285457,NP200,法人教會,,
290088587,法人教會,財團法人基督教中華信義神學基金會,03-5710023,新竹市科園里大學路51巷11號,24.787580436932,121.0040463701,NP200,法人教會,,
290088554,法人教會,財團法人臺灣基督長老教會新竹教會,03-5223819,新竹市興南里勝利路247號,24.802586248161,120.96321132781,NP200,法人教會,,
290088487,法人教會,財團法人基督教新竹聖教會,03-5222777,新竹市榮光里東門街43號,24.804022387722,120.97320778559,NP200,法人教會,,
290088467,法人教會,財團法人新竹市天德佛堂,03-5349899,新竹市湳雅街279巷10號,24.82244035486,120.9756596895,NP200,法人教會,,
290088519,法人教會,財團法人基督教信義遵道會,03-5725514,新竹市公道五路二段130巷7弄21號,24.799629684295,121.00668466287,NP200,法人教會,,
290088621,法人教會,財團法人中華基督教信義會恩橋堂,03-3343213,新竹市關東里光復路一段30巷46號,24.782259113757,121.02539034887,NP200,法人教會,,
290088584,法人教會,財團法人天主教聖神傳教會,03-5323402,新竹市水田里演藝路21號,24.810710655988,120.96753747118,NP200,法人教會,,
290088639,法人教會,財團法人台灣基督長老教會聖經書院,03-5217125,新竹市新光里高峰路56號,24.792985160332,120.9731903762,NP200,法人教會,,
290088657,法人教會,財團法人天主教瑪利亞方濟各傳教女修會,02-27075495,"新竹市東區高峰路高峰路111號 (聯絡處：10658臺北市信義路3段147巷15弄23號)",24.790215297215,120.97440221799,NP200,法人教會,,
290088685,法人教會,財團法人天主教耶穌肋傷女修會,03-5713774,新竹市綠水里博愛街16號,24.797695103493,120.98544231126,NP200,法人教會,,
290088707,法人教會,財團法人台灣省天主教會新竹教區,03-5254198,新竹市東區中正中正路156之1號,,,,,,
290088715,法人教會,財團法人中華基督教信義會勝利堂,03-5716803,新竹市武功里建功一路2之1號,,,,,,
290088716,法人教會,財團法人台灣省新竹市基督教浸信會主恩堂,03-5721018,新竹市新源街六二巷二○號,24.800622248006,120.99240828157,NP200,法人教會,,
290088723,法人教會,財團法人台灣省中華基督教信義會,03-5788432,"新竹市東區復路1段30巷46號 (聯絡處：32699楊梅郵局第59號信箱梁素娥小姐轉交)",,,,,,
290088819,法人教會,財團法人新約教會新竹教會,03-5451235,新竹市金竹里金竹路111巷11號6樓,24.823222696095,120.97260514461,NP200,法人教會,,
290088685,法人教會,財團法人天主教耶穌肋傷女修會,03-5713774,新竹市綠水里博愛街16號,24.797695103493,120.98544231126,NP200,法人教會,,
290088657,法人教會,財團法人天主教瑪利亞方濟各傳教女修會,02-27075495,"新竹市東區高峰路高峰路111號 (聯絡處：10658臺北市信義路3段147巷15弄23號)",24.790215297215,120.97440221799,NP200,法人教會,,
290088716,法人教會,財團法人台灣省新竹市基督教浸信會主恩堂,03-5721018,新竹市新源街六二巷二○號,24.800622248006,120.99240828157,NP200,法人教會,,
290088715,法人教會,財團法人中華基督教信義會勝利堂,03-5716803,新竹市武功里建功一路2之1號,,,,,,
290088723,法人教會,財團法人台灣省中華基督教信義會,03-5788432,"新竹市東區復路1段30巷46號 (聯絡處：32699楊梅郵局第59號信箱梁素娥小姐轉交)",,,,,,
290088707,法人教會,財團法人台灣省天主教會新竹教區,03-5254198,新竹市東區中正中正路156之1號,,,,,,
290088820,法人教會,財團法人基督教新竹浸信會,03-5236737,新竹市北門里北大路202號,24.808701748351,120.96573228023,NP200,法人教會,,
290088437,法人教會,財團法人台灣省新竹市基督教改革宗長老會新竹教會,03-5420674,新竹市光華里光華南街76號7樓,24.816652374036,120.97195993333,NP200,法人教會,,
290088467,法人教會,財團法人新竹市天德佛堂,03-5349899,新竹市湳雅街279巷10號,24.82244035486,120.9756596895,NP200,法人教會,,
290088466,法人教會,財團法人基督教浸信會新人堂,03-5318055,新竹市福林里武陵路27號,24.817216318269,120.96365285457,NP200,法人教會,,
290088451,法人教會,財團法人台灣省新竹市教會聚會所,03-5326383,新竹市親仁里仁愛街68巷3號,24.808372414673,120.97099855347,NP200,法人教會,,
290088487,法人教會,財團法人基督教新竹聖教會,03-5222777,新竹市榮光里東門街43號,24.804022387722,120.97320778559,NP200,法人教會,,
290088520,法人教會,財團法人新竹市中華基督教東山街浸信會,03-5720554,新竹市東山街六十二號,24.796998922543,120.97942895397,NP200,法人教會,,
290088519,法人教會,財團法人基督教信義遵道會,03-5725514,新竹市公道五路二段130巷7弄21號,24.799629684295,121.00668466287,NP200,法人教會,,
290088554,法人教會,財團法人臺灣基督長老教會新竹教會,03-5223819,新竹市興南里勝利路247號,24.802586248161,120.96321132781,NP200,法人教會,,
290088555,法人教會,財團法人基督教中華聖潔會,03-5872773,新竹市西雅里延平路一段123號,24.804098817782,120.95744161289,NP200,法人教會,,
290088566,法人教會,財團法人基督教會新竹錫安堂,03-5611267,新竹市公園里光復路二段481號4樓,24.802401938548,120.98238570383,NP200,法人教會,,
290088657,法人教會,財團法人天主教瑪利亞方濟各傳教女修會,02-27075495,"新竹市東區高峰路高峰路111號 (聯絡處：10658臺北市信義路3段147巷15弄23號)",24.790215297215,120.97440221799,NP200,法人教會,,
290088584,法人教會,財團法人天主教聖神傳教會,03-5323402,新竹市水田里演藝路21號,24.810710655988,120.96753747118,NP200,法人教會,,
290088587,法人教會,財團法人基督教中華信義神學基金會,03-5710023,新竹市科園里大學路51巷11號,24.787580436932,121.0040463701,NP200,法人教會,,
290088586,法人教會,財團法人基督教中華傳道會臺灣新恩堂,03-5318378,新竹市士林里東大路二段655號,24.82377149704,120.95768290615,NP200,法人教會,,
290088585,法人教會,財團法人基督教中華協力會,03-5249338,新竹市西門街295號(新竹蒙恩堂),24.799033868356,120.95978757131,NP200,法人教會,,
290088621,法人教會,財團法人中華基督教信義會恩橋堂,03-3343213,新竹市關東里光復路一段30巷46號,24.782259113757,121.02539034887,NP200,法人教會,,
290088639,法人教會,財團法人台灣基督長老教會聖經書院,03-5217125,新竹市新光里高峰路56號,24.792985160332,120.9731903762,NP200,法人教會,,
290088685,法人教會,財團法人天主教耶穌肋傷女修會,03-5713774,新竹市綠水里博愛街16號,24.797695103493,120.98544231126,NP200,法人教會,,
290088707,法人教會,財團法人台灣省天主教會新竹教區,03-5254198,新竹市東區中正中正路156之1號,,,,,,
290088923,法人教會,財團法人台灣省新竹縣基督教北門聖教會,03-5735900,新竹市大學路51巷11號,24.787580436932,121.0040463701,NP200,法人教會,,
290089045,法人教會,財團法人新竹市基徒聚會,03-5311462,新竹市金竹里金竹路82號2樓,24.823033857234,120.97383327245,NP200,法人教會,,
290089046,法人教會,財團法人台灣省新竹市宏宗聖堂道學院,03-5204537,新竹市長安街99之2號,24.807177796146,120.96489973655,NP200,法人教會,,
290088437,法人教會,財團法人台灣省新竹市基督教改革宗長老會新竹教會,03-5420674,新竹市光華里光華南街76號7樓,24.816652374036,120.97195993333,NP200,法人教會,,
290088451,法人教會,財團法人台灣省新竹市教會聚會所,03-5326383,新竹市親仁里仁愛街68巷3號,24.808372414673,120.97099855347,NP200,法人教會,,
290088466,法人教會,財團法人基督教浸信會新人堂,03-5318055,新竹市福林里武陵路27號,24.817216318269,120.96365285457,NP200,法人教會,,
290088467,法人教會,財團法人新竹市天德佛堂,03-5349899,新竹市湳雅街279巷10號,24.82244035486,120.9756596895,NP200,法人教會,,
290088487,法人教會,財團法人基督教新竹聖教會,03-5222777,新竹市榮光里東門街43號,24.804022387722,120.97320778559,NP200,法人教會,,
290088519,法人教會,財團法人基督教信義遵道會,03-5725514,新竹市公道五路二段130巷7弄21號,24.799629684295,121.00668466287,NP200,法人教會,,
290088520,法人教會,財團法人新竹市中華基督教東山街浸信會,03-5720554,新竹市東山街六十二號,24.796998922543,120.97942895397,NP200,法人教會,,
290088554,法人教會,財團法人臺灣基督長老教會新竹教會,03-5223819,新竹市興南里勝利路247號,24.802586248161,120.96321132781,NP200,法人教會,,
290088555,法人教會,財團法人基督教中華聖潔會,03-5872773,新竹市西雅里延平路一段123號,24.804098817782,120.95744161289,NP200,法人教會,,
290088566,法人教會,財團法人基督教會新竹錫安堂,03-5611267,新竹市公園里光復路二段481號4樓,24.802401938548,120.98238570383,NP200,法人教會,,
290088584,法人教會,財團法人天主教聖神傳教會,03-5323402,新竹市水田里演藝路21號,24.810710655988,120.96753747118,NP200,法人教會,,
290088585,法人教會,財團法人基督教中華協力會,03-5249338,新竹市西門街295號(新竹蒙恩堂),24.799033868356,120.95978757131,NP200,法人教會,,
290088586,法人教會,財團法人基督教中華傳道會臺灣新恩堂,03-5318378,新竹市士林里東大路二段655號,24.82377149704,120.95768290615,NP200,法人教會,,
290088587,法人教會,財團法人基督教中華信義神學基金會,03-5710023,新竹市科園里大學路51巷11號,24.787580436932,121.0040463701,NP200,法人教會,,
290088621,法人教會,財團法人中華基督教信義會恩橋堂,03-3343213,新竹市關東里光復路一段30巷46號,24.782259113757,121.02539034887,NP200,法人教會,,
290088639,法人教會,財團法人台灣基督長老教會聖經書院,03-5217125,新竹市新光里高峰路56號,24.792985160332,120.9731903762,NP200,法人教會,,
290088657,法人教會,財團法人天主教瑪利亞方濟各傳教女修會,02-27075495,"新竹市東區高峰路高峰路111號 (聯絡處：10658臺北市信義路3段147巷15弄23號)",24.790215297215,120.97440221799,NP200,法人教會,,
290088685,法人教會,財團法人天主教耶穌肋傷女修會,03-5713774,新竹市綠水里博愛街16號,24.797695103493,120.98544231126,NP200,法人教會,,
290088707,法人教會,財團法人台灣省天主教會新竹教區,03-5254198,新竹市東區中正中正路156之1號,,,,,,
290088716,法人教會,財團法人台灣省新竹市基督教浸信會主恩堂,03-5721018,新竹市新源街六二巷二○號,24.800622248006,120.99240828157,NP200,法人教會,,
290088715,法人教會,財團法人中華基督教信義會勝利堂,03-5716803,新竹市武功里建功一路2之1號,,,,,,
290088723,法人教會,財團法人台灣省中華基督教信義會,03-5788432,"新竹市東區復路1段30巷46號 (聯絡處：32699楊梅郵局第59號信箱梁素娥小姐轉交)",,,,,,
290088805,法人教會,財團法人台灣省新竹市基督教改革宗長老會民族路教會,03-5320567,新竹市三民里民族路158號,24.80867914014,120.97864905125,NP200,法人教會,,
290088820,法人教會,財團法人基督教新竹浸信會,03-5236737,新竹市北門里北大路202號,24.808701748351,120.96573228023,NP200,法人教會,,
290088819,法人教會,財團法人新約教會新竹教會,03-5451235,新竹市金竹里金竹路111巷11號6樓,24.823222696095,120.97260514461,NP200,法人教會,,
290088863,法人教會,財團法人北部台灣基督長老教會新竹中會,03-5612321,新竹市東區光復路二段523號4樓,24.802680898842,120.98143937931,NP200,法人教會,,
290088922,法人教會,財團法人台灣省嘉義市基督教浸禮聖經會嘉義會幕堂,05-2271135,嘉義市民權路364號,23.482260007062,120.44886996317,NP200,法人教會,,
290088465,法人教會,財團法人嘉義市天主教本篤會中國傳教會,05-2764830,嘉義市小雅路545號,23.47652000032,120.46796995883,NP200,法人教會,,
290088442,法人教會,財團法人基督教台灣宣道福音會總會,05-2783010,嘉義市東區吳鳳北路387號2樓,23.484200791144,120.45207876736,NP200,法人教會,,
290088486,法人教會,財團法人天主教聖言會,05-2224434,嘉義市吳鳳南路268號,23.462060002893,120.45562995824,NP200,法人教會,,
290088518,法人教會,財團法人台灣省基督長老教會嘉義中會,05-2766995,嘉義市嘉北街86號,23.494039999674,120.45368995731,NP200,法人教會,,
290088517,法人教會,財團法人嘉義市基督教錫安堂,05-2253142,嘉義市成仁街173號2樓,23.480090002746,120.45201995895,NP200,法人教會,,
290088604,法人教會,財團法人中華基督教嘉義浸信會,05-2220128,嘉義市文化路81號,23.477639999416,120.44971995651,NP200,法人教會,,
290088612,法人教會,財團法人基督教會台灣宣道長老會總會,05-2786614,嘉義市東區延平街27號,23.477680003464,120.45977995899,NP200,法人教會,,
290088684,法人教會,財團法人新約教會嘉義教會,05-2283830,嘉義市垂楊路862巷17號4樓,23.473580002264,120.43761995856,NP200,法人教會,,
290088662,法人教會,財團法人天主教會嘉義教區,05-2224434,嘉義市東區雅竹路雅竹路81號,23.475475184067,120.47289649588,NP200,法人教會,,
290088672,法人教會,財團法人嘉義教會聚會所,05-2222090,嘉義市中正路167號,23.479379999767,120.45513995905,NP200,法人教會,,
290088714,法人教會,財團法人天主教嘉義教區中華聖母會,05-2769634,嘉義市大雅路一段788號,23.48021477486,120.50413177131,NP200,法人教會,,
290088804,法人教會,財團法人嘉義市天主教聖愛會,05-2766371,嘉義市大雅路二段502號,23.478120090108,120.47033996262,NP200,法人教會,,
290088884,法人教會,財團法人嘉義市基督徒聚會,05-2761616,嘉義市興業東路316號2樓2,23.469870006333,120.46116995908,NP200,法人教會,,
290088486,法人教會,財團法人天主教聖言會,05-2224434,嘉義市吳鳳南路268號,23.462060002893,120.45562995824,NP200,法人教會,,
290088518,法人教會,財團法人台灣省基督長老教會嘉義中會,05-2766995,嘉義市嘉北街86號,23.494039999674,120.45368995731,NP200,法人教會,,
290088517,法人教會,財團法人嘉義市基督教錫安堂,05-2253142,嘉義市成仁街173號2樓,23.480090002746,120.45201995895,NP200,法人教會,,
290088604,法人教會,財團法人中華基督教嘉義浸信會,05-2220128,嘉義市文化路81號,23.477639999416,120.44971995651,NP200,法人教會,,
290088612,法人教會,財團法人基督教會台灣宣道長老會總會,05-2786614,嘉義市東區延平街27號,23.477680003464,120.45977995899,NP200,法人教會,,
290088804,法人教會,財團法人嘉義市天主教聖愛會,05-2766371,嘉義市大雅路二段502號,23.478120090108,120.47033996262,NP200,法人教會,,
290088884,法人教會,財團法人嘉義市基督徒聚會,05-2761616,嘉義市興業東路316號2樓2,23.469870006333,120.46116995908,NP200,法人教會,,
290088790,法人教會,財團法人台北市基督教校園福音團契,02-23682361,臺北市中正區羅斯福路四段22號,25.015615585483,121.53312440265,NP200,法人教會,,
290088783,法人教會,財團法人台灣基督長老教會大稻埕教會,02-25539741,臺北市大同區甘州街延平里40號2樓,25.059639246026,121.51271773973,NP200,法人教會,,
290088576,法人教會,財團法人臺灣中國基督教信義會,02-27542660,臺北市大安區和平東二段277號3樓,,,,,,
290088757,法人教會,財團法人台北市活石基督徒團契,02-29399784,臺北市文山區指南路２段萬興里45巷24弄17號,24.989463831007,121.57536069211,NP200,法人教會,,
290088782,法人教會,財團法人台北市中國基督教靈糧世界佈道會台北靈糧堂,02-23623022,臺北市大安區和平東路２段龍門里24號,25.025635740711,121.53642523319,NP200,法人教會,,
290088791,法人教會,財團法人基督教中華傳道會天恩堂,02-23037180,臺北市中正區中華路２段忠勤里315巷27-3號,25.029163039028,121.50629492764,NP200,法人教會,,
290088571,法人教會,財團法人台北市中華基督教景美浸信會,02-29314144,臺北市文山區育英街景美里63號,24.992190435269,121.53867689712,NP200,法人教會,,
290088798,法人教會,財團法人天主教會台北教區,02-27371311,臺北市大安區樂利路94號,25.02509134663,121.55205893809,NP200,法人教會,,
290088808,法人教會,財團法人中華民國福音聯誼會,02-23054870,臺北市中正區詔安街螢雪里26巷10弄1號,25.024440386118,121.51561326179,NP200,法人教會,,
290088815,法人教會,財團法人台北市中華基督教衛理公會衛理堂,02-2771-2017,臺北市大安區新生南路１段民輝里113號,25.039692675237,121.53305752562,NP200,法人教會,,
290088810,法人教會,財團法人台北市金陵基督長老教會,02-27127752,臺北市松山區南京東路４段東勢里133巷6弄20號,25.05278080197,121.55444336859,NP200,法人教會,,
290088816,法人教會,財團法人基督教台灣中國信徒佈道會,02-85124242,臺北市大安區復興南路１段龍坡里128之1號,25.042987790284,121.54345385118,NP200,法人教會,,
290088882,法人教會,財團法人新約教會台北教會,02-27822112,臺北市南港區南港路１段南港里289-1號4樓,25.054516882291,121.60822599122,NP200,法人教會,,
290088865,法人教會,財團法人中華基督教禮賢會,02-23927353,臺北市中正區羅斯福路２段南福里44號9樓,25.027961766179,121.52152112092,NP200,法人教會,,
290088825,法人教會,財團法人基督教中華海外宣道協會,02-23672335,臺北市中正區羅斯福路３段林興里140巷3號3樓,25.018066523505,121.53028542158,NP200,法人教會,,
290088824,法人教會,財團法人基督之家,02-23563911,臺北市中正區青島東路幸福里51號3樓,25.042940935643,121.52620364394,NP200,法人教會,,
290088832,法人教會,財團法人基督教青年歸主協會,02-83695598,臺北市大安區和平東路２段龍門里24號7樓之二,25.025635740711,121.53642523319,NP200,法人教會,,
290088840,法人教會,財團法人中華基督教浸信會聯會,02-23813283,臺北市中正區懷寧街黎明里47-1號2樓,25.04459471132,121.51419799086,NP200,法人教會,,
290088844,法人教會,財團法人中華基督教浸信會錫安堂,02-2768-8684,臺北市松山區南京東路５段安平里343號4樓,25.051556670532,121.56764685737,NP200,法人教會,,
290088854,法人教會,財團法人臺灣基督復臨安息日會,02-27529290,臺北市松山區八德路二段410巷5弄2號1樓,25.047065328176,121.54683828676,NP200,法人教會,,
290088852,法人教會,財團法人基督教台北真道教會,02-23116767,臺北市中正區齊東街幸福里82巷36號5樓,25.042285947441,121.52887111839,NP200,法人教會,,
290088866,法人教會,財團法人中華基督教路加傳道會,02-23651190,臺北市中正區辛亥路１段林興里11號7樓,25.01901799167,121.52787902925,NP200,法人教會,,
290088881,法人教會,財團法人台北基督徒康華禮拜堂,02-23676070,臺北市大安區羅斯福路２段古莊里75號五樓,25.026451289491,121.52316853443,NP200,法人教會,,
290088875,法人教會,財團法人台北市基督教靈泉堂,02-28321393,臺北市士林區中正路舊佳里212巷3弄3號,25.085877996703,121.50796103776,NP200,法人教會,,
290088887,法人教會,財團法人台北市基督教興隆教會,02-29322638,臺北市文山區景華街興福里133號,24.99644458473,121.54746346176,NP200,法人教會,,
290088890,法人教會,財團法人台北市東門基督長老教會,02-23513589,臺北市中正區仁愛路２段三愛里76號,25.038022072833,121.53025939954,NP200,法人教會,,
290088740,法人教會,財團法人天理教山名大教會台北市佈道所,02-23410450,臺北市中正區濟南路２段幸市里62巷14號4樓,25.041110822049,121.52749798626,NP200,法人教會,,
290088894,法人教會,財團法人台北市復原耶穌基督教會,02-2765-0884,臺北市松山區八德路４段慈祐里699號8樓之1,25.05020698226,121.57664429394,NP200,法人教會,,
290088901,法人教會,財團法人台北市古亭基督長老教會,02-23637040,臺北市大安區羅斯福路３段古莊里149號12樓,25.021753598622,121.52729665358,NP200,法人教會,,
290088893,法人教會,財團法人台北市中華基督教沐恩浸信會,02-27686926,臺北市松山區南京東路５段安平里251巷45號,25.053770114704,121.56521187836,NP200,法人教會,,
290088906,法人教會,財團法人台北市中華基督教婦女祈禱會,02-23940149,臺北市中正區新生南路１段幸市里58巷10號,25.036933944136,121.53208559317,NP200,法人教會,,
290088892,法人教會,財團法人台灣基督教福音貴格會,02-2764-0642,臺北市松山區光復北路吉祥里85巷7號,25.057425971664,121.5558736684,NP200,法人教會,,
290088912,法人教會,財團法人台北市基督教臺灣復興神的教會,02-25787480,臺北市松山區延吉街吉仁里30巷13號,25.045294401118,121.55289747812,NP200,法人教會,,
290088916,法人教會,財團法人台灣基督長老教會原住民教會,02-23625282轉350,臺北市大安區羅斯福路三段269巷3號,25.019063652895,121.53110695752,NP200,法人教會,,
290088924,法人教會,財團法人台北市中華基督教浸信會義美堂,02-29322793,臺北市文山區景興路興福里57號四樓,24.996647031008,121.54483451864,NP200,法人教會,,
290088933,法人教會,財團法人台北市華亞之聲社中華基督教便以利教會,"02-29399509 . 29255564",臺北市文山區指南路二段11號,24.988275732743,121.57318972496,NP200,法人教會,,
290088928,法人教會,財團法人台北市基督教改革宗長老會聯合二村教會,02-27638304,臺北市松山區民生東路５段東榮里69巷2弄12號,25.059111015926,121.55878278002,NP200,法人教會,,
290088929,法人教會,財團法人台北市文林基督教會,02-28316711,臺北市士林區文林路德華里661巷3號,25.087988379832,121.52676291104,NP200,法人教會,,
290088931,法人教會,財團法人台北市中華基督徒重生禮拜堂,02-29393907,臺北市文山區保儀路木新里109巷3弄16號,24.986214717574,121.56865907154,NP200,法人教會,,
290088932,法人教會,財團法人基督教聖潔會,02-29316764,臺北市文山區興隆路２段興業里244巷37弄2號,24.999495518591,121.5533202247,NP200,法人教會,,
290088940,法人教會,財團法人改革宗神學宣教會,02-27181110,臺北市松山區南京東路４段東勢里75巷30號,25.052946132095,121.55357940232,NP200,法人教會,,
290088941,法人教會,財團法人台北市基督徒民生社區禮拜堂,02-2767-9269,臺北市松山區撫遠街莊敬里367巷4號,25.064003737784,121.56613324435,NP200,法人教會,,
290088950,法人教會,財團法人台灣基督長老教會大安教會,02-2706-4477,臺北市大安區四維路群賢里216巷18-1號,25.031360068779,121.54715059948,NP200,法人教會,,
290088955,法人教會,財團法人新約教會景美教會,02-29321474,臺北市文山區羅斯福路６段景美里274號5樓,24.99141026874,121.53999958052,NP200,法人教會,,
290088960,法人教會,財團法人台北市基督教浸信會頌德堂,02-2713-0484,臺北市松山區民族東路民福里706號2.3樓,25.064060939725,121.54730845237,NP200,法人教會,,
290088632,法人教會,財團法人台北市中華基督教佈道會,02-4811861,臺北市大安區新生南路３段龍坡里22巷6號,25.020724264838,121.53348733996,NP200,法人教會,,
290088961,法人教會,財團法人台北市基督教士林錫安堂,02-28356570,臺北市士林區福國路德華里94號2樓,25.102117480053,121.52230221963,NP200,法人教會,,
290088728,法人教會,財團法人台北市中華基督教長老會信友堂,02-23623725,臺北市大安區羅斯福路３段大學里269巷5號,25.017483931702,121.5320439876,NP200,法人教會,,
290088976,法人教會,財團法人中華基督教崇聖會,02-25702990,臺北市松山區八德路３段美仁里99巷11-4號,25.048862180878,121.5536679657,NP200,法人教會,,
290088972,法人教會,財團法人基督教懷寧浸信會,02-23610431,臺北市中正區懷寧街黎明里49號,25.044441380771,121.51418680697,NP200,法人教會,,
290088975,法人教會,財團法人台北市民生社區基督教會,02-2767-9500,臺北市松山區民生東路５段三民里138巷3號3樓之7,25.058468415107,121.5616770285,NP200,法人教會,,
290088977,法人教會,財團法人台北市中國基督教靈糧世界佈道會士林靈糧堂,02-28803408,臺北市士林區社中街社園里298巷4弄2號1樓,25.092850276185,121.50466713375,NP200,法人教會,,
290089455,法人教會,財團法人基督教台北純福音教會,02-2501-7478,臺北市中山區松江路行政里473號3樓,25.066716908895,121.53349211832,NP200,法人教會,,
290088986,法人教會,財團法人天主教聖本篤女修會,02-23676126,臺北市中正區金門街34巷10號,25.021633784417,121.5220068394,NP200,法人教會,,
290088985,法人教會,財團法人台北市基督教浸信會仁愛堂,02-23971282,臺北市中正區八德路１段梅花里11號,25.04400930137,121.53077953208,NP200,法人教會,,
290088987,法人教會,財團法人天主教聖母聖心會,02-23142424,臺北市中正區中山北路１段黎明里2號10樓之3,25.046046228513,121.51946903752,NP200,法人教會,,
290088991,法人教會,財團法人台北市基督教長老會西松國語禮拜堂,02-2768-4742,臺北市松山區南京東路５段東光里123巷8弄25號,25.053548846085,121.56194525233,NP200,法人教會,,
290088993,法人教會,財團法人台灣基督長老教會百齡教會,-25594596,臺北市士林區重慶北路４段49巷15弄1號,25.081274962553,121.51161181167,NP200,法人教會,,
290088999,法人教會,財團法人台北市文化清真寺,02-23675421,臺北市中正區辛亥路１段林興里25巷3號,25.018807725593,121.52760471565,NP200,法人教會,,
290089013,法人教會,財團法人天主教聖家會,"02-29321555 . 28728690","臺北市文山區萬慶街13巷22號 (聯絡處：11156士林區天玉街38巷18弄11號)",24.991965023234,121.53982962099,NP200,法人教會,,
290089000,法人教會,財團法人基督教會台北國語禮拜堂,02-23513856,臺北市中正區中山南路幸福里3號,25.043477982075,121.51940677376,NP200,法人教會,,
290089005,法人教會,財團法人台北市中華基督教浸信會慈光堂,02-28412290,臺北市士林區中社路１段翠山里43巷1號,25.111823972318,121.55939652582,NP200,法人教會,,
290088749,法人教會,財團法人北部台灣基督長老教會台北中會,02-23632951,臺北市大安區羅斯福羅斯福路三段269巷3號4樓,,,,,,
290089004,法人教會,財團法人台北市中華基督教劍潭浸信會,02-28852654,臺北市士林區承德路４段明勝里12巷71號,25.083428102776,121.52220870484,NP200,法人教會,,
290089012,法人教會,財團法人中華民國基督福音中心,02-29346777,臺北市文山區羅斯福路５段萬盛里49號二樓之2,25.00703365464,121.53911847576,NP200,法人教會,,
290088724,法人教會,財團法人基督教路德福音會,02-23972313,臺北市中正區金華街26號3樓,25.031518040646,121.52071901571,NP200,法人教會,,
290088697,法人教會,財團法人台北市瑞安街基督徒聚會,02-87720321,臺北市大安區瑞安街龍生里244巷43號,25.028435085373,121.53881045993,NP200,法人教會,,
290089035,法人教會,財團法人台北市基督教中華福音道路德會永生堂,02-23514093,臺北市中正區潮州街新營里18號,25.029550886062,121.52148461479,NP200,法人教會,,
290088578,法人教會,財團法人基督教救世軍,02-27381079,臺北市大安區敦化南路二段273號2樓,25.024988583374,121.54909155014,NP200,法人教會,,
290089030,法人教會,財團法人台北市中國基督教靈糧世界佈道會木柵靈糧堂,02-29369996,臺北市文山區興隆路４段忠順里145巷9弄3號,24.985265094302,121.56200954745,NP200,法人教會,,
290089016,法人教會,財團法人台北市中華基督教青年會,02-23118070,臺北市中正區許昌街黎明里19號,25.04565227093,121.51654029682,NP200,法人教會,,
290089021,法人教會,財團法人基督教台北神的教會,02-2712-9220,臺北市松山區南京東路４段中華里53巷7弄1號,25.052785174099,121.55101709935,NP200,法人教會,,
290088577,法人教會,財團法人統一教台灣總會,02-23681981,臺北市大安區羅斯福羅斯福路二段75號4樓,,,,,,
290089038,法人教會,財團法人臺灣基督長老教會中崙教會,02-27216181,臺北市松山區敦化南路１段福成里80巷33號,25.046792790283,121.54714445708,NP200,法人教會,,
290089037,法人教會,財團法人台北市基督教美仁浸信會,02-2579-2065,臺北市松山區八德路３段復源里106巷106號,25.045038870728,121.55425679385,NP200,法人教會,,
290089049,法人教會,財團法人台北市濟南基督長老教會,02-23217391,臺北市中正區中山南路幸福里3號,25.043477982075,121.51940677376,NP200,法人教會,,
290089059,法人教會,財團法人中華基督教加恩堂,02-27650005,臺北市信義區永吉路六藝里120巷33號4樓,25.044444771474,121.5742314599,NP200,法人教會,,
290089062,法人教會,財團法人台北市中華基督教木柵浸信會,02-29367470,臺北市文山區木新路３段樟文里258號,24.981333117335,121.55858592392,NP200,法人教會,,
290089078,法人教會,財團法人台北市基督教虎林街浸信會,02-27278676,臺北市信義區虎林街國業里222巷35號1樓,25.047499747998,121.57518638131,NP200,法人教會,,
290089069,法人教會,財團法人陽明山基督教天母禮拜堂,02-28711622,臺北市士林區中山北路７段天母里216巷1號,25.120684730179,121.53104569842,NP200,法人教會,,
290089082,法人教會,財團法人基督恩光教會,02-2713-3145,臺北市松山區民權東路３段民福里191巷74號,25.065078382348,121.54491503733,NP200,法人教會,,
290089090,法人教會,財團法人臺北市信義路基督教會,02-27382358,臺北市信義區莊敬路三張里391巷6號7樓,25.02829358409,121.56471050891,NP200,法人教會,,
290089089,法人教會,財團法人台北市基督教改革宗長老教會松山教會,02-27224930,臺北市信義區忠孝東路５段安康里236巷37弄45號,25.037745269058,121.57406834747,NP200,法人教會,,
290089131,法人教會,財團法人台北市基督教會錫安堂,02-22368055,臺北市文山區木柵路１段華興里231巷34號,24.989579063604,121.55095726728,NP200,法人教會,,
290089096,法人教會,財團法人天主教遣使會,02-28356773,臺北市士林區中正路264號,25.095166944593,121.52441273744,NP200,法人教會,,
290089097,法人教會,財團法人台北市基督教士林浸信會,01-27181313,臺北市士林區中山北路５段舊佳里751巷9號1樓,25.099231838329,121.5279679892,NP200,法人教會,,
290089095,法人教會,財團法人台灣基督教道生長老會,02-28912634,臺北市北投區中和街秀山里474巷2弄3號,25.142590017818,121.49794185868,NP200,法人教會,,
290088663,法人教會,財團法人台北市天主教耶穌孝女會,02-23212034,臺北市大安區青田街龍安里6巷14號,25.026751871893,121.53193174233,NP200,法人教會,,
290089106,法人教會,財團法人台灣基督教萬國聖經研究會,02-27220100,臺北市信義區吳興街泰和里583巷14弄23號,25.021433528642,121.57017333071,NP200,法人教會,,
290089130,法人教會,財團法人台北市萬隆基督的教會,02-29340385,臺北市文山區羅斯福路５段萬年里176巷32號,25.004820492585,121.53674211709,NP200,法人教會,,
290089108,法人教會,財團法人台北市教會聚會所,02-27575755,臺北市信義區信義路４段中興里460號5樓之1,25.032822845485,121.55879665773,NP200,法人教會,,
290089107,法人教會,財團法人中華基督教浸信會聖恩堂,02-2738-5123,臺北市信義區嘉興街嘉興里214號,25.027046991046,121.55664636122,NP200,法人教會,,
290089111,法人教會,財團法人台灣基督教道生院,02-28976777,臺北市北投區中和街秀山里錫安巷112號,25.147487249332,121.50085794178,NP200,法人教會,,
290089110,法人教會,財團法人台北基督徒石牌禮拜堂,02-28216407,臺北市北投區明德路榮華里281號2樓,25.114995615116,121.52228024596,NP200,法人教會,,
290089113,法人教會,財團法人台北市基督信徒聚集處,02-29343928,臺北市文山區羅斯福路５段萬盛里45號二樓之2,25.007339975945,121.53890746233,NP200,法人教會,,
290089127,法人教會,財團法人台北市基督教使徒信心會,02-28232501,臺北市北投區文林北路文林里244巷41號,25.1091291927,121.51447761701,NP200,法人教會,,
290089136,法人教會,財團法人台北基督教女青年會,02-23812131,臺北市中正區青島西路黎明里7號六樓,25.044914120557,121.51818269765,NP200,法人教會,,
290089140,法人教會,財團法人中華基督教行道會,02-28317585,臺北市士林區中山北中山北路五段676號,,,,,,
290089139,法人教會,財團法人基督教信義宗福祉會,02-27607827,臺北市松山區光復南路復盛里13巷41號2樓,25.046904408183,121.55461280576,NP200,法人教會,,
290089141,法人教會,財團法人台灣神學院,02-28822370,臺北市士林區仰德大道２段永福里2巷20號,25.107045035146,121.54784368446,NP200,法人教會,,
290089148,法人教會,財團法人基督教耕耘會,02-87804227,臺北市士林區中山北路五段678號1樓,25.097071989906,121.52779655792,NP200,法人教會,,
290089177,法人教會,財團法人基督教台北神召會,02-2596-3612,臺北市中山區民權西路集英里53號4樓,25.06305059633,121.5204942007,NP200,法人教會,,
290089147,法人教會,財團法人台北市基督教浸信會頌恩堂,02-2713-6095,臺北市松山區敦化北路中華里145巷30號,25.054030892706,121.54708963805,NP200,法人教會,,
290089149,法人教會,財團法人台北市中華基督教長老會感恩堂,02-28327510,臺北市士林區福林路福志里377號,25.100158284898,121.53522509197,NP200,法人教會,,
290089163,法人教會,財團法人台北基督徒麗山禮拜堂,02-26277252,臺北市內湖區麗山街港墘里348巷22號,25.082489321547,121.57391685452,NP200,法人教會,,
290089162,法人教會,財團法人台北市基督環球傳道會,02-25670388,臺北市中山區松江路興亞里22號12樓,25.046867445766,121.53272175142,NP200,法人教會,,
290089161,法人教會,財團法人中華民國台北市基督教新生教團,02-25419704,臺北市中山區新生北路２段中庄里125號1樓,25.059695224967,121.52795427476,NP200,法人教會,,
290089176,法人教會,財團法人台灣基督四方教會,02-25993732,臺北市中山區民生東路１段中山里72號4樓之1,25.057918284334,121.52648975567,NP200,法人教會,,
290088596,法人教會,財團法人基督教中國聖道會,02-27320049,臺北市大安區和平東路３段虎嘯里90號3樓,25.024294837797,121.551092246,NP200,法人教會,,
290089171,法人教會,財團法人臺北市中華基督教培神教會,02-29255564,臺北市信義區基隆路１段興雅里155號3樓之5號,25.042215673075,121.565336095,NP200,法人教會,,
290089178,法人教會,財團法人天主教主徒會,"02-29963912 02-89914102",臺北市中山區林森北路73號,25.049451920209,121.52480371616,NP200,法人教會,,
290088595,法人教會,財團法人中華基督教浸信會潮恩堂,02-987466270,臺北市大安區通化街臨江里123巷32號,25.027227914705,121.55192259994,NP200,法人教會,,
290089203,法人教會,財團法人台北市台北基督徒蘭雅禮拜堂,02-28358110,臺北市士林區中山北路５段蘭興里727號2樓,25.098138786042,121.52698385389,NP200,法人教會,,
290089181,法人教會,財團法人台北市中華基督教藝人之家,02-27674567,臺北市信義區松隆路五常里102號13樓,25.045885424382,121.57103091807,NP200,法人教會,,
290089188,法人教會,財團法人台灣基督長老教會三角埔教會,02-28127964,臺北市士林區延平北路６段社新里261巷3號,25.091225440027,121.50095498588,NP200,法人教會,,
290089202,法人教會,財團法人台灣基督教恩惠福音會,02-27977494,臺北市內湖區內湖路１段港墘里608號,25.078544366301,121.57843370705,NP200,法人教會,,
290089201,法人教會,財團法人基督教異象事奉展望會,02-25472891,臺北市松山區敦化北路201之22號後棟9樓911室,25.057048559706,121.54958715963,NP200,法人教會,,
290089210,法人教會,財團法人台灣基督教門諾會,02-25039618,臺北市中山區合江街102巷13號2樓,25.058855285485,121.53845590967,NP200,法人教會,,
290088594,法人教會,財團法人台北市基督教錫安堂,02-23968308,臺北市大安區金山南路２段錦安里215巷18號,25.033267698676,121.52829269058,NP200,法人教會,,
290089209,法人教會,財團法人天主教雷鳴遠國際服務團,02-25415510,臺北市中山區林森北路正義里85巷3號,25.049820211431,121.52519714961,NP200,法人教會,,
290089244,法人教會,財團法人台北市基督教勵友中心,02-2594-2492,臺北市中山區民族東路圓山里2號505室,25.068298518193,121.52335777865,NP200,法人教會,,
290089223,法人教會,財團法人基督教拿撒勒人會,02-28581046,臺北市北投區關渡里聖景路100號,25.120569302527,121.4638381872,NP200,法人教會,,
290089221,法人教會,財團法人台北市基督教恩惠福音會復興堂,02-87877718,臺北市信義區忠孝東路５段富臺里291號地下室,25.041144628288,121.57164387814,NP200,法人教會,,
290089219,法人教會,財團法人中國神召會台灣區議會,02-25119370,臺北市中山區長春路21號5樓,25.055057199975,121.52415917368,NP200,法人教會,,
290089231,法人教會,財團法人台北市基督教改革宗長老會東光教會,02-26334345,臺北市內湖區東湖路東湖里113巷50號1樓之一,25.070696351666,121.61598010431,NP200,法人教會,,
290089226,法人教會,財團法人台北市台北中華基督教會,02-2511-8023,臺北市中山區中山北路２段康樂里45巷39號,25.057556544595,121.52477653064,NP200,法人教會,,
290089230,法人教會,財團法人台北市基督教改革宗宏恩堂,02-27135447,臺北市松山區南京東路４段東勢里75巷32號,25.052987333192,121.55358018202,NP200,法人教會,,
290089227,法人教會,財團法人天理教台北市心勇教會,02-25214494,臺北市中山區林森北路260號6樓,25.054577427186,121.52532779967,NP200,法人教會,,
290089228,法人教會,財團法人台北市韓國基督教會,02-25605342,臺北市中山區松江路興亞里22號2樓,25.046867445766,121.53272175142,NP200,法人教會,,
290089243,法人教會,財團法人基督教天聲傳播協會,02-27071438,臺北市中山區八德路２段朱崙里251號3樓之4,25.04697731787,121.54103782793,NP200,法人教會,,
290089242,法人教會,財團法人天理教臺灣總會,02-25335594,臺北市中山區北安路625號,25.083207952215,121.54889437437,NP200,法人教會,,
290089240,法人教會,財團法人耶穌基督血水聖靈全備福音佈道團,02-28215464,臺北市北投區東華街1段364號5樓,25.121373102704,121.50498155343,NP200,法人教會,,
290089238,法人教會,財團法人台北市基督教會興雅三一堂,02-27647530,臺北市信義區永吉路西村里30巷83弄13號,,,,,,
290089247,法人教會,財團法人大湖基督教會,02-27952813,臺北市內湖區金湖路清白里16之3號,25.083544616957,121.59593594117,NP200,法人教會,,
290089252,法人教會,財團法人臺灣基督長老教會雙連教會,02-2541-5390,臺北市中山區中山北路２段聚盛里111號,25.060121091574,121.52316762667,NP200,法人教會,,
290089261,法人教會,財團法人台灣基督教道生長老會北投中和教會,02-28958686,臺北市北投區中和街智仁里493巷6-3號,25.144698443119,121.4947240732,NP200,法人教會,,
290089263,法人教會,財團法人台北基督徒長春禮拜堂,02-2508-1286,臺北市中山區長春路中央里172號4樓,25.054691804265,121.53385015816,NP200,法人教會,,
290089293,法人教會,財團法人北投基督徒聚會處,02-28915314,臺北市北投區中央北路１段長安里44號2樓,25.13405969608,121.5007774242,NP200,法人教會,,
290088597,法人教會,財團法人基督教台北頌主堂,02-23215083,臺北市大安區潮州街錦安里124號,25.028676225095,121.52728589472,NP200,法人教會,,
290089277,法人教會,財團法人台北市基督教女教士差會,02-2752-4288,臺北市中山區龍江路力行里53號,25.049467333717,121.54055328753,NP200,法人教會,,
290089285,法人教會,財團法人台北市基督教三愛會,02-28214532,臺北市北投區石牌路１段吉慶里71巷15弄3號,25.114293869518,121.51075030241,NP200,法人教會,,
290089287,法人教會,財團法人台北市基督教福音浸信會,02-2533-3233,臺北市中山區大直街大直里52巷7號,25.082210972274,121.54678822251,NP200,法人教會,,
290089286,法人教會,財團法人台北市天主教善牧修女會,02-28912363,臺北市北投區中和街中心里20巷28號4樓,25.138503239782,121.50449229078,NP200,法人教會,,
290089288,法人教會,財團法人臺灣基督長老教會大直教會,02-25325907,臺北市中山區北安路大直里651號1樓,25.084279666209,121.54914856415,NP200,法人教會,,
290089299,法人教會,財團法人台北市基督教浸信會榮恩堂,02-27906286,臺北市內湖區內湖路３段金瑞里143巷6號,25.084591268806,121.59244481465,NP200,法人教會,,
290089313,法人教會,財團法人各各他浸信會,02-28313458,臺北市士林區仰德大道２段永福里21號樓,25.104667029975,121.54170831245,NP200,法人教會,,
290089306,法人教會,財團法人台北市基督教中國福音會,02-28964528,臺北市北投區中和街中心里49號3樓,25.138457378161,121.50223335889,NP200,法人教會,,
290089310,法人教會,財團法人基督教台北永約教會,02-2517-2118,臺北市中山區松江路朱園里101號8樓,25.051155072758,121.53322318007,NP200,法人教會,,
290089454,法人教會,財團法人台北市永樂基督長老教會,02-2752-3422,臺北市中山區遼寧街力行里105巷37號,25.048574681576,121.54223097559,NP200,法人教會,,
290089336,法人教會,財團法人中華基督教浸信會真光堂,02-25977404,臺北市中山區中山北路２段恆安里183巷3號,25.057152764281,121.52333096731,NP200,法人教會,,
290089328,法人教會,財團法人台北市基督教社會互談會,02-2536-1952,臺北市中山區松江路興亞里22號8樓之2,25.046867445766,121.53272175142,NP200,法人教會,,
290088698,法人教會,財團法人台北市城東基督長老教會,02-27711282,臺北市大安區安和路１段建倫里45號,25.03860815171,121.5511028233,NP200,法人教會,,
290089357,法人教會,財團法人台北市基督徒聚會處,02-23710952,臺北市中正區南海路南門里39號,25.03162162016,121.5127340911,NP200,法人教會,,
290089342,法人教會,財團法人台灣基督教協同會,04-24225347,臺北市中正區臺中市外埔區大馬路123號,,,,,,
290089356,法人教會,財團法人台北市中華基督教長老會石牌信友堂,02-28219248,臺北市北投區立農街１段立農里572號,25.11927375568,121.51089180894,NP200,法人教會,,
290089371,法人教會,財團法人台北市陽明山山仔后基督教會,02-28610840,臺北市士林區華岡路陽明里47巷1號2樓,25.138371449663,121.54393090972,NP200,法人教會,,
290089361,法人教會,財團法人中華基督教浸信會嶺頭山莊福音中心,02-28319459,臺北市士林區仰德大道２段永福里11巷11號,25.103303247647,121.54120498301,NP200,法人教會,,
290089366,法人教會,財團法人臺北市基督教改革宗長老會忠孝教會,02-87853982,臺北市信義區中坡北路長春里3號12樓,25.044273087431,121.58092362945,NP200,法人教會,,
290089367,法人教會,財團法人臺北市基督教石牌浸信會,02-28213734,臺北市北投區吉利街立農里259巷7-2號2樓,25.118615893963,121.51078959482,NP200,法人教會,,
290089410,法人教會,財團法人基督教福音證主協會,02-2523-3100,臺北市中山區松江路興亞里22號8樓之3,25.046867445766,121.53272175142,NP200,法人教會,,
290089392,法人教會,財團法人台北市天母基督教會,02-28714834,臺北市士林區天玉街福順里63號,25.122034922761,121.53073727288,NP200,法人教會,,
290089391,法人教會,財團法人台灣聖公會,02-23411265,臺北市中正區杭州南路一段105巷7號,25.037434343873,121.52578021611,NP200,法人教會,,
290089390,法人教會,財團法人中華基督教協同會,02-23679773,臺北市中正區羅斯福路三段240巷16號6樓,25.017587579154,121.52946802378,NP200,法人教會,,
290089396,法人教會,財團法人基督教台北市新使徒教會,02-25035785,臺北市信義區基隆路２段景聯里39巷5號2樓,25.025352815581,121.55427215622,NP200,法人教會,,
290089397,法人教會,財團法人台北市基督教浸信會宣恩堂,02-27384660,臺北市信義區吳興街景勤里214號樓,25.027871885481,121.56287955237,NP200,法人教會,,
290089409,法人教會,財團法人美國基督教神召會台灣事務所,02-2531-5163,臺北市中山區長春路中山里21號5樓,25.055057199975,121.52415917368,NP200,法人教會,,
290089408,法人教會,財團法人台北市中山基督長老教會,02-2551-8480,臺北市中山區林森北路正得里62號,25.048962633026,121.52431325158,NP200,法人教會,,
290089407,法人教會,財團法人基督教宣道會台灣省聯會,02-27731811,臺北市中山區遼寧街83號,25.049752276815,121.54239859991,NP200,法人教會,,
290089416,法人教會,財團法人基督教天母靈泉堂,02-28219598,臺北市北投區榮華三路振華里48號2樓,25.114193054743,121.52037711737,NP200,法人教會,,
290089422,法人教會,財團法人台北市猶太教會,02-28748722,臺北市北投區石牌路２段永欣里315巷37號,25.116085107477,121.51566157473,NP200,法人教會,,
290089420,法人教會,財團法人台北市基督教伯特利教會,02-2781-9136,臺北市中山區長安東路２段朱崙里180號2樓,25.048209550376,121.54118875118,NP200,法人教會,,
290089421,法人教會,財團法人基督教浸禮聖經會台北會幕堂,02-25712150,臺北市中山區中山北路１段正得里105巷19號,25.051100187659,121.5241126529,NP200,法人教會,,
290089427,法人教會,財團法人基督教城光教會,02-2522-4508,臺北市中山區民生西路集英里3巷2號2樓,25.058062642517,121.52169065025,NP200,法人教會,,
290089435,法人教會,財團法人台北市基督教台灣神的教會佳美堂,02-2508-3556,臺北市中山區龍江路朱馥里229巷3-1號,25.051369439967,121.54089004041,NP200,法人教會,,
290089426,法人教會,財團法人台灣北區守望台聖經書社,02-4777999轉3219,臺北市中山區農安街210號6樓之2（通訊處：32746桃園縣新屋鄉社子村7鄰3之12號）,,,,,,
290089425,法人教會,財團法人基督教台北龍江路福音堂,02-2740-1467,臺北市中山區龍江路力行里76巷25號4樓,25.050920891996,121.54173669395,NP200,法人教會,,
290089434,法人教會,財團法人基督教中國主日學協會,02-25710449轉740765,臺北市中山區中山北路二段105號(聯絡處：10451北市中山北路二段93巷24號),25.055800391451,121.52407968612,NP200,法人教會,,
290089439,法人教會,財團法人台北基督徒南京東路禮拜堂,02-25670840,臺北市中山區南京東路２段興亞里110號,25.051864477494,121.53219436984,NP200,法人教會,,
290089453,法人教會,財團法人以琳基督徒中心,02-2756-7625,臺北市中山區新生北路３段恆安里26號11樓之14,25.063722137925,121.52739768246,NP200,法人教會,,
290088633,法人教會,財團法人台北市春生堂大稻埕基督長老教會,02-25539741,臺北市大同區甘州街延平里40號2樓,25.059639246026,121.51271773973,NP200,法人教會,,
290089447,法人教會,財團法人台北市中華基督教浸信會台北東區牧心堂,02-27227026,臺北市信義區松仁路六合里228巷7弄2號地下一層,25.025128693798,121.56855505103,NP200,法人教會,,
290089449,法人教會,財團法人新約教會石牌教會,02-28236138,臺北市北投區石牌路１段榮光里166巷11號5樓,25.113062202219,121.5113901223,NP200,法人教會,,
290089450,法人教會,財團法人台北市新北投基督長老教會,02-28926580,臺北市北投區溫泉路長安里35-2號,25.134376857558,121.50309118846,NP200,法人教會,,
290089460,法人教會,財團法人台北市福音山基督教會,02-2503-2204,臺北市中山區民權東路２段松江里160號2樓之1,25.06222088975,121.53517175264,NP200,法人教會,,
290089461,法人教會,財團法人基督教更生團契,02-2536-8846,臺北市中山區松江路中吉里132巷3號4樓,25.053351305272,121.53230399198,NP200,法人教會,,
290089468,法人教會,財團法人台北市中正基督長老教會,02-2501-9514,臺北市中山區龍江路江山里281巷11號,25.05115066354,121.54075846726,NP200,法人教會,,
290089467,法人教會,財團法人台北市基督教救世傳播協會,02-25338082,臺北市中山區大直街大直里62巷10號,25.081672732888,121.54737054871,NP200,法人教會,,
290088363,法人教會,財團法人臺灣基督長老教會宣教中心,02-23625282,臺北市大安區羅斯福路３段大學里269巷3號6樓,25.018229422821,121.53151530599,NP200,法人教會,,
290088665,法人教會,財團法人基督教臺灣福音會,02-25970684,臺北市大同區迪化街二段364巷27號2樓,25.073045868897,121.51177736267,NP200,法人教會,,
290088717,法人教會,財團法人台北市基督教會景美禮拜堂,02-29345321,臺北市文山區溪口街景仁里14號,24.99469318517,121.54056424236,NP200,法人教會,,
290088680,法人教會,財團法人台北市大安區基督教浸信宣道會,02-25450881,臺北市大安區瑞安街住安里23巷11號,25.031126279638,121.54467494701,NP200,法人教會,,
290088679,法人教會,財團法人北部台灣基督長老教會七星中會,02-23918310,臺北市大安區羅斯福路三段269巷3號4樓,25.019063652895,121.53110695752,NP200,法人教會,,
290088618,法人教會,財團法人台北市基督教改革宗長老會南港教會,02-27830345,臺北市南港區向陽路東明里104號2樓,25.053496423552,121.59521129783,NP200,法人教會,,
290088634,法人教會,財團法人台北市建成基督長老教會,02-25580685,臺北市大同區承德路１段建泰里77巷29號,25.05113887431,121.51814994409,NP200,法人教會,,
290088718,法人教會,財團法人台北市基督教台灣貴格會,02-23019896,臺北市文山區萬盛街144號,25.005543953652,121.54236125365,NP200,法人教會,,
290088759,法人教會,財團法人台北基督徒林森南路禮拜堂,02-23935542,臺北市中正區幸福里林森南路2號,25.04428806414,121.52307095282,NP200,法人教會,,
290088744,法人教會,財團法人天主教方濟各會,02-29017534,"臺北市萬華區昆明街96巷8號 (聯絡處：24350新北市泰山區明志路三段26號)",25.047176780036,121.50593684661,NP200,法人教會,,
290088388,法人教會,財團法人台北市基督教以馬內利教會,02-23031453,臺北市萬華區中華路２段凌霄里504巷45號,25.030310111963,121.50268933747,NP200,法人教會,,
290088738,法人教會,財團法人美南浸信會台北市事務所,02-23717227,臺北市中正區懷寧街47之1號,25.04459471132,121.51419799086,NP200,法人教會,,
290088664,法人教會,財團法人天主教社會服務修女會,02-23631296,臺北市大安區和平東路１段龍泉里188巷1號,25.027275004159,121.52512224671,NP200,法人教會,,
290088636,法人教會,財團法人基督教浸禮聖經會南港恩慈堂,02-27861565,臺北市南港區東新街聯成里67號,25.046654112712,121.58805522382,NP200,法人教會,,
290088739,法人教會,財團法人中華基督教廈門街浸信會,02-23687582,臺北市中正區廈門街網溪里81巷20號,,,,,,
290088719,法人教會,財團法人木柵基督徒聚會,02-29352953,臺北市文山區恆光街樟腳里30巷17號,24.982480399724,121.56822205586,NP200,法人教會,,
290088364,法人教會,財團法人基督徒聚會所,02-23217533,臺北市大安區永康街永康里14巷7及9號,25.032731501685,121.52929759839,NP200,法人教會,,
290088366,法人教會,財團法人台北市基督教崇真堂,02-23623251,"臺北市大安區羅斯福路３段大學里271號12 樓",25.018587220164,121.53070280751,NP200,法人教會,,
290088365,法人教會,財團法人基督教協同會頌主堂,02-27375035,臺北市大安區通化街通安里162巷2號五樓,25.026204478964,121.55230032912,NP200,法人教會,,
290088362,法人教會,財團法人天主教聖母無原罪傳教女修會,02-27074010,臺北市大安區復興南路二段148巷30號,25.028548446532,121.5419951252,NP200,法人教會,,
290088380,法人教會,財團法人天主教耶穌會,02-23212442轉102,臺北市大安區新生南路二段50號,25.028935497163,121.53399902113,NP200,法人教會,,
290088533,法人教會,財團法人天主教會台灣地區主教團,02-27326602轉222,臺北市大安區安居街39號,25.020120298464,121.55408655963,NP200,法人教會,,
290088379,法人教會,財團法人中華基督教衛理公會,02-27058500,臺北市大安區光復南路438號1樓,25.035987294252,121.55737239668,NP200,法人教會,,
290088381,法人教會,財團法人基督教改革宗長老會信安教會,02-27012966,臺北市大安區光復南路通化里632號2樓,25.031557234873,121.55725111926,NP200,法人教會,,
290088631,法人教會,財團法人天主教拯亡修女會,02-2737-1008,臺北市大安區通化街法治里172號,25.027954953506,121.5534817056,NP200,法人教會,,
290088391,法人教會,財團法人美國賓雪法尼亞州守望台聖經書社台灣分社,02-4777999#3219,臺北市大安區雲和街99巷5號（通訊處：32746桃園縣新屋鄉社子村七鄰3之12號）,,,,,,
290088389,法人教會,財團法人台北市天主教聖母聖心傳教修女會,02-29251302,臺北市萬華區德昌街保德里125巷11號5樓,25.02494856206,121.49767711046,NP200,法人教會,,
290088392,法人教會,財團法人台北市中華海外宣道會,02-27328273,臺北市大安區安居街黎孝里35巷14號,25.018613347715,121.55325518612,NP200,法人教會,,
290088394,法人教會,財團法人台灣省天主教道明傳教修女會,02-25536101,臺北市大同區民生西路239號,25.057167718797,121.5152482542,NP200,法人教會,,
290088427,法人教會,財團法人台北市李春生紀念基督長老教會,02-25580753,臺北市大同區貴德街永樂里44號,25.054853704167,121.50826045288,NP200,法人教會,,
290088408,法人教會,財團法人台灣基督長老教會原住民宣道會,02-23625282,臺北市大安區羅斯福路三段269巷3號,25.019063652895,121.53110695752,NP200,法人教會,,
290088410,法人教會,財團法人基督教工業福音團契,02-23620657,臺北市大安區和平東路２段龍門里24號7樓,25.025635740711,121.53642523319,NP200,法人教會,,
290088409,法人教會,財團法人台灣基督教視聽聯合會,02-27068000,臺北市大安區復興南路二段173之1號6之1樓,25.027407119811,121.54368737855,NP200,法人教會,,
290088425,法人教會,財團法人基督教台灣信義會,02-23519317,臺北市大安區杭州南二段15號,,,,,,
290088426,法人教會,財團法人中國學園傳道會,02-2362379428,臺北市大安區新生南路三段52-7號7樓,25.021177690926,121.53391275073,NP200,法人教會,,
290088532,法人教會,財團法人台北市中華基督教浸信會信德堂,02-2325-3012,臺北市大安區敦化南路１段德安里362號6樓,25.034066395311,121.54844679123,NP200,法人教會,,
290088431,法人教會,財團法人台北市基督教南港浸信會,02-27839117,臺北市南港區興華路東明里62號,25.055244347168,121.60570796688,NP200,法人教會,,
290088444,法人教會,財團法人北部台灣基督長老教會,02-23918310,臺北市大安區羅斯福路羅斯福路三段269巷3號4樓,25.019063652895,121.53110695752,NP200,法人教會,,
290088458,法人教會,財團法人台灣基督長老教會台北市安和教會,02-27055013,臺北市大安區仁愛路４段敦安里122巷54號1樓,25.034062767195,121.55012210375,NP200,法人教會,,
290088457,法人教會,財團法人基督教靈友堂,02-23632921,臺北市大安區新生南路３段龍坡里16巷9號,25.020480938759,121.53361077545,NP200,法人教會,,
290088482,法人教會,財團法人中華基督教浸信會慕義堂,02-2363-4559,臺北市大安區羅斯福路２段古莊里117巷1號,25.024455751342,121.52511230095,NP200,法人教會,,
290088497,法人教會,財團法人天主教耶穌寶血女修會,02-23632183,臺北市大安區泰順街古風里60巷18弄8號,25.022037127423,121.5298280175,NP200,法人教會,,
290088498,法人教會,財團法人台北市仁愛基督長老教會,02-2701-0408,臺北市大安區復興南路１段仁慈里295巷32號,25.036700635518,121.54507236744,NP200,法人教會,,
290088511,法人教會,財團法人台北市基督教浸信會懷恩堂,02-2362-5321,臺北市大安區新生南路３段大學里90號,25.017782118627,121.5331964369,NP200,法人教會,,
290088509,法人教會,財團法人基督教宇宙光全人關懷機構,02-23632107,臺北市大安區和平東路２段龍門里24號8樓,25.025635740711,121.53642523319,NP200,法人教會,,
290088510,法人教會,財團法人中華基督教正義浸信會,02-27413314,臺北市大安區仁愛路３段義村里123巷13弄1-5號,,,,,,
290088629,法人教會,財團法人天主教普照修女會,02-23635276,臺北市大安區新生南路３段大學里76巷9之2號,25.019077904698,121.53309576917,NP200,法人教會,,
290088528,法人教會,財團法人台北市基督教中華福音道路德會真光堂,02-23071857,臺北市萬華區萬大路日善里200號2樓,25.027379748766,121.50029883403,NP200,法人教會,,
290088534,法人教會,財團法人中華福音道路德會,02-27728435,臺北市大安區復興南路一段127號4樓,25.043086372016,121.54403239825,NP200,法人教會,,
290088546,法人教會,財團法人巴哈伊教台灣總會,02-2707-0392,臺北市大安區新生南路１段民炤里149-13號,25.035467069021,121.5330933784,NP200,法人教會,,
290088545,法人教會,財團法人台灣耶穌基督後期聖徒教會,02-21924900,臺北市大安區金華街183巷5號4樓,25.03109788841,121.52750665414,NP200,法人教會,,
290088544,法人教會,財團法人基督教美國南長老會台灣差會,02-23625282,臺北市大安區羅斯福路三段269巷3號6樓,25.019063652895,121.53110695752,NP200,法人教會,,
290088548,法人教會,財團法人台灣聖經公會,02-27510882,"臺北市大安區仁愛路３段民輝里29號4樓 B E室",25.038606561565,121.53462287424,NP200,法人教會,,
290088547,法人教會,財團法人台北市中華基督教信義會,02-27374891,臺北市大安區基隆路２段臨江里110號三樓,25.029263125514,121.55710303346,NP200,法人教會,,
290088630,法人教會,財團法人中華基督教浸信會光復堂,02-27219823,臺北市大安區光復南路正聲里280巷35號,25.039159828744,121.55605146875,NP200,法人教會,,
290089165,法人教會,財團法人梓官天主堂,07-6177125,高雄市梓官區中崙路梓義路280號,22.761120986981,120.26799268097,NP200,法人教會,,
290088607,法人教會,財團法人天主教聖若瑟堂,07-6973213,高雄市路竹區中華路文南村101號,22.856926669822,120.2580843925,NP200,法人教會,,
290089145,法人教會,財團法人鳥松教會,07-7333261,高雄市鳥松區鳥松路9-5號,22.659145718242,120.36185835539,NP200,法人教會,,
290089144,法人教會,財團法人基督教高雄聖經聖潔會,07-7912583,高雄市苓雅區中正二路139號6樓之4,22.630226409808,120.31505000627,NP200,法人教會,,
290089158,法人教會,財團法人高雄市苓雅基督教會,07-3341401,高雄市苓雅區中華四路二三四號,22.6185221694,120.30034269268,NP200,法人教會,,
290088367,法人教會,財團法人基督教中華循理會,07-7462086,高雄市鳳山區中山路70巷20號,22.622359475104,120.36019371576,NP200,法人教會,,
290088368,法人教會,財團法人基督教拿撒勒人教會,07-7466668,高雄市鳳山區瑞竹路100巷20號,22.62566793307,120.36794894595,NP200,法人教會,,
290088369,法人教會,財團法人新約教會鳳山教會,-,高雄市鳳山區鎮東街106號五樓,22.62156984853,120.36408403079,NP200,法人教會,,
290088383,法人教會,財團法人基督教鳳山神召會,07-7465315,高雄市鳳山區新生街118號,22.626908079234,120.35536384068,NP200,法人教會,,
290088369,法人教會,財團法人新約教會鳳山教會,-,高雄市鳳山區鎮東街106號五樓,22.62156984853,120.36408403079,NP200,法人教會,,
290088367,法人教會,財團法人基督教中華循理會,07-7462086,高雄市鳳山區中山路70巷20號,22.622359475104,120.36019371576,NP200,法人教會,,
290088368,法人教會,財團法人基督教拿撒勒人教會,07-7466668,高雄市鳳山區瑞竹路100巷20號,22.62566793307,120.36794894595,NP200,法人教會,,
290088373,法人教會,財團法人旗山鎮天主教堂,07-6612344,高雄市旗山區太平里德義街6號,22.884935085578,120.47896029716,NP200,法人教會,,
290088477,法人教會,財團法人六龜浸信會,07-6891054,高雄市六龜區華南街38號,22.997750788057,120.63410431296,NP200,法人教會,,
290088375,法人教會,財團法人美嘉基督教會,07-3601072,高雄市楠梓區軍校路876巷52號5樓之2,22.711319592035,120.29327297161,NP200,法人教會,,
290088382,法人教會,財團法人長老教會九曲堂教會,07-6515551,高雄市大樹區九堂村（路）7-10號2樓,22.676368467718,120.42652858758,NP200,法人教會,,
290088384,法人教會,財團法人台灣信義會鳳山感恩堂,07-7479595,高雄市鳳山區自由路51號,22.625807866299,120.35419724695,NP200,法人教會,,
290088383,法人教會,財團法人基督教鳳山神召會,07-7465315,高雄市鳳山區新生街118號,22.626908079234,120.35536384068,NP200,法人教會,,
290088397,法人教會,財團法人基督教循理會文山教會,07-7469744,高雄市鳳山區文衡路64號,22.634110561446,120.35833819539,NP200,法人教會,,
290088418,法人教會,財團法人中華循理會商協教會,07-7817415,高雄市大寮區水源路山頂村51巷24號,22.610952155709,120.38930841392,NP200,法人教會,,
290088419,法人教會,財團法人天主教奧思會,07-7828950,高雄市大寮區中正路中興里4號,22.617662908842,120.38643295212,NP200,法人教會,,
290088430,法人教會,財團法人中華基督澄清湖浸信會,07-7777542,高雄市鳳山區文安街18號,22.641848606196,120.34780893501,NP200,法人教會,,
290088429,法人教會,財團法人長老教會鳳山教會,07-7462676,高雄市鳳山區中正路172號,22.628371018079,120.36104093588,NP200,法人教會,,
290088436,法人教會,財團法人聖尼各老教堂,07-7814643,高雄市大寮區中正路4號,22.617662908842,120.38643295212,NP200,法人教會,,
290088461,法人教會,財團法人基督教五甲浸信會,07-8120629,高雄市鳳山區南光街20巷1-1號,22.592261323547,120.32937976142,NP200,法人教會,,
290088460,法人教會,財團法人基督教鳳山浸信會,07-7478850,高雄市鳳山區青年路二段518巷5號,22.645710987055,120.3501957762,NP200,法人教會,,
290088560,法人教會,財團法人天主教聖道明堂,07-6113450,高雄市橋頭區成功北路橋頭村1號,22.762110396601,120.30809993284,NP200,法人教會,,
290088485,法人教會,財團法人潮寮基督長老教會,07-6775885,高雄市大寮區潮寮村223號,22.564713897515,120.43210997701,NP200,法人教會,,
290088476,法人教會,財團法人天主教會高雄教區山地教會,"07-3342142 . 3310169","高雄市六龜區太平路義寶村29號 (聯絡處：80250苓雅區四維三路125號)",22.99592849422,120.6357001046,NP200,法人教會,,
290088515,法人教會,財團法人中華傳道會聖恩堂,07-7013691,高雄市鳳山區建國路一段53巷2弄80號,22.635200955124,120.37485184263,NP200,法人教會,,
290088489,法人教會,財團法人高雄市左營基督教會國語禮拜堂,07-5811697,高雄市左營區海功路243號,22.693449089953,120.29360104669,NP200,法人教會,,
290088492,法人教會,財團法人高雄市小港浸信會,-8037177,高雄市小港區廠前路38號,22.57227600425,120.35025495397,NP200,法人教會,,
290088491,法人教會,財團法人基督長老教會荖濃教會,07-0000000,高雄市六龜區頂濃路荖濃村69號,23.081392502155,120.67376941927,NP200,法人教會,,
290088503,法人教會,財團法人基督教新希望教會,07-5335777,高雄市鹽埕區建國四路145號,22.625087304014,120.27982043381,NP200,法人教會,,
290088523,法人教會,財團法人中國基督教靈糧世界佈道會高雄靈糧堂,07-5567640,高雄市左營區富國路185號4樓之1及2,22.6635770141,120.30649087315,NP200,法人教會,,
290088521,法人教會,財團法人高楠基督長老教會,07-3421196,高雄市仁武區高楠北街高楠村44號,22.694196090766,120.32508010312,NP200,法人教會,,
290088530,法人教會,財團法人台灣基督長老教會甲仙教會,07-6751154,高雄市甲仙區林森路東安村15號,23.082978005587,120.59006881042,NP200,法人教會,,
290088529,法人教會,財團法人文安基督教浸信會,07-6191292,高雄市彌陀區文安路文安村（路）36號,22.794154341507,120.23761060389,NP200,法人教會,,
290088541,法人教會,財產法人基督教二苓福音教會,-8018344,高雄市小港區漢民路381號10樓,22.567036441036,120.35663728951,NP200,法人教會,,
290088540,法人教會,財團法人台灣基督長老教會六龜教會,07-0000000,高雄市六龜區光復路義寶村156號,22.994439666519,120.63485481347,NP200,法人教會,,
290088543,法人教會,中華基督教浸信會真道堂,07-6109155,高雄市彌陀區中正南路彌陀村45號,22.777876091075,120.25047376271,NP200,法人教會,,
290088567,法人教會,財團法人竹門基督長老教會,07-3711435,高雄市仁武區竹門巷竹後村86號,22.708467803652,120.33568753243,NP200,法人教會,,
290088600,法人教會,財團法人信義會鳳山基督堂,07-7465192,高雄市鳳山區中山東路223號,22.624502085965,120.37048195056,NP200,法人教會,,
290088617,法人教會,財團法人基督教鳳山活泉靈糧堂,-7552552,高雄市鳳山區誠東街1號,22.610851863109,120.36199339867,NP200,法人教會,,
290089204,法人教會,財團法人蚵寮基督教會,07-6107838,高雄市梓官區光明禮蚵村光明路152號,22.733138395659,120.25044834457,NP200,法人教會,,
290088624,法人教會,財團法人深水基督教會,07-6152684,高雄市燕巢區深水里大成路62號,22.772476049514,120.38269089085,NP200,法人教會,,
290089241,法人教會,財團法人基督教好消息教會,07-3815227,高雄市三民區大昌二路97號5樓,22.641171010522,120.33198868256,NP200,法人教會,,
290089218,法人教會,財團法人基督教福氣教會,07-3451919,高雄市三民區河堤路292號地下一樓,22.661080435714,120.31186316404,NP200,法人教會,,
290089043,法人教會,財團法人山達基教會高雄機構,07-2130188,高雄市前金區七賢二路329號,22.630993847842,120.29004780274,NP200,法人教會,,
290089216,法人教會,財團法人台灣基督教救恩會,07-5612914,高雄市鼓山區鼓山一路161巷20號,22.630226924135,120.28007090818,NP200,法人教會,,
290089236,法人教會,財團法人基督教中華循理會,07-2826596,高雄市前金區自強一路36號11樓,22.629962488595,120.29372090116,NP200,法人教會,,
290089237,法人教會,財團法人台灣南區守望台聖經書社,03-4777999,高雄市前金區中正四路136號4樓（通訊處：32746桃園縣新屋鄉社子村7鄰3之12號）,,,,,,
290089258,法人教會,財團法人基督教橄欖園長老教會,07-2722372,高雄市前金區文武一街36號,22.63020397212,120.29475196562,NP200,法人教會,,
290088626,法人教會,財團法人基督復臨安息日會,07-0000000,高雄市六龜區頂濃路荖濃村49巷16-1號,23.08712718855,120.67981300555,NP200,法人教會,,
290089251,法人教會,財團法人中國回教協會高雄清真寺,07-7496812,高雄市苓雅區建軍路11號,22.627882528092,120.34198001535,NP200,法人教會,,
290089256,法人教會,財團法人台灣基督教長老教護會永安教會,07-6912324,高雄市永安區永華村（路）23號,22.818618729598,120.22613800613,NP200,法人教會,,
290089259,法人教會,財團法人台灣基督全牧教會,07-3343410,高雄市苓雅區苓雅一路195號6樓,22.620942437422,120.31079995365,NP200,法人教會,,
290088627,法人教會,財團法人左營油廠基督教會,07-3635078,高雄市楠梓區後昌路546巷1號,22.708085308834,120.30071602418,NP200,法人教會,,
290089266,法人教會,財團法人基督教梓官長老教會,07-6171911,高雄市梓官區進學路梓義村80號,22.760732847014,120.26453177979,NP200,法人教會,,
290089268,法人教會,財團法人台灣基督教長老教會大湖教會,07-6934030,高雄市湖內區大湖里中山路一段495號,22.888266866219,120.24242940537,NP200,法人教會,,
290089335,法人教會,財團法人高禱屋,07-3986702,高雄市三民區民族一路80號39樓之1,22.643220296954,120.3146665767,NP200,法人教會,,
290089295,法人教會,財團法人伯大尼之家,07-2364787,高雄市三民區覺民路2號,22.638734149722,120.34478922957,NP200,法人教會,,
290089296,法人教會,財團法人中華基督教浸信宣道會高雄覺民教會,07-3841248,高雄市三民區臥龍路113號4樓5樓,22.640395243501,120.33005531635,NP200,法人教會,,
290088681,法人教會,財團法人鳳山市教會聚會所,07-7465481,高雄市鳳山區曹公路36巷1號,22.630137087014,120.35763033556,NP200,法人教會,,
290088658,法人教會,財團法人聖道堂,07-6215016,高雄市岡山區維仁路210號,22.798009792743,120.29384313638,NP200,法人教會,,
290089317,法人教會,財團法人天主教中華道明會,07-2226747轉322,高雄市苓雅區建國一路354號,22.633376200649,120.32309891269,NP200,法人教會,,
290089309,法人教會,財團法人新約教會高雄教會,07-2364787,高雄市三民區澄清路379號,22.638785339838,120.34478577632,NP200,法人教會,,
290089316,法人教會,財團法人高雄市召會,07-2115115,高雄市前金區新盛二街60號,22.628587584065,120.29733921197,NP200,法人教會,,
290089316,法人教會,財團法人高雄市召會,07-2115115,高雄市前金區新盛二街60號,22.628587584065,120.29733921197,NP200,法人教會,,
290088485,法人教會,財團法人潮寮基督長老教會,07-6775885,高雄市大寮區潮寮村223號,22.564713897515,120.43210997701,NP200,法人教會,,
290088384,法人教會,財團法人台灣信義會鳳山感恩堂,07-7479595,高雄市鳳山區自由路51號,22.625807866299,120.35419724695,NP200,法人教會,,
290088369,法人教會,財團法人新約教會鳳山教會,-,高雄市鳳山區鎮東街106號五樓,22.62156984853,120.36408403079,NP200,法人教會,,
290089351,法人教會,財團法人台灣基督教長老教會太爺教會,07-6993164,高雄市湖內區公舘里中華街169號,22.907603248386,120.22476518548,NP200,法人教會,,
290088368,法人教會,財團法人基督教拿撒勒人教會,07-7466668,高雄市鳳山區瑞竹路100巷20號,22.62566793307,120.36794894595,NP200,法人教會,,
290088477,法人教會,財團法人六龜浸信會,07-6891054,高雄市六龜區華南街38號,22.997750788057,120.63410431296,NP200,法人教會,,
290088443,法人教會,財團法人中路教會,07-6313640,高雄市阿蓮區中路村157號,22.896183422359,120.29155334371,NP200,法人教會,,
290088478,法人教會,財團法人安息日會,07-000000,高雄市六龜區華南街28號,22.997796298195,120.6347795035,NP200,法人教會,,
290089105,法人教會,財團法人高雄基督徒聚會,07-3394950,高雄市苓雅區復興二路七號三樓之一,22.616917057797,120.31135598212,NP200,法人教會,,
290088367,法人教會,財團法人基督教中華循理會,07-7462086,高雄市鳳山區中山路70巷20號,22.622359475104,120.36019371576,NP200,法人教會,,
290089335,法人教會,財團法人高禱屋,07-3986702,高雄市三民區民族一路80號39樓之1,22.643220296954,120.3146665767,NP200,法人教會,,
290089123,法人教會,財團法人中華道明會,07-2226747,高雄市苓雅區建國一路354號,22.633376200649,120.32309891269,NP200,法人教會,,
290088430,法人教會,財團法人中華基督澄清湖浸信會,07-7777542,高雄市鳳山區文安街18號,22.641848606196,120.34780893501,NP200,法人教會,,
290088429,法人教會,財團法人長老教會鳳山教會,07-7462676,高雄市鳳山區中正路172號,22.628371018079,120.36104093588,NP200,法人教會,,
290088436,法人教會,財團法人聖尼各老教堂,07-7814643,高雄市大寮區中正路4號,22.617662908842,120.38643295212,NP200,法人教會,,
290089169,法人教會,財團法人山達基教會,07-2136110,高雄市前金區七賢二路329號9樓,22.630993847842,120.29004780274,NP200,法人教會,,
290088460,法人教會,財團法人基督教鳳山浸信會,07-7478850,高雄市鳳山區青年路二段518巷5號,22.645710987055,120.3501957762,NP200,法人教會,,
290088461,法人教會,財團法人基督教五甲浸信會,07-8120629,高雄市鳳山區南光街20巷1-1號,22.592261323547,120.32937976142,NP200,法人教會,,
290088476,法人教會,財團法人天主教會高雄教區山地教會,"07-3342142 . 3310169","高雄市六龜區太平路義寶村29號 (聯絡處：80250苓雅區四維三路125號)",22.99592849422,120.6357001046,NP200,法人教會,,
290089165,法人教會,財團法人梓官天主堂,07-6177125,高雄市梓官區中崙路梓義路280號,22.761120986981,120.26799268097,NP200,法人教會,,
290089364,法人教會,財團法人中國平信徒傳道會,-0922-688688,"高雄市前金區河東路165號3樓( 聯絡處：100臺北市中正區郵政信箱771號)",22.623032257111,120.2908746979,NP200,法人教會,,
290089145,法人教會,財團法人鳥松教會,07-7333261,高雄市鳥松區鳥松路9-5號,22.659145718242,120.36185835539,NP200,法人教會,,
290089144,法人教會,財團法人基督教高雄聖經聖潔會,07-7912583,高雄市苓雅區中正二路139號6樓之4,22.630226409808,120.31505000627,NP200,法人教會,,
290089158,法人教會,財團法人高雄市苓雅基督教會,07-3341401,高雄市苓雅區中華四路二三四號,22.6185221694,120.30034269268,NP200,法人教會,,
290089365,法人教會,財團法人基督教聖召會建國教會,07-7491011,高雄市苓雅區義勇路131號,22.633300770588,120.33969518032,NP200,法人教會,,
290089362,法人教會,財團法人台灣鎮海基督教會,09-19121676,高雄市林園區林內路70巷93號,22.53298200231,120.39888133076,NP200,法人教會,,
290089368,法人教會,財團法人華人基督四方教會,07-3232707,高雄市三民區九如二路597號6樓之3及6樓之4,22.641512583849,120.29567603045,NP200,法人教會,,
290089380,法人教會,財團法人基督教改革宗長老會高雄信愛教會,07-3340356,高雄市苓雅區林森二路87號12樓,22.62098667561,120.30611841172,NP200,法人教會,,
290088764,法人教會,財團法人大林基督長老教會,07-6691580,高雄市旗山區大林里教會巷3號,22.959716993323,120.51462291768,NP200,法人教會,,
290088489,法人教會,財團法人高雄市左營基督教會國語禮拜堂,07-5811697,高雄市左營區海功路243號,22.693449089953,120.29360104669,NP200,法人教會,,
290089309,法人教會,財團法人新約教會高雄教會,07-2364787,高雄市三民區澄清路379號,22.638785339838,120.34478577632,NP200,法人教會,,
290088681,法人教會,財團法人鳳山市教會聚會所,07-7465481,高雄市鳳山區曹公路36巷1號,22.630137087014,120.35763033556,NP200,法人教會,,
290088673,法人教會,財團法人仁武天主教會,07-3740613,高雄市仁武區仁德巷仁武村19號,22.701227776475,120.35125263532,NP200,法人教會,,
290088690,法人教會,財團法人燕巢長老教會,07-6161435,高雄市燕巢區南燕里中南路20-1號,22.792120027088,120.36428539225,NP200,法人教會,,
290088683,法人教會,財團法人天主教聖十字堂,07-7813718,高雄市大寮區永芳村鳳林三陸478巷4號,22.605168317412,120.39641063714,NP200,法人教會,,
290088700,法人教會,財團法人五甲基督長老教會,07-8217553,高雄市鳳山區南進一街77號,22.590618019482,120.32860716034,NP200,法人教會,,
290088713,法人教會,財團法人台灣基督長老教會木柵教會,07-6681744,高雄市內門區木柵里44號,22.97645034348,120.46959458745,NP200,法人教會,,
290088709,法人教會,財團法人基督長老教會協和教會,07-6265499,高雄市岡山區大勇街後協里8號,22.789661864391,120.2834220431,NP200,法人教會,,
290088734,法人教會,財團法人鳳屏基督長老教會,07-7013605,高雄市大寮區成功路後庄村22巷1號,22.636352569038,120.39169123327,NP200,法人教會,,
290088729,法人教會,財團法人台灣基督教長老教會橋頭教會,07-6113856,高雄市橋頭區仕隆村（路）28,22.753680544061,120.31069401493,NP200,法人教會,,
290088736,法人教會,財團法人台灣基督教長老教會路竹教會,07-6962344、6971717,高雄市路竹區大社路社南村90號,22.863435244125,120.26279272451,NP200,法人教會,,
290088764,法人教會,財團法人大林基督長老教會,07-6691580,高雄市旗山區大林里教會巷3號,22.959716993323,120.51462291768,NP200,法人教會,,
290088785,法人教會,財團法人興達港福音基督長老教會,06-2588852,高雄市茄萣區民治路崎漏村154-1號2樓,22.874911781332,120.19416277013,NP200,法人教會,,
290088776,法人教會,財團法人台灣基督教長老教會德生教會,07-2311038,高雄市新興區新田路32號4樓之3,22.623710411113,120.30764771763,NP200,法人教會,,
290088786,法人教會,財團法人高雄基督教會,07-7928879,高雄市鳳山區頂圃街188號,22.589698252915,120.35355290447,NP200,法人教會,,
290088796,法人教會,財團法人旗山基督長老教會,07-6612159,高雄市旗山區湄洲里中正路123號,22.88878513737,120.47963264403,NP200,法人教會,,
290088800,法人教會,財團法人天主教善牧堂,07-7429910,高雄市鳳山區勝利路市1號,22.625930493138,120.37343701375,NP200,法人教會,,
290088818,法人教會,財團法人美濃基督長老教會,07-6812204,高雄市美濃區祿興里中正路二段169巷3號,22.888056933973,120.5363445117,NP200,法人教會,,
290088817,法人教會,財團法人美濃浸信會,07-6819242,高雄市美濃區東門里民族路28號,22.898388061592,120.55092508644,NP200,法人教會,,
290088821,法人教會,財團法人仁武基督長老教會,07-3711531,高雄市仁武區仁信巷仁武村50號,22.703186776021,120.34904591266,NP200,法人教會,,
290088477,法人教會,財團法人六龜浸信會,07-6891054,高雄市六龜區華南街38號,22.997750788057,120.63410431296,NP200,法人教會,,
290088833,法人教會,財團法人九曲堂循理教會,07-6513710,高雄市大樹區湖底一巷11號,,,,,,
290088842,法人教會,高雄基督徒七賢路禮拜堂,07-2351622,高雄市新興區七賢一路467號,22.634226602119,120.30441869811,NP200,法人教會,,
290088838,法人教會,財團法人台北市基督教會錫安堂岡山分堂,07-6222486,高雄市岡山區岡燕路287巷11號,22.792297561606,120.30324875128,NP200,法人教會,,
290088870,法人教會,財團法人高雄市基督教浸信會,07-2377234,高雄市新興區中正三路102號,22.63148086344,120.30642983676,NP200,法人教會,,
290088889,法人教會,財團法人聖公會諸聖堂,07-6253143,高雄市岡山區介壽路5號,22.784632496902,120.28955585008,NP200,法人教會,,
290088902,法人教會,財團法人基督長老教會大樹教會,07-6512025,高雄市大樹區中興北路羨腳村83號,22.692689704435,120.43263773838,NP200,法人教會,,
290088898,法人教會,財團法人大津基督教會,07-0000000,高雄市六龜區頂濃路荖濃村49巷16-1號,23.08712718855,120.67981300555,NP200,法人教會,,
290088938,法人教會,高雄基督徒七賢路禮拜堂,07-2211622,高雄市新興區七賢一路467號,22.634226602119,120.30441869811,NP200,法人教會,,
290088935,法人教會,財團法人中華基督教岡山浸信會,07-6250650,高雄市岡山區介壽西路54號,22.784627079941,120.28345769558,NP200,法人教會,,
290088934,法人教會,財團法人基督長老教會岡山教會,07-6213570,高雄市岡山區岡山路436號,22.796840446993,120.29578593799,NP200,法人教會,,
290088954,法人教會,財團法人大社基督喜信會,07-3513907,高雄市大社區三民路觀音村234巷12號,22.72827699536,120.34776343998,NP200,法人教會,,
290089014,法人教會,財團法人聖文生天主堂,07-6252332,高雄市岡山區介壽路1號,22.784580111983,120.29028450255,NP200,法人教會,,
290089011,法人教會,財團法人基督教浸禮聖經教會高雄會幕堂,07-7618540,高雄市苓雅區三多一路三三三號,22.621560991302,120.3283671393,NP200,法人教會,,
290089010,法人教會,財團法人基督教豐盛教會,07-7310542,高雄市苓雅區中正一路三七二號三樓之一,22.629928118385,120.32565985247,NP200,法人教會,,
290089026,法人教會,財團法人基督教湖內聖教會,07-6993163,高雄市湖內區中賢里中正路二段89號,22.90823577571,120.21123875476,NP200,法人教會,,
290088476,法人教會,財團法人天主教會高雄教區山地教會,"07-3342142 . 3310169","高雄市六龜區太平路義寶村29號 (聯絡處：80250苓雅區四維三路125號)",22.99592849422,120.6357001046,NP200,法人教會,,
290089039,法人教會,財團法人台灣五旬節基督教會,07-2299229,高雄市杉林區清水路月眉里118號,22.967047135763,120.53390135265,NP200,法人教會,,
290089043,法人教會,財團法人山達基教會高雄機構,07-2130188,高雄市前金區七賢二路329號,22.630993847842,120.29004780274,NP200,法人教會,,
290089053,法人教會,財團法人台灣基督徒環球佈道團,07-2154689,高雄市新興區復興二路189號,22.625798051925,120.30797982858,NP200,法人教會,,
290089145,法人教會,財團法人鳥松教會,07-7333261,高雄市鳥松區鳥松路9-5號,22.659145718242,120.36185835539,NP200,法人教會,,
290089197,法人教會,財團法人基督小連教會,-,高雄市三民區大連街145巷23號,22.644178949219,120.30447962886,NP200,法人教會,,
290089105,法人教會,財團法人高雄基督徒聚會,07-3394950,高雄市苓雅區復興二路七號三樓之一,22.616917057797,120.31135598212,NP200,法人教會,,
290089135,法人教會,財團法人救恩教會,07-5612914,高雄市田寮區崗北路南安村3號,22.874049093895,120.36045436136,NP200,法人教會,,
290089123,法人教會,財團法人中華道明會,07-2226747,高雄市苓雅區建國一路354號,22.633376200649,120.32309891269,NP200,法人教會,,
290089196,法人教會,財團法人基督教高雄約珥靈糧堂,07-5504222,高雄市三民區鼎新路90巷9號,22.663117368955,120.32364915008,NP200,法人教會,,
290089077,法人教會,財團法人高雄市中華基督教和平浸信會,07-7618842,高雄市苓雅區四維二路一○一號,22.624004510744,120.32367975882,NP200,法人教會,,
290089076,法人教會,財團法人高雄基督教會,07-7510624,高雄市苓雅區安樂路五八號,22.634070489606,120.33363705505,NP200,法人教會,,
290089075,法人教會,財團法人基督教海埔教會,07-6993089,高雄市湖內區海埔里仁愛街48號,,,,,,
290089144,法人教會,財團法人基督教高雄聖經聖潔會,07-7912583,高雄市苓雅區中正二路139號6樓之4,22.630226409808,120.31505000627,NP200,法人教會,,
290089158,法人教會,財團法人高雄市苓雅基督教會,07-3341401,高雄市苓雅區中華四路二三四號,22.6185221694,120.30034269268,NP200,法人教會,,
290089165,法人教會,財團法人梓官天主堂,07-6177125,高雄市梓官區中崙路梓義路280號,22.761120986981,120.26799268097,NP200,法人教會,,
290089169,法人教會,財團法人山達基教會,07-2136110,高雄市前金區七賢二路329號9樓,22.630993847842,120.29004780274,NP200,法人教會,,
290089170,法人教會,財團法人基督教高雄聖經聖潔會,07-7912583,高雄市苓雅區中正二路139號6樓之4,22.630226409808,120.31505000627,NP200,法人教會,,
290089395,法人教會,財團法人中華基督教浸信宣道會武昌教會,07-3332345,高雄市苓雅區民權一路38號,22.619812075348,120.31387899953,NP200,法人教會,,
290089383,法人教會,財團法人台灣基督長老教會高雄中會,07-2261254,高雄市三民區山東街142號5樓,22.644276780309,120.31174947492,NP200,法人教會,,
290089419,法人教會,財團法人基督教高雄馬可樓教會,07-3837860,高雄市三民區澄清路531號,22.642292768831,120.34562247501,NP200,法人教會,,
290088683,法人教會,財團法人天主教聖十字堂,07-7813718,高雄市大寮區永芳村鳳林三陸478巷4號,22.605168317412,120.39641063714,NP200,法人教會,,
290088681,法人教會,財團法人鳳山市教會聚會所,07-7465481,高雄市鳳山區曹公路36巷1號,22.630137087014,120.35763033556,NP200,法人教會,,
290089401,法人教會,財團法人基督教高雄聖經潔會,07-7912583,高雄市苓雅區中正二路139號6樓,22.630226409974,120.31505004518,NP200,法人教會,,
290089403,法人教會,財團法人天主教味增爵會,06-2130786,高雄市苓雅區三多二路219號(102.7.24臺內民字第1020270315號函修正),22.61935454872,120.32177142009,NP200,法人教會,,
290089402,法人教會,財團法人基督教中華聖召會,07-3358603,高雄市苓雅區廣東二街五○巷十八號一樓,22.616881455747,120.3205602828,NP200,法人教會,,
290089380,法人教會,財團法人基督教改革宗長老會高雄信愛教會,07-3340356,高雄市苓雅區林森二路87號12樓,22.62098667561,120.30611841172,NP200,法人教會,,
290089423,法人教會,財團法人基督教建興教會,07-3829881,高雄市三民區建德路204巷1之2號2樓,22.644665928497,120.32336184949,NP200,法人教會,,
290089438,法人教會,財團法人基督教火車頭教會,07-2851185,高雄市三民區河北二路50之1號,22.637169642062,120.30003050283,NP200,法人教會,,
290089436,法人教會,財團法人台灣基督長老教會仁美教會,07-7319702,高雄市鳥松區介壽路仁美村14號,22.656208079876,120.39328542487,NP200,法人教會,,
290089433,法人教會,財團法人基督教主耶穌基督大豐教會,07-3905311,高雄市三民區建工路285號,22.653545072536,120.33240383653,NP200,法人教會,,
290089432,法人教會,財團法人台灣基督長老教會壽山中會,07-3120691,高雄市三民區山東街142號3樓,22.644276780309,120.31174947492,NP200,法人教會,,
290089451,法人教會,財團法人高雄市基督教會錫安堂,07-3155571,高雄市三民區九如二路366號五樓,22.641503962442,120.30197698496,NP200,法人教會,,
290089459,法人教會,財團法人基督教高雄聖經禮拜堂,07-3417761,高雄市三民區明賢街46號,22.662040254654,120.3124384353,NP200,法人教會,,
290089464,法人教會,財團法人台灣基督長老教會,07-2411551,高雄市三民區山東街142號4樓,22.644276780309,120.31174947492,NP200,法人教會,,
290089465,法人教會,財團法人基督教浸信宣道會三民教會,07-3118383,高雄市三民區大連街99巷1號,22.642789130716,120.30471524886,NP200,法人教會,,
290088709,法人教會,財團法人基督長老教會協和教會,07-6265499,高雄市岡山區大勇街後協里8號,22.789661864391,120.2834220431,NP200,法人教會,,
290089466,法人教會,財團法人台灣基督長老教會高雄宣教中心,07-3220669,高雄市三民區山東街142號4樓,22.644276780309,120.31174947492,NP200,法人教會,,
290088690,法人教會,財團法人燕巢長老教會,07-6161435,高雄市燕巢區南燕里中南路20-1號,22.792120027088,120.36428539225,NP200,法人教會,,
290088700,法人教會,財團法人五甲基督長老教會,07-8217553,高雄市鳳山區南進一街77號,22.590618019482,120.32860716034,NP200,法人教會,,
290088713,法人教會,財團法人台灣基督長老教會木柵教會,07-6681744,高雄市內門區木柵里44號,22.97645034348,120.46959458745,NP200,法人教會,,
290088729,法人教會,財團法人台灣基督教長老教會橋頭教會,07-6113856,高雄市橋頭區仕隆村（路）28,22.753680544061,120.31069401493,NP200,法人教會,,
290088734,法人教會,財團法人鳳屏基督長老教會,07-7013605,高雄市大寮區成功路後庄村22巷1號,22.636352569038,120.39169123327,NP200,法人教會,,
290088736,法人教會,財團法人台灣基督教長老教會路竹教會,07-6962344、6971717,高雄市路竹區大社路社南村90號,22.863435244125,120.26279272451,NP200,法人教會,,
290088954,法人教會,財團法人大社基督喜信會,07-3513907,高雄市大社區三民路觀音村234巷12號,22.72827699536,120.34776343998,NP200,法人教會,,
290089135,法人教會,財團法人救恩教會,07-5612914,高雄市田寮區崗北路南安村3號,22.874049093895,120.36045436136,NP200,法人教會,,
290089197,法人教會,財團法人基督小連教會,-,高雄市三民區大連街145巷23號,22.644178949219,120.30447962886,NP200,法人教會,,
290088796,法人教會,財團法人旗山基督長老教會,07-6612159,高雄市旗山區湄洲里中正路123號,22.88878513737,120.47963264403,NP200,法人教會,,
290088800,法人教會,財團法人天主教善牧堂,07-7429910,高雄市鳳山區勝利路市1號,22.625930493138,120.37343701375,NP200,法人教會,,
290088821,法人教會,財團法人仁武基督長老教會,07-3711531,高雄市仁武區仁信巷仁武村50號,22.703186776021,120.34904591266,NP200,法人教會,,
290088818,法人教會,財團法人美濃基督長老教會,07-6812204,高雄市美濃區祿興里中正路二段169巷3號,22.888056933973,120.5363445117,NP200,法人教會,,
290088817,法人教會,財團法人美濃浸信會,07-6819242,高雄市美濃區東門里民族路28號,22.898388061592,120.55092508644,NP200,法人教會,,
290088833,法人教會,財團法人九曲堂循理教會,07-6513710,高雄市大樹區湖底一巷11號,,,,,,
290088839,法人教會,財團法人岡山聖教會,07-6228442,高雄市岡山區大德一路96號,22.796838147202,120.30218623435,NP200,法人教會,,
290088849,法人教會,財團法人新約教會岡山教會,-0932951244,高雄市岡山區柳橋東路2巷1弄38號,22.790614092811,120.29239586078,NP200,法人教會,,
290088842,法人教會,高雄基督徒七賢路禮拜堂,07-2351622,高雄市新興區七賢一路467號,22.634226602119,120.30441869811,NP200,法人教會,,
290088830,法人教會,財團法人六龜天主教堂,07-6891022,高雄市六龜區義寶村大平路29號,,,,,,
290088870,法人教會,財團法人高雄市基督教浸信會,07-2377234,高雄市新興區中正三路102號,22.63148086344,120.30642983676,NP200,法人教會,,
290088889,法人教會,財團法人聖公會諸聖堂,07-6253143,高雄市岡山區介壽路5號,22.784632496902,120.28955585008,NP200,法人教會,,
290088898,法人教會,財團法人大津基督教會,07-0000000,高雄市六龜區頂濃路荖濃村49巷16-1號,23.08712718855,120.67981300555,NP200,法人教會,,
290088885,法人教會,基督長老會,-,高雄市大社區三民路451巷3號,22.729367945726,120.34501496043,NP200,法人教會,,
290088902,法人教會,財團法人基督長老教會大樹教會,07-6512025,高雄市大樹區中興北路羨腳村83號,22.692689704435,120.43263773838,NP200,法人教會,,
290089430,法人教會,財團法人台灣省台北縣基督教萬民長老教會,02-29600540,新北市板橋區中正路274號4樓,25.019851959538,121.45525804558,NP200,法人教會,,
290089411,法人教會,財團法人台灣省台北縣淡水鎮基督教淡水教會,02-26235186,新北市淡水區水源街１段122巷11弄13號4樓,25.171269247598,121.44797619437,NP200,法人教會,,
290089431,法人教會,財團法人台灣省台北縣基督教改革宗恒愛堂教會,02-29283636,新北市三重區中寮街24171號,25.059533313274,121.49205343055,NP200,法人教會,,
290089441,法人教會,財團法人台灣省台北縣基督教浮洲浸信會,02-22752800,新北市板橋區大觀路2段153巷45號,25.000825727004,121.44698448063,NP200,法人教會,,
290089440,法人教會,財團法人新北市新約教會板橋教會,02-29561122,新北市板橋區民族路37之2號五樓,25.009716800047,121.46251944503,NP200,法人教會,,
290089456,法人教會,財團法人台灣省台北縣板橋基督榮光教會,02-29519069,新北市板橋區成功路37號,25.017631383061,121.47502848538,NP200,法人教會,,
290089452,法人教會,財團法人台灣省台北縣基督教中華福音道路德會板橋和平堂,02-29688148,新北市板橋區民權路202巷17弄70號,25.016741207963,121.45812205829,NP200,法人教會,,
290089457,法人教會,財團法人台灣省台北縣天理教長泰教會,02-22518327,新北市板橋區莒光路200巷1號4樓,25.02212504286,121.47404623606,NP200,法人教會,,
290089462,法人教會,財團法人台灣省台北縣板橋市基督教會錫安堂,02-27181313,新北市板橋區館前東路72號地下室,25.007298667761,121.46141975885,NP200,法人教會,,
290089036,法人教會,財團法人新北市召會汐止會所,02-26418260,新北市汐止區大同路２段272巷14號,25.065804708661,121.6551536598,NP200,法人教會,,
290088742,法人教會,財團法人新北市基督徒麗景禮拜堂,02-26917228,新北市汐止區建成路56巷65號,25.073431713892,121.66356297854,NP200,法人教會,,
290088743,法人教會,財團法人台灣省臺北縣泰山基督教會美門堂,02-29094036,新北市泰山區明志路１段354號7樓,25.05822455735,121.4306857164,NP200,法人教會,,
290088746,法人教會,財團法人基督教長老會福音山教會,02-26622535,新北市深坑區萬順里福音山莊4號,,,,,,
290088750,法人教會,財團法人台灣省台北縣基督徒土城禮拜堂,02-22661367,新北市土城區學府路1段99巷11號1樓,24.987477000839,121.45669306309,NP200,法人教會,,
290088813,法人教會,財團法人中華基督教路德會信愛堂,02-29132763,新北市新店區北新路2段59巷1號,24.973068898488,121.54250509721,NP200,法人教會,,
290088777,法人教會,財團法人天主教瑪利亞仁慈傳教會,02-26625184轉205,新北市泰山區貴子路140號,25.040286719228,121.42876844596,NP200,法人教會,,
290088779,法人教會,財團法人台灣省台北縣新店市中華基督教青潭浸信會,02-22173724,新北市新店區北宜路２段267巷2號,24.953878179062,121.55462115871,NP200,法人教會,,
290088788,法人教會,財團法人台灣省台北縣基督教主耶穌之家,02-29021481,新北市新莊區中正路887之25號2樓,25.023572833118,121.41636148811,NP200,法人教會,,
290088797,法人教會,財團法人新北市基督教信行堂土庫教會,02-26625512,新北市深坑區松柏街16巷2號2樓,25.010696431415,121.63874219322,NP200,法人教會,,
290088812,法人教會,財團法人台灣省台北縣花園新城教會,02-26666217,新北市新店區花園新城橘園一路7號,,,,,,
290088807,法人教會,財團法人台灣省台北縣樹林中華基督教國語禮拜堂,02-26811031,新北市樹林區啟智街718號,,,,,,
290089031,法人教會,財團法人台北縣五股召會聚會所,02-22921875,新北市五股區工商路97號2樓,25.085300512465,121.43736717201,NP200,法人教會,,
290088891,法人教會,財團法人天主教主顧修女會,02-29062242,新北市泰山區新生路4號,25.044871749807,121.42823826231,NP200,法人教會,,
290088899,法人教會,財團法人臺灣基督教浸禮聖經會,02-29111977,新北市新店區北新路一段293號19樓之1,24.96754720442,121.54115826597,NP200,法人教會,,
290088909,法人教會,財團法人台灣省台北縣台北基督徒汐止禮拜堂,02-26922680,新北市汐止區明峰街120號2樓,25.070992291766,121.63012667569,NP200,法人教會,,
290088915,法人教會,財團法人台北縣烏來基督教會,02-00000000,新北市烏來區溫泉街82號4樓,24.861806715453,121.55070291734,NP200,法人教會,,
290089033,法人教會,財團法人聖保祿孝女會,02-29017342,新北市新莊區三泰路66號,25.039326538307,121.43124200617,NP200,法人教會,,
290088936,法人教會,財團法人台灣省台北縣樹林鎮基督教迴龍主恩教會,02-26757061,新北市樹林區龍興街14巷1號,25.016182413682,121.40259688326,NP200,法人教會,,
290088625,法人教會,財團法人大社基督長老教會,-,臺中市神岡區豐社路122巷28號,24.251841470352,120.69881030538,NP200,法人教會,,
290088643,法人教會,財團法人台灣基督長老教會忠孝路教會,04-22814752,臺中市東區建成路振興里738號,24.130771188839,120.6874501872,NP200,法人教會,,
290088645,法人教會,財團法人基督喜信會,04-22810248,臺中市東區建中街17號,24.12901867236,120.68552184815,NP200,法人教會,,
290088655,法人教會,財團法人中華基督教福音浸信會,"04-22318928 . 22335330",臺中市北區雙十路２段179號,24.157586556536,120.69058647623,NP200,法人教會,,
290088569,法人教會,財團法人臺灣聖教會,04-22295600,臺中市北區錦新30號12樓,24.147761019562,120.68061212553,NP200,法人教會,,
290088570,法人教會,財團法人新約教會台中教會,04-22033062,臺中市北區忠太東路99之4號5樓,24.164150279666,120.67036399384,NP200,法人教會,,
290088644,法人教會,財團法人基督教恩典會,04-22121284,臺中市東區進德路東勢里40巷6弄3號,24.146152073909,120.69198027584,NP200,法人教會,,
290088656,法人教會,財團法人台中市基督教信正長老會,04-23261030,臺中市北區西屯路一段391巷1號,24.161568768671,120.663948084,NP200,法人教會,,
290088361,法人教會,財團法人中華基督教福音信義會,04-23929413,臺中市太平區中山路２段311巷2弄6號,24.149906200721,120.73051725161,NP200,法人教會,,
290088378,法人教會,財團法人基督教浸禮聖經會太平會幕堂,04-22782330,臺中市太平區中平路順昌巷77弄2號,24.128274615384,120.71876078857,NP200,法人教會,,
290088358,法人教會,財團法人天主教主顧傳教修女會忠孝會院,04-22816879,臺中市東區忠孝路振興里197號,24.131817682648,120.68679947568,NP200,法人教會,,
290088420,法人教會,財團法人台灣台中聖教會,04-22233982,臺中市中區三民路二段42號,24.141133647841,120.67854299712,NP200,法人教會,,
290088434,法人教會,財團法人清水教會聚會所,04-26225344,臺中市清水區學園街31號,24.265820913877,120.57591243792,NP200,法人教會,,
290088470,法人教會,財團法人基督教正道福音神學中心,04-23710380,臺中市西區柳川東路二段21號2樓,24.131869200294,120.66321310899,NP200,法人教會,,
290088471,法人教會,財團法人台灣基督教門諾會,04-23719149,臺中市西區林森路34號,24.13592888756,120.6732815454,NP200,法人教會,,
290088522,法人教會,財團法人基督教為道浸信會,07-3531876,臺中市北區忠明路485巷23號,24.163715604802,120.67132413486,NP200,法人教會,,
290088527,法人教會,財團法人中華基督教台中建德浸信會,04-22815161,臺中市東區東橋里進德街200號,,,,,,
290088640,法人教會,財團法人基督教基督救恩之光教會,04--22362238,臺中市北區進化路428號5樓,24.156628131084,120.69455670195,NP200,法人教會,,
290088674,法人教會,財團法人基督教中國佈道會,04-22911175,臺中市北區中清路1段447號18樓之1,24.165396870219,120.67343631862,NP200,法人教會,,
290088686,法人教會,財團法人基督教浸禮聖經會台中會幕堂,04-22313341,臺中市北區永興街70號,24.160215676182,120.68253627255,NP200,法人教會,,
290088687,法人教會,財團法人基督教復臨安息日會台灣原住民教會,04-22013739轉10,臺中市北區中華路二段195號,24.151778315919,120.68169010342,NP200,法人教會,,
290088706,法人教會,財團法人天主教會臺中教區,04-22075678,臺中市北區德化街368號,24.162078393043,120.67951771811,NP200,法人教會,,
290088708,法人教會,財團法人中華基督教東勢浸信會,04-25879411,臺中市東勢區吉祥街10號,24.245244616717,120.84199654261,NP200,法人教會,,
290088726,法人教會,財團法人台中水湳基督長老教會,04-22911600,臺中市北屯區平德路115號,24.184104090575,120.67055340197,NP200,法人教會,,
290088735,法人教會,財團法人基督教台中國語禮拜堂,04-22255619,臺中市北區太平路71號,24.147364646588,120.68511646601,NP200,法人教會,,
290088741,法人教會,財團法人國際差傳協會,04-24227673,臺中市北屯區昌平路二段31巷12號,24.188863717889,120.68462322197,NP200,法人教會,,
290088755,法人教會,財團法人基督教沙鹿神召會,04-26365020,臺中市沙鹿區福至80巷26號,,,,,,
290088756,法人教會,財團法人台中市基督徒聚會,04-22030424,臺中市北區太原路二段23巷17號,24.164186492517,120.67501249946,NP200,法人教會,,
290088771,法人教會,財團法人天主教聖母聖心修女會,04-22974225,臺中市北區漢口路四段21號,24.167092164388,120.67425601317,NP200,法人教會,,
290088789,法人教會,財團法人中國天理教台灣省山名台灣佈道所,04-22817165,臺中市大里區福大路43巷7弄2號,24.121535959468,120.69420738505,NP200,法人教會,,
290088809,法人教會,財團法人台灣基督長老教會蒙恩教會,04-23800015,臺中市南屯區惠文路300號,24.14213696523,120.64305856203,NP200,法人教會,,
290088822,法人教會,財團法人台灣省國際宣教會,04-23754092,臺中市西區林森路36號7樓,24.136333614848,120.67254258397,NP200,法人教會,,
290088826,法人教會,財團法人基督教純福音教會台灣總會,04-23150625,臺中市西屯區何福里漢口路2段140號6樓,24.165634912024,120.66302541652,NP200,法人教會,,
290088828,法人教會,財團法人中華基督教台灣萬國兒童佈道團,04-26918065,臺中市大肚區遊園路一段87巷2弄48號,24.161063152992,120.57333107952,NP200,法人教會,,
290088829,法人教會,財團法人大甲基督教會錫安堂,04-26885146,臺中市大甲區光明路185之1號,24.344824855922,120.61952092691,NP200,法人教會,,
290088837,法人教會,財團法人台中基督的教會,04-22917883,臺中市北區陜西東三街41號,,,,,,
290088841,法人教會,財團法人臺灣省美北浸信宣道會,04-2339,"臺中市北屯區崇德路３段317巷124弄25號 (聯絡處：404北區郵政第55-123號信箱)",24.189061278607,120.68305186706,NP200,法人教會,,
290088846,法人教會,財團法人臺灣基督長老教會臺中柳原教會,04-22222749,臺中市中區興中街119號,24.146045214335,120.68079706888,NP200,法人教會,,
290088847,法人教會,財團法人基督教台中錫安堂,04-23215584,臺中市北區博館東街10巷13號,24.154069164969,120.66673384674,NP200,法人教會,,
290088857,法人教會,財團法人中華基督教恩光堂浸信會,04-22876653,臺中市南區國光路225號,24.127480696065,120.67908873228,NP200,法人教會,,
290088867,法人教會,財團法人台灣省基督教瑪禮遜協會,04-22973927,臺中市北屯區水湳路136-1號,24.188693183339,120.67912474945,NP200,法人教會,,
290088868,法人教會,財團法人台灣省台中市中華基督教貿易九村浸信會,04-24255546,臺中市北屯區貿易巷118號,,,,,,
290088869,法人教會,財團法人台灣省基督教馬禮遜協會,04-22921171,臺中市北屯區水湳路136之1號,24.188693183339,120.67912474945,NP200,法人教會,,
290088876,法人教會,財團法人基督教導航會,04-26313714,臺中市龍井區國際街154巷1號,24.187051096557,120.59593575588,NP200,法人教會,,
290088886,法人教會,財團法人台灣聖教會,04-23756829#11,臺中市北區錦新街30號12樓,24.153034642212,120.68775967526,NP200,法人教會,,
290088888,法人教會,財團法人真耶穌教會台灣總會原住民教會,04-22436960#1272,"臺中市東勢區中正路119號 (聯絡處：40673松竹路2段180號)",24.24912157193,120.8299255935,NP200,法人教會,,
290088900,法人教會,財團法人基督教台中伊甸園教會,04-23921172,臺中市太平區中山路２段412之10號4樓,24.150859410756,120.72675007659,NP200,法人教會,,
290088904,法人教會,財團法人台中縣基督教石城神召會,04-25878229,臺中市東勢區石城街竹山巷3號,24.287114671508,120.79312438358,NP200,法人教會,,
290088908,法人教會,財團法人台灣省台中市中華基督教天行佈道團,04-25389502,臺中市北屯區昌平路二段31巷53號,24.188946670778,120.68500364268,NP200,法人教會,,
290088930,法人教會,財團法人台中基督徒聚會處,04-22315274,臺中市北區健行路352巷1弄2號,24.159840858948,120.68305207559,NP200,法人教會,,
290088926,法人教會,財團法人基督教黎明啟傳道會,04-22950838,臺中市北屯區陳平路65巷83號,24.187061006094,120.6683983628,NP200,法人教會,,
290088948,法人教會,財團法人基督教喜信會,04-22802151,臺中市東區建中街東興里17號,24.12901867236,120.68552184815,NP200,法人教會,,
290088958,法人教會,財團法人基督教恩惠堂,04-23117003,臺中市西屯區惠來里智惠街37號,24.167345460825,120.6467651698,NP200,法人教會,,
290088953,法人教會,財團法人台灣基督長老教會台中市十字園,04-22227683,臺中市中區民族路59號,24.138260923659,120.68081462643,NP200,法人教會,,
290088969,法人教會,財團法人台灣省台中市台中基督徒模範村禮拜堂,04-23016257,臺中市西區模範街2巷2號,24.147050172195,120.66676898469,NP200,法人教會,,
290088981,法人教會,財團法人基督教更生團契,04-26916081,臺中市梧棲區文明街326巷41號,24.241510013028,120.55147482615,NP200,法人教會,,
290088988,法人教會,財團法人台灣省台中市中華基督教行道會,04-24514409,臺中市西屯區逢甲里西屯路2段282巷50號,24.177152478438,120.64470707393,NP200,法人教會,,
290089006,法人教會,財團法人台灣省台中市召會,04-22224283,臺中市南區復興路三段479號,24.134188798973,120.68138144182,NP200,法人教會,,
290089001,法人教會,財團法人惠來里基督徒聚會處,04-23113896,臺中市西屯區惠來里西屯路2段208巷3號,24.169175631971,120.64987558371,NP200,法人教會,,
290089009,法人教會,財團法人基督教豐原神召會主恩堂,04-00000000,臺中市豐原區育英路177巷18號,24.239916759113,120.71594481145,NP200,法人教會,,
290089023,法人教會,財團法人臺灣省臺中縣磐頂教會,04-26312522,臺中市龍井區遊園南路361巷15號,24.177447525318,120.58348205783,NP200,法人教會,,
290089028,法人教會,財團法人中華神的教會,04-22333729,臺中市北區崇德路一段548號7樓,24.155292412816,120.68625930741,NP200,法人教會,,
290089029,法人教會,財團法人中華基督教浸信會華恩堂,04-22050129,臺中市北區中華路二段一三二號,24.152957716759,120.68277079514,NP200,法人教會,,
290089040,法人教會,財團法人基督教臺中宣教教會,04-26526300,臺中市龍井區新興路25巷1弄4號,24.179484275493,120.58982218816,NP200,法人教會,,
290089080,法人教會,財團法人中華基督教浸信宣道會西台中教會,04-23126966,臺中市西屯區何福里重慶路252號,24.169466457319,120.66110553162,NP200,法人教會,,
290089052,法人教會,財團法人中華基督教上石里浸信會,04-24514593,臺中市西屯區逢福里慶和街91號,24.175684969985,120.64650516491,NP200,法人教會,,
290089051,法人教會,財團法人台中市基督教雷虎禮拜堂,04-22929843,臺中市北屯區雷中街15號,24.180460426267,120.66776326889,NP200,法人教會,,
290089054,法人教會,財團法人基督教全備福音中部教會,04-23868939,臺中市南屯區春社東巷2弄3號,,,,,,
290089066,法人教會,財團法人中華基督教台中市活水浸信會,04-24737528,臺中市南屯區文心南五路321號,24.131898105967,120.64451991912,NP200,法人教會,,
290089112,法人教會,財團法人亞太基督教聯盟傳教會,04-22265303,臺中市北區大雅路626巷22之3號,24.16192921103,120.67614835022,NP200,法人教會,,
290089115,法人教會,財團法人中華基督教北屯浸信會,04-22317366,臺中市北屯區興安路一段18號,24.16562692993,120.69147757888,NP200,法人教會,,
290089132,法人教會,財團法人基督教東勢神召會,04-25873630,臺中市東勢區勢林街232巷32號,24.260332731198,120.82808567747,NP200,法人教會,,
290089142,法人教會,財團法人台灣省台中市天理教東肥台中市佈教所,04-23715414,臺中市南區三民西路277號,24.12971901087,120.65989600983,NP200,法人教會,,
290089157,法人教會,財團法人中華基督教福音信義會,04-23917748,"臺中市豐原區中正路市543號4樓 (聯絡處：41199臺中郵政信箱43-224號)",24.250298551611,120.70978813519,NP200,法人教會,,
290089164,法人教會,財團法人基督教台中東海靈糧堂,04-23585645,臺中市龍井區遊園北路391巷46號,24.192355651611,120.58847304855,NP200,法人教會,,
290089385,法人教會,財團法人台灣省台中縣基督教聖光教會,04-25340437,臺中市潭子區潭子勝利13街35號,,,,,,
290089213,法人教會,財團法人台灣基督長老教會台中中會,04-22872477,臺中市南區仁和路121巷11號,24.126803723244,120.6800750071,NP200,法人教會,,
290089150,法人教會,財團法人中華基督教浸信會恩典堂,-,臺中市南區美和街131號,24.122321811144,120.66668378528,NP200,法人教會,,
290089248,法人教會,財團法人台灣省台中縣基督教理想國浸信會,04-26317821,臺中市龍井區東海里藝術北街23號,24.188270359369,120.59388161189,NP200,法人教會,,
290088735,法人教會,財團法人基督教台中國語禮拜堂,04-22255619,臺中市北區太平路71號,24.147364646588,120.68511646601,NP200,法人教會,,
290088741,法人教會,財團法人國際差傳協會,04-24227673,臺中市北屯區昌平路二段31巷12號,24.188863717889,120.68462322197,NP200,法人教會,,
290088625,法人教會,財團法人大社基督長老教會,-,臺中市神岡區豐社路122巷28號,24.251841470352,120.69881030538,NP200,法人教會,,
290088686,法人教會,財團法人基督教浸禮聖經會台中會幕堂,04-22313341,臺中市北區永興街70號,24.160215676182,120.68253627255,NP200,法人教會,,
290089054,法人教會,財團法人基督教全備福音中部教會,04-23868939,臺中市南屯區春社東巷2弄3號,,,,,,
290088755,法人教會,財團法人基督教沙鹿神召會,04-26365020,臺中市沙鹿區福至80巷26號,,,,,,
290088756,法人教會,財團法人台中市基督徒聚會,04-22030424,臺中市北區太原路二段23巷17號,24.164186492517,120.67501249946,NP200,法人教會,,
290088771,法人教會,財團法人天主教聖母聖心修女會,04-22974225,臺中市北區漢口路四段21號,24.167092164388,120.67425601317,NP200,法人教會,,
290088378,法人教會,財團法人基督教浸禮聖經會太平會幕堂,04-22782330,臺中市太平區中平路順昌巷77弄2號,24.128274615384,120.71876078857,NP200,法人教會,,
290088789,法人教會,財團法人中國天理教台灣省山名台灣佈道所,04-22817165,臺中市大里區福大路43巷7弄2號,24.121535959468,120.69420738505,NP200,法人教會,,
290089359,法人教會,財團法人臺中基督徒榮中禮拜堂,04-24612590,臺中市西屯區福林里西屯路3段宏福二巷18號,24.187741785428,120.6173071813,NP200,法人教會,,
290088809,法人教會,財團法人台灣基督長老教會蒙恩教會,04-23800015,臺中市南屯區惠文路300號,24.14213696523,120.64305856203,NP200,法人教會,,
290088828,法人教會,財團法人中華基督教台灣萬國兒童佈道團,04-26918065,臺中市大肚區遊園路一段87巷2弄48號,24.161063152992,120.57333107952,NP200,法人教會,,
290088822,法人教會,財團法人台灣省國際宣教會,04-23754092,臺中市西區林森路36號7樓,24.136333614848,120.67254258397,NP200,法人教會,,
290088826,法人教會,財團法人基督教純福音教會台灣總會,04-23150625,臺中市西屯區何福里漢口路2段140號6樓,24.165634912024,120.66302541652,NP200,法人教會,,
290088829,法人教會,財團法人大甲基督教會錫安堂,04-26885146,臺中市大甲區光明路185之1號,24.344824855922,120.61952092691,NP200,法人教會,,
290089052,法人教會,財團法人中華基督教上石里浸信會,04-24514593,臺中市西屯區逢福里慶和街91號,24.175684969985,120.64650516491,NP200,法人教會,,
290088837,法人教會,財團法人台中基督的教會,04-22917883,臺中市北區陜西東三街41號,,,,,,
290089370,法人教會,財團法人真耶穌教會台灣總會,04-22436960,臺中市北屯區松竹路松竹路二段180號,24.183411815253,120.69583780418,NP200,法人教會,,
290088841,法人教會,財團法人臺灣省美北浸信宣道會,04-2339,"臺中市北屯區崇德路３段317巷124弄25號 (聯絡處：404北區郵政第55-123號信箱)",24.189061278607,120.68305186706,NP200,法人教會,,
290088846,法人教會,財團法人臺灣基督長老教會臺中柳原教會,04-22222749,臺中市中區興中街119號,24.146045214335,120.68079706888,NP200,法人教會,,
290088847,法人教會,財團法人基督教台中錫安堂,04-23215584,臺中市北區博館東街10巷13號,24.154069164969,120.66673384674,NP200,法人教會,,
290089385,法人教會,財團法人台灣省台中縣基督教聖光教會,04-25340437,臺中市潭子區潭子勝利13街35號,,,,,,
290089388,法人教會,財團法人中華基督教台中浸信會,04-22223331,臺中市西區自由路一段99號,24.137490009166,120.67918186521,NP200,法人教會,,
290089386,法人教會,財團法人天主教聖道明瑪利諾女修會,04-23727418,臺中市西區五權路2-192巷6號3樓之1,24.137677495951,120.66507220627,NP200,法人教會,,
290089387,法人教會,財團法人基督教精誠教會,04-24731131,臺中市西區忠明南路303號8樓之5,24.145743407242,120.65769064117,NP200,法人教會,,
290089394,法人教會,財團法人中華基督教豐原浸信會,04-25243497,臺中市豐原區豐社路64巷62號,24.252169434128,120.7115232871,NP200,法人教會,,
290088857,法人教會,財團法人中華基督教恩光堂浸信會,04-22876653,臺中市南區國光路225號,24.127480696065,120.67908873228,NP200,法人教會,,
290088766,法人教會,財團法人台灣省台南市天主教仁愛修女會,02-28740738,臺南市南區金華路一段530巷19號,22.974039234729,120.19192555312,NP200,法人教會,,
290088775,法人教會,財團法人二重港仁安宮,06-06-7862013,臺南市北門區二重港仁里村28號,,,,,,
290088751,法人教會,財團法人號角611靈糧堂,06-2962066,臺南市中西區西湖街216號,23.003701053741,120.18269481592,NP200,法人教會,,
290088784,法人教會,財團法人台南市安樂聖教會,06-2134646,臺南市中西區永福路一段107號,22.984200338683,120.19994178429,NP200,法人教會,,
290088803,法人教會,財團法人台灣省台南市豐生基督教會,06-2812113,臺南市北區公園路六甲里591之46號10樓之7,23.013197992291,120.21172140872,NP200,法人教會,,
290088862,法人教會,財團法人台灣省台南縣新營市教會聚會所,06-6332334,臺南市新營區開元路31巷7號,23.308435388734,120.3231461386,NP200,法人教會,,
290088861,法人教會,財團法人台灣省台南縣新營市新生基督長老教會,09-37495925,臺南市新營區仁愛街民權里38號,23.306280358343,120.31350191721,NP200,法人教會,,
290088435,法人教會,財團法人台灣基督長老教會南神神學院基金會,06-2371291#106,臺南市東區東門路１段117號,22.988295598844,120.21396095597,NP200,法人教會,,
290088711,法人教會,財團法人台灣省台南市基督教浸信會,06-2511543,臺南市北區公園路興北里540號,23.006922225206,120.21032411196,NP200,法人教會,,
290088712,法人教會,財團法人中國基督教靈糧世界佈道會台南靈糧堂,06-2749760,臺南市東區東興路31巷10之3號,22.990970778865,120.22813957427,NP200,法人教會,,
290088753,法人教會,財團法人基督教台南生命突破中心,06-2614329,臺南市東區樹林街一段176號,22.986662864961,120.21190835555,NP200,法人教會,,
290088754,法人教會,財團法人台南市衛國街基督教會,06-2356332,臺南市東區林森路２段190巷18弄1號,22.988942682436,120.22519588265,NP200,法人教會,,
290089074,法人教會,財團法人基督教復興會,06-6326911,臺南市新營區中華路136號,23.30479099668,120.3067377494,NP200,法人教會,,
290088582,法人教會,財團法人台灣基督長老教會台南後甲教會,06-2682547,臺南市東區裕農路668巷47號,22.986963368964,120.23694010157,NP200,法人教會,,
290088598,法人教會,財團法人基督耶穌救世復興宣導會,06-2583540,臺南市中西區中和街104號,23.001052106722,120.19162134034,NP200,法人教會,,
290088606,法人教會,財團法人基督教磐石之家,06-3126747,臺南市永康區復國一路240號,23.007312131027,120.24660916383,NP200,法人教會,,
290088652,法人教會,財團法人台灣省台南市天主教鮑思高慈幼會,06-3318223,臺南市東區裕農3街1號,,,,,,
290088638,法人教會,財團法人天主教聖母無原罪方濟傳教修女會,06-2740126轉234,臺南市北區北園街87巷64號,23.014791415458,120.22129386228,NP200,法人教會,,
290088620,法人教會,財團法人虹橋傳道會,06-2970882,臺南市東區林森路１段149號21樓之8,22.982425034014,120.21480530466,NP200,法人教會,,
290088619,法人教會,財團法人基督教榮主教會,06-2137858,臺南市東區府連路152號,22.98475193787,120.21162479826,NP200,法人教會,,
290088651,法人教會,財團法人台灣省台南市臨安基督教會,06-2586893,臺南市中西區中和街12號,22.999395046019,120.18970572775,NP200,法人教會,,
290088650,法人教會,財團法人台灣省台南市教會聚會所,06-3319191,臺南市中西區青年路123號,22.992101548748,120.20870264319,NP200,法人教會,,
290088671,法人教會,財團法人台南市基督教會福音堂,06-2370108,臺南市東區莊敬路207號,22.997112018835,120.23297332973,NP200,法人教會,,
290088670,法人教會,財團法人台灣基督長老教會台南大光教會,06-2519670,臺南市北區長榮五段378巷25號,,,,,,
290088667,法人教會,財團法人台灣基督長老教會加利利宣教中心,06-5743941,臺南市中西區民族路二段76之10號15樓,22.994971849602,120.20849981133,NP200,法人教會,,
290088907,法人教會,財團法人台灣省桃園縣基督教中壢播道會,03-4925914,桃園市平鎮區環南路301巷12弄6號,24.9495752132,121.207648852,NP200,法人教會,,
290089102,法人教會,財團法人台灣省桃園縣福音信義會,03-3794540,桃園市桃園區大豐路222號,24.980487691346,121.3135598286,NP200,法人教會,,
290089109,法人教會,財團法人中壢教會聚會所,03-4257191,桃園市中壢區中平路88巷3號,24.955527517603,121.2239539305,NP200,法人教會,,
290088998,法人教會,財團法人台灣省桃園縣基督恩典宣教團楊梅大台北世外桃源基督教會,03-4826026,桃園市楊梅區裕成路132號,24.901206724754,121.16228217417,NP200,法人教會,,
290089125,法人教會,財團法人基督教聖經聖潔會,03-4586517,桃園市中壢區福州路258、260號6、7樓,24.951954811073,121.23288603447,NP200,法人教會,,
290089124,法人教會,財團法人桃園縣基督教聖經教會,03-4532632,桃園市中壢區新生路２段421號,24.985401728845,121.22140799824,NP200,法人教會,,
290089084,法人教會,財團法人台灣省桃園縣中華福音道路德會仁愛堂區會,03-3625539,桃園市桃園區勇一街25號,24.994736067906,121.30287052207,NP200,法人教會,,
290089154,法人教會,財團法人中國基督教靈糧世界佈道會桃園市府靈糧堂,03-3365919,桃園市桃園區縣府路332之4號5樓,24.992222981979,121.30060533203,NP200,法人教會,,
290089173,法人教會,財團法人台灣省桃園縣龍岡清真寺,03-3655825,桃園市中壢區龍東路216號,24.930060612823,121.25367459288,NP200,法人教會,,
290089160,法人教會,財團法人台灣省桃園縣龍潭基督徒聚會處,03-4826026,桃園市龍潭區干城路120號,24.871039965369,121.20835211469,NP200,法人教會,,
290089166,法人教會,財團法人沙爾德聖保祿修女會,03-3613141,桃園市桃園區建新街123號,24.982115030241,121.31250682676,NP200,法人教會,,
290089172,法人教會,財團法人中華基督教浸信會迦南堂,03-4364906,桃園市中壢區前龍街21號,24.929645216884,121.25348811534,NP200,法人教會,,
290089175,法人教會,財團法人台灣省桃園縣基督教石門浸信會,03-4712542,桃園市龍潭區文化路87號,24.8397543133,121.24025674328,NP200,法人教會,,
290089194,法人教會,財團法人天主教嘉諾撒仁愛修女會,03-4923212,桃園市中壢區中央西路２段124號,24.958718663995,121.21462777272,NP200,法人教會,,
290089205,法人教會,財團法人台灣省桃園縣桃園市中華基督教浸信會溢恩堂,03-3353106,桃園市桃園區東國街55號,24.995337177006,121.31432925332,NP200,法人教會,,
290089208,法人教會,財團法人桃園縣龍潭逸園基督教會,03-4700345,桃園市龍潭區建國路75巷12弄2號,24.842545955341,121.23415579797,NP200,法人教會,,
290089234,法人教會,財團法人天主教麒田教會,03-3703517,桃園市桃園區中山路956巷91弄5號,24.990584323838,121.2849447845,NP200,法人教會,,
290089250,法人教會,財團法人台灣省桃園縣桃園基督的教會,03-3334825,桃園市桃園區三民路三段284、286號5樓,25.002003430423,121.31500638145,NP200,法人教會,,
290089068,法人教會,財團法人台灣省桃園縣八德教會聚會所,03-3628390,桃園市八德區永祥街大智里22號,24.962250113037,121.29924981463,NP200,法人教會,,
290089274,法人教會,財團法人臺灣省桃園縣基督教內壢得勝靈糧堂,03-4613461,桃園市中壢區興農路110巷6號3樓,24.974095038883,121.25789793078,NP200,法人教會,,
290089275,法人教會,財團法人中國基督教靈糧世界佈道會中壢靈糧堂,03-4510365,桃園市中壢區延平路98號2樓,24.963598592056,121.23043775792,NP200,法人教會,,
290089281,法人教會,財團法人基督教中壢錫安堂,03-4566747,桃園市中壢區協同街112號B1,24.955571875818,121.23739123734,NP200,法人教會,,
290089333,法人教會,財團法人台灣省桃園縣讓德祭祀公業,03-4981716,桃園市中壢區山下山東里97-5號,,,,,,
290089300,法人教會,財團法人基督教台灣省桃園縣大湳禮拜堂,03-3661430,桃園市八德區福國北街大同村200號,24.962720136731,121.29649694109,NP200,法人教會,,
290089318,法人教會,財團法人台灣省桃園縣莊和睦嘗,03-4594336,桃園市中壢區後寮里81號,24.943926124164,121.24459247501,NP200,法人教會,,
290089308,法人教會,財團法人台灣省桃園縣龍潭教會聚會所,03-4173572,桃園市龍潭區文化路佳安村1號,24.837154466329,121.24030821862,NP200,法人教會,,
290089064,法人教會,財團法人桃園縣楊梅鎮天主教盧森堡普慈方濟各會,03-4782040,桃園市楊梅區梅山西街89號,24.911287876358,121.14450094309,NP200,法人教會,,
290089341,法人教會,財團法人台灣省桃園縣楊梅教會聚會所,03-4756153,桃園市楊梅區金德路130號,24.918326829199,121.14653781855,NP200,法人教會,,
290088957,法人教會,財團法人基督教改革宗伯特利堂,03-3811065,桃園市大園區大牛稠大海里6鄰18之36號,,,,,,
290089374,法人教會,財團法人新約教會桃園教會,03-3252603,桃園市桃園區大業路２段58號7樓,25.004720561978,121.31764911937,NP200,法人教會,,
290089398,法人教會,財團法人台灣省桃園縣基督教中宣拓荒宣教聯會,03-4793207,"桃園市中壢區內厝子內厝里2 鄰17之6 號",,,,,,
290089101,法人教會,財團法人台灣省桃園縣基督教新歌教會,03-3357581,桃園市桃園區國華街2號,24.999183673631,121.31965137439,NP200,法人教會,,
290089382,法人教會,財團法人台灣省桃園縣簡澤清公祭祀公業,03-3298655,桃園市龜山區自強東路237號,24.996898113264,121.3451194932,NP200,法人教會,,
290089405,法人教會,財團法人台灣聖民教會,03-4808881,桃園市龍潭區百年五街47號,24.880194428614,121.2102688276,NP200,法人教會,,
290089412,法人教會,財團法人桃園縣鄒沐宗祭祀公業,03-2807843,桃園市中壢區環西路２段411號宗祀大樓4樓,24.965727244901,121.21587265889,NP200,法人教會,,
290089417,法人教會,財團法人台灣省桃園縣耶蘇教會堂,-,桃園市龍潭區東龍路220號,24.864628560555,121.21428194721,NP200,法人教會,,
290089418,法人教會,財團法人桃園縣基督教浸信會百年教會,03-4932306,桃園市龍潭區百年路49號,24.878471324003,121.20944623176,NP200,法人教會,,
290089437,法人教會,財團法人廣東高雷會館,03-4584914,桃園市中壢區龍泉街67號,24.934392496038,121.23284188933,NP200,法人教會,,
290088984,法人教會,財團法人台灣省桃園縣基督徒聚會處,03-4823543,桃園市楊梅區文化街177號,24.91247163862,121.18398271611,NP200,法人教會,,
290089079,法人教會,財團法人台灣省桃園縣中華基督教埔心浸信會,03-4526547,桃園市楊梅區埔心里漢昌街15號,,,,,,
290089458,法人教會,財團法人台灣省桃園縣翁元乾嘗祭祀公業,03-4791210,桃園市龍潭區中央街180巷8號,24.882330707265,121.20471286011,NP200,法人教會,,
290089463,法人教會,財團法人台灣省桃園縣基督教石門水庫教會,03-4711991,桃園市龍潭區11份65-1號,24.882677551256,121.24374204221,NP200,法人教會,,
290088637,法人教會,財團法人台灣省桃園縣基督教神召會山地區議會,03-3803680,桃園市大溪區廟前仁愛里1至31號,24.882314098218,121.28965912702,NP200,法人教會,,
290088678,法人教會,財團法人台灣省桃園縣林姓九牧德門文進親族會,-,桃園市蘆竹區南竹路22號,25.047665185887,121.29287680013,NP200,法人教會,,
290088398,法人教會,財團法人台灣省桃園縣大溪鎮召會聚會所,03-3078012,桃園市大溪區仁善街100號2樓,24.909120537869,121.28410657112,NP200,法人教會,,
290088446,法人教會,財團法人台灣省桃園縣姜世良祭祀公業基金會,03-3383558,桃園市新屋區社子村番婆炆5號,24.956273295468,121.09117796062,NP200,法人教會,,
290088562,法人教會,財團法人台灣桃園縣陳氏百公祭祀公業,03-4948811,桃園市新屋區民族路６段頭洲村685巷17號,24.958108716092,121.16538992357,NP200,法人教會,,
290088610,法人教會,財團法人台灣省桃園縣莊朝取祭祀公業,03-3385533,桃園市蘆竹區南崁後街南崁村4-1號,25.047831170264,121.29490758572,NP200,法人教會,,
290088616,法人教會,財團法人台灣省桃園縣景連公祭祀公業基金會,03-4913289,桃園市新屋區石磊村34號,24.997974685241,121.07936474551,NP200,法人教會,,
290088635,法人教會,財團法人東海堂徐氏勤深公派下祭祀公業,02-27945789,桃園市新屋區中華路243之4號,24.972005123966,121.10744950643,NP200,法人教會,,
290088669,法人教會,財團法人台灣省桃園縣基督教懷恩教堂,03-3886673,桃園市大溪區介壽路1267巷55號,24.900476776069,121.2854032281,NP200,法人教會,,
290088682,法人教會,財團法人桃園縣大溪鎮員樹林基督教會,03-3805864,桃園市大溪區三元二街一弄90號,24.881698023806,121.2694938318,NP200,法人教會,,
290088720,法人教會,財團法人基督教世界歸主教會,03-3135290,桃園市大園區大仁46號3樓,25.078138274681,121.25767454575,NP200,法人教會,,
290088721,法人教會,財團法人桃園縣大園鄉召會聚會所,03-3811380,桃園市大園區大牛稠大海村8鄰3之17號,,,,,,
290088737,法人教會,財團法人吳從子旺公祭祀公業,03-4785560,桃園市楊梅區楊新路63巷51號,24.912527103718,121.14637375675,NP200,法人教會,,
290088792,法人教會,財團法人中華基督教長老會桃園教會,03-4505697,桃園市平鎮區平東路239巷120弄11號,24.912677637976,121.24851387132,NP200,法人教會,,
290088851,法人教會,財團法人台灣省新約教會楊梅教會,03-4786725,桃園市楊梅區環南路332號,24.904873964365,121.14327655876,NP200,法人教會,,
290088855,法人教會,財團法人台灣省桃園縣中壢徐時偉公嘗,-0912134430,桃園市八德區宵裡村6號,,,,,,
290088860,法人教會,財團法人桃園教會聚會所,03-3322602,桃園市桃園區大同路200巷16號,24.988760730387,121.30627351928,NP200,法人教會,,
290089092,法人教會,財團法人徐子貴祭祀公業,03-4733319,桃園市觀音區新坡觀音村下25號,25.042965279569,121.13830989542,NP200,法人教會,,
290089064,法人教會,財團法人桃園縣楊梅鎮天主教盧森堡普慈方濟各會,03-4782040,桃園市楊梅區梅山西街89號,24.911287876358,121.14450094309,NP200,法人教會,,
290089068,法人教會,財團法人台灣省桃園縣八德教會聚會所,03-3628390,桃園市八德區永祥街大智里22號,24.962250113037,121.29924981463,NP200,法人教會,,
290089079,法人教會,財團法人台灣省桃園縣中華基督教埔心浸信會,03-4526547,桃園市楊梅區埔心里漢昌街15號,,,,,,
290089085,法人教會,財團法人台灣省基督長老教會桃園教會,03-3324063,桃園市桃園區民生路208號6樓,24.994205884094,121.31308824487,NP200,法人教會,,
290089084,法人教會,財團法人台灣省桃園縣中華福音道路德會仁愛堂區會,03-3625539,桃園市桃園區勇一街25號,24.994736067906,121.30287052207,NP200,法人教會,,
290089091,法人教會,財團法人桃園基督徒中壢禮拜堂,03-4611001,桃園市中壢區中華路一段859號3樓,24.967175374616,121.24531761185,NP200,法人教會,,
290089102,法人教會,財團法人台灣省桃園縣福音信義會,03-3794540,桃園市桃園區大豐路222號,24.980487691346,121.3135598286,NP200,法人教會,,
290089101,法人教會,財團法人台灣省桃園縣基督教新歌教會,03-3357581,桃園市桃園區國華街2號,24.999183673631,121.31965137439,NP200,法人教會,,
290089109,法人教會,財團法人中壢教會聚會所,03-4257191,桃園市中壢區中平路88巷3號,24.955527517603,121.2239539305,NP200,法人教會,,
290089124,法人教會,財團法人桃園縣基督教聖經教會,03-4532632,桃園市中壢區新生路２段421號,24.985401728845,121.22140799824,NP200,法人教會,,
290089125,法人教會,財團法人基督教聖經聖潔會,03-4586517,桃園市中壢區福州路258、260號6、7樓,24.951954811073,121.23288603447,NP200,法人教會,,
290089154,法人教會,財團法人中國基督教靈糧世界佈道會桃園市府靈糧堂,03-3365919,桃園市桃園區縣府路332之4號5樓,24.992222981979,121.30060533203,NP200,法人教會,,
290089160,法人教會,財團法人台灣省桃園縣龍潭基督徒聚會處,03-4826026,桃園市龍潭區干城路120號,24.871039965369,121.20835211469,NP200,法人教會,,
290089166,法人教會,財團法人沙爾德聖保祿修女會,03-3613141,桃園市桃園區建新街123號,24.982115030241,121.31250682676,NP200,法人教會,,
290089173,法人教會,財團法人台灣省桃園縣龍岡清真寺,03-3655825,桃園市中壢區龍東路216號,24.930060612823,121.25367459288,NP200,法人教會,,
290089172,法人教會,財團法人中華基督教浸信會迦南堂,03-4364906,桃園市中壢區前龍街21號,24.929645216884,121.25348811534,NP200,法人教會,,
290089205,法人教會,財團法人台灣省桃園縣桃園市中華基督教浸信會溢恩堂,03-3353106,桃園市桃園區東國街55號,24.995337177006,121.31432925332,NP200,法人教會,,
290089175,法人教會,財團法人台灣省桃園縣基督教石門浸信會,03-4712542,桃園市龍潭區文化路87號,24.8397543133,121.24025674328,NP200,法人教會,,
290089194,法人教會,財團法人天主教嘉諾撒仁愛修女會,03-4923212,桃園市中壢區中央西路２段124號,24.958718663995,121.21462777272,NP200,法人教會,,
290088937,法人教會,財團法人中華基督教平鎮浸信會,03-4920201,桃園市平鎮區廣泰路303號,24.942531074179,121.20529823406,NP200,法人教會,,
290088957,法人教會,財團法人基督教改革宗伯特利堂,03-3811065,桃園市大園區大牛稠大海里6鄰18之36號,,,,,,
290088984,法人教會,財團法人台灣省桃園縣基督徒聚會處,03-4823543,桃園市楊梅區文化街177號,24.91247163862,121.18398271611,NP200,法人教會,,
290088998,法人教會,財團法人台灣省桃園縣基督恩典宣教團楊梅大台北世外桃源基督教會,03-4826026,桃園市楊梅區裕成路132號,24.901206724754,121.16228217417,NP200,法人教會,,
290089007,法人教會,財團法人台灣省桃園縣中國基督教靈糧世界佈道會桃園靈糧堂,03-3569317,桃園市桃園區中正路1067號5樓,25.016066973823,121.29827557522,NP200,法人教會,,
290089044,法人教會,財團法人台灣桃園縣宋新恩公祭祀公業,03-4250520,桃園市中壢區元化路66號,24.962698940268,121.22117302278,NP200,法人教會,,
290089017,法人教會,財團法人台灣省桃園縣宋富麟公祭祀公業,-,桃園市平鎮區延平路３段104巷17號,24.941706936057,121.20367113026,NP200,法人教會,,
290089027,法人教會,財團法人台灣省桃園縣中華基督教中壢浸信會,03-4910506,桃園市中壢區民族路53號,24.955706926667,121.21393787769,NP200,法人教會,,
290089041,法人教會,財團法人台灣省桃園縣台灣基督長老教會迦南教會,03-3328555,桃園市桃園區中華路49號,24.990788212999,121.31078718031,NP200,法人教會,,
290089064,法人教會,財團法人桃園縣楊梅鎮天主教盧森堡普慈方濟各會,03-4782040,桃園市楊梅區梅山西街89號,24.911287876358,121.14450094309,NP200,法人教會,,
290088678,法人教會,財團法人台灣省桃園縣林姓九牧德門文進親族會,-,桃園市蘆竹區南竹路22號,25.047665185887,121.29287680013,NP200,法人教會,,
290089068,法人教會,財團法人台灣省桃園縣八德教會聚會所,03-3628390,桃園市八德區永祥街大智里22號,24.962250113037,121.29924981463,NP200,法人教會,,
290089079,法人教會,財團法人台灣省桃園縣中華基督教埔心浸信會,03-4526547,桃園市楊梅區埔心里漢昌街15號,,,,,,
290089085,法人教會,財團法人台灣省基督長老教會桃園教會,03-3324063,桃園市桃園區民生路208號6樓,24.994205884094,121.31308824487,NP200,法人教會,,
290089084,法人教會,財團法人台灣省桃園縣中華福音道路德會仁愛堂區會,03-3625539,桃園市桃園區勇一街25號,24.994736067906,121.30287052207,NP200,法人教會,,
290088398,法人教會,財團法人台灣省桃園縣大溪鎮召會聚會所,03-3078012,桃園市大溪區仁善街100號2樓,24.909120537869,121.28410657112,NP200,法人教會,,
290089092,法人教會,財團法人徐子貴祭祀公業,03-4733319,桃園市觀音區新坡觀音村下25號,25.042965279569,121.13830989542,NP200,法人教會,,
290089091,法人教會,財團法人桃園基督徒中壢禮拜堂,03-4611001,桃園市中壢區中華路一段859號3樓,24.967175374616,121.24531761185,NP200,法人教會,,
290089102,法人教會,財團法人台灣省桃園縣福音信義會,03-3794540,桃園市桃園區大豐路222號,24.980487691346,121.3135598286,NP200,法人教會,,
290089109,法人教會,財團法人中壢教會聚會所,03-4257191,桃園市中壢區中平路88巷3號,24.955527517603,121.2239539305,NP200,法人教會,,
290089101,法人教會,財團法人台灣省桃園縣基督教新歌教會,03-3357581,桃園市桃園區國華街2號,24.999183673631,121.31965137439,NP200,法人教會,,
290089125,法人教會,財團法人基督教聖經聖潔會,03-4586517,桃園市中壢區福州路258、260號6、7樓,24.951954811073,121.23288603447,NP200,法人教會,,
290089205,法人教會,財團法人台灣省桃園縣桃園市中華基督教浸信會溢恩堂,03-3353106,桃園市桃園區東國街55號,24.995337177006,121.31432925332,NP200,法人教會,,
290089154,法人教會,財團法人中國基督教靈糧世界佈道會桃園市府靈糧堂,03-3365919,桃園市桃園區縣府路332之4號5樓,24.992222981979,121.30060533203,NP200,法人教會,,
290089160,法人教會,財團法人台灣省桃園縣龍潭基督徒聚會處,03-4826026,桃園市龍潭區干城路120號,24.871039965369,121.20835211469,NP200,法人教會,,
290089166,法人教會,財團法人沙爾德聖保祿修女會,03-3613141,桃園市桃園區建新街123號,24.982115030241,121.31250682676,NP200,法人教會,,
290089172,法人教會,財團法人中華基督教浸信會迦南堂,03-4364906,桃園市中壢區前龍街21號,24.929645216884,121.25348811534,NP200,法人教會,,
290089173,法人教會,財團法人台灣省桃園縣龍岡清真寺,03-3655825,桃園市中壢區龍東路216號,24.930060612823,121.25367459288,NP200,法人教會,,
290089175,法人教會,財團法人台灣省桃園縣基督教石門浸信會,03-4712542,桃園市龍潭區文化路87號,24.8397543133,121.24025674328,NP200,法人教會,,
290089274,法人教會,財團法人臺灣省桃園縣基督教內壢得勝靈糧堂,03-4613461,桃園市中壢區興農路110巷6號3樓,24.974095038883,121.25789793078,NP200,法人教會,,
290089194,法人教會,財團法人天主教嘉諾撒仁愛修女會,03-4923212,桃園市中壢區中央西路２段124號,24.958718663995,121.21462777272,NP200,法人教會,,
290089208,法人教會,財團法人桃園縣龍潭逸園基督教會,03-4700345,桃園市龍潭區建國路75巷12弄2號,24.842545955341,121.23415579797,NP200,法人教會,,
290089437,法人教會,財團法人廣東高雷會館,03-4584914,桃園市中壢區龍泉街67號,24.934392496038,121.23284188933,NP200,法人教會,,
290089250,法人教會,財團法人台灣省桃園縣桃園基督的教會,03-3334825,桃園市桃園區三民路三段284、286號5樓,25.002003430423,121.31500638145,NP200,法人教會,,
290088446,法人教會,財團法人台灣省桃園縣姜世良祭祀公業基金會,03-3383558,桃園市新屋區社子村番婆炆5號,24.956273295468,121.09117796062,NP200,法人教會,,
290089124,法人教會,財團法人桃園縣基督教聖經教會,03-4532632,桃園市中壢區新生路２段421號,24.985401728845,121.22140799824,NP200,法人教會,,
290089281,法人教會,財團法人基督教中壢錫安堂,03-4566747,桃園市中壢區協同街112號B1,24.955571875818,121.23739123734,NP200,法人教會,,
290089275,法人教會,財團法人中國基督教靈糧世界佈道會中壢靈糧堂,03-4510365,桃園市中壢區延平路98號2樓,24.963598592056,121.23043775792,NP200,法人教會,,
290089308,法人教會,財團法人台灣省桃園縣龍潭教會聚會所,03-4173572,桃園市龍潭區文化路佳安村1號,24.837154466329,121.24030821862,NP200,法人教會,,
290089300,法人教會,財團法人基督教台灣省桃園縣大湳禮拜堂,03-3661430,桃園市八德區福國北街大同村200號,24.962720136731,121.29649694109,NP200,法人教會,,
290089318,法人教會,財團法人台灣省桃園縣莊和睦嘗,03-4594336,桃園市中壢區後寮里81號,24.943926124164,121.24459247501,NP200,法人教會,,
290089333,法人教會,財團法人台灣省桃園縣讓德祭祀公業,03-4981716,桃園市中壢區山下山東里97-5號,,,,,,
290089341,法人教會,財團法人台灣省桃園縣楊梅教會聚會所,03-4756153,桃園市楊梅區金德路130號,24.918326829199,121.14653781855,NP200,法人教會,,
290088562,法人教會,財團法人台灣桃園縣陳氏百公祭祀公業,03-4948811,桃園市新屋區民族路６段頭洲村685巷17號,24.958108716092,121.16538992357,NP200,法人教會,,
290089374,法人教會,財團法人新約教會桃園教會,03-3252603,桃園市桃園區大業路２段58號7樓,25.004720561978,121.31764911937,NP200,法人教會,,
290088610,法人教會,財團法人台灣省桃園縣莊朝取祭祀公業,03-3385533,桃園市蘆竹區南崁後街南崁村4-1號,25.047831170264,121.29490758572,NP200,法人教會,,
290088616,法人教會,財團法人台灣省桃園縣景連公祭祀公業基金會,03-4913289,桃園市新屋區石磊村34號,24.997974685241,121.07936474551,NP200,法人教會,,
290088637,法人教會,財團法人台灣省桃園縣基督教神召會山地區議會,03-3803680,桃園市大溪區廟前仁愛里1至31號,24.882314098218,121.28965912702,NP200,法人教會,,
290088635,法人教會,財團法人東海堂徐氏勤深公派下祭祀公業,02-27945789,桃園市新屋區中華路243之4號,24.972005123966,121.10744950643,NP200,法人教會,,
290089382,法人教會,財團法人台灣省桃園縣簡澤清公祭祀公業,03-3298655,桃園市龜山區自強東路237號,24.996898113264,121.3451194932,NP200,法人教會,,
290088682,法人教會,財團法人桃園縣大溪鎮員樹林基督教會,03-3805864,桃園市大溪區三元二街一弄90號,24.881698023806,121.2694938318,NP200,法人教會,,
290088669,法人教會,財團法人台灣省桃園縣基督教懷恩教堂,03-3886673,桃園市大溪區介壽路1267巷55號,24.900476776069,121.2854032281,NP200,法人教會,,
290089398,法人教會,財團法人台灣省桃園縣基督教中宣拓荒宣教聯會,03-4793207,"桃園市中壢區內厝子內厝里2 鄰17之6 號",,,,,,
290089405,法人教會,財團法人台灣聖民教會,03-4808881,桃園市龍潭區百年五街47號,24.880194428614,121.2102688276,NP200,法人教會,,
290089412,法人教會,財團法人桃園縣鄒沐宗祭祀公業,03-2807843,桃園市中壢區環西路２段411號宗祀大樓4樓,24.965727244901,121.21587265889,NP200,法人教會,,
290089417,法人教會,財團法人台灣省桃園縣耶蘇教會堂,-,桃園市龍潭區東龍路220號,24.864628560555,121.21428194721,NP200,法人教會,,
290089418,法人教會,財團法人桃園縣基督教浸信會百年教會,03-4932306,桃園市龍潭區百年路49號,24.878471324003,121.20944623176,NP200,法人教會,,
290089458,法人教會,財團法人台灣省桃園縣翁元乾嘗祭祀公業,03-4791210,桃園市龍潭區中央街180巷8號,24.882330707265,121.20471286011,NP200,法人教會,,
290089463,法人教會,財團法人台灣省桃園縣基督教石門水庫教會,03-4711991,桃園市龍潭區11份65-1號,24.882677551256,121.24374204221,NP200,法人教會,,
290089234,法人教會,財團法人天主教麒田教會,03-3703517,桃園市桃園區中山路956巷91弄5號,24.990584323838,121.2849447845,NP200,法人教會,,
290088721,法人教會,財團法人桃園縣大園鄉召會聚會所,03-3811380,桃園市大園區大牛稠大海村8鄰3之17號,,,,,,
290088720,法人教會,財團法人基督教世界歸主教會,03-3135290,桃園市大園區大仁46號3樓,25.078138274681,121.25767454575,NP200,法人教會,,
290088737,法人教會,財團法人吳從子旺公祭祀公業,03-4785560,桃園市楊梅區楊新路63巷51號,24.912527103718,121.14637375675,NP200,法人教會,,
290088792,法人教會,財團法人中華基督教長老會桃園教會,03-4505697,桃園市平鎮區平東路239巷120弄11號,24.912677637976,121.24851387132,NP200,法人教會,,
290088851,法人教會,財團法人台灣省新約教會楊梅教會,03-4786725,桃園市楊梅區環南路332號,24.904873964365,121.14327655876,NP200,法人教會,,
290088860,法人教會,財團法人桃園教會聚會所,03-3322602,桃園市桃園區大同路200巷16號,24.988760730387,121.30627351928,NP200,法人教會,,
290088855,法人教會,財團法人台灣省桃園縣中壢徐時偉公嘗,-0912134430,桃園市八德區宵裡村6號,,,,,,
